RecordId,Address,Zip_Original,Species,Diameter,Condition,Wires,Sidewalk_Condition,Support_Structure,Borough,Longitude,Latitude,Zip_New,CensusTract_2010,CensusBlock_2010,SegmentID,Spc_Common,Spc_Latin,Location
1,245 E 17 ST,10003,PLAC,8,Unknown,None,NA,None,Manhattan,-73.984235,40.734551,10003,48,2000,33134,LONDON PLANETREE,PLATANUS ACERIFOLIA,"(40.734551, -73.984235)"
2,80 N MOORE ST,10013,ACPL,7,Good,None,Good,None,Manhattan,-74.010532,40.720159,10013,39,2001,31567,"MAPLE, NORWAY",ACER PLATANOIDES,"(40.720159, -74.010532)"
3,80 N MOORE ST,10013,ACPL,6,Good,None,Good,None,Manhattan,-74.010532,40.720159,10013,39,2001,31567,"MAPLE, NORWAY",ACER PLATANOIDES,"(40.720159, -74.010532)"
4,80 N MOORE ST,10013,ACPL,7,Excellent,None,Good,None,Manhattan,-74.010532,40.720159,10013,39,2001,31567,"MAPLE, NORWAY",ACER PLATANOIDES,"(40.720159, -74.010532)"
5,80 N MOORE ST,10013,ACPL,6,Good,None,Good,None,Manhattan,-74.010532,40.720159,10013,39,2001,31567,"MAPLE, NORWAY",ACER PLATANOIDES,"(40.720159, -74.010532)"
6,80 N MOORE ST,10013,SOJA,6,Good,None,Good,None,Manhattan,-74.010532,40.720159,10013,39,2001,31567,JAPANESE PAGODA TREE,SOPHORA JAPONICA,"(40.720159, -74.010532)"
7,80 N MOORE ST,10013,ACPL,7,Excellent,None,Good,None,Manhattan,-74.010532,40.720159,10013,39,2001,31567,"MAPLE, NORWAY",ACER PLATANOIDES,"(40.720159, -74.010532)"
8,80 N MOORE ST,10013,ACPL,7,Poor,None,Good,None,Manhattan,-74.010532,40.720159,10013,39,2001,31567,"MAPLE, NORWAY",ACER PLATANOIDES,"(40.720159, -74.010532)"
9,80 N MOORE ST,10013,SOJA,4,Poor,None,Good,None,Manhattan,-74.010532,40.720159,10013,39,2001,31567,JAPANESE PAGODA TREE,SOPHORA JAPONICA,"(40.720159, -74.010532)"
10,80 N MOORE ST,10013,ACPL,7,Poor,None,Good,None,Manhattan,-74.010532,40.720159,10013,39,2001,31567,"MAPLE, NORWAY",ACER PLATANOIDES,"(40.720159, -74.010532)"
11,80 N MOORE ST,10013,ACPL,4,Poor,None,Good,None,Manhattan,-74.010532,40.720159,10013,39,2001,31567,"MAPLE, NORWAY",ACER PLATANOIDES,"(40.720159, -74.010532)"
12,80 N MOORE ST,10013,ACPL,4,Poor,None,Good,None,Manhattan,-74.010532,40.720159,10013,39,2001,31567,"MAPLE, NORWAY",ACER PLATANOIDES,"(40.720159, -74.010532)"
13,80 N MOORE ST,10013,QUPA,3,Poor,None,Good,None,Manhattan,-74.010532,40.720159,10013,39,2001,31567,"OAK, PIN",QUERCUS PALUSTRIS,"(40.720159, -74.010532)"
14,40 HARRISON ST,10013,TICO,2,Poor,None,Good,None,Manhattan,-74.010661,40.718833,10013,39,2001,164122,"LINDEN, LITTLE LEAF",TILIA CORDATA,"(40.718833, -74.010661)"
15,40 HARRISON ST,10013,FRPE,5,Poor,None,Good,None,Manhattan,-74.010661,40.718833,10013,39,2001,164122,"ASH, GREEN",FRAXINUS PENNSYLVANICA,"(40.718833, -74.010661)"
16,40 HARRISON ST,10013,FRPE,4,Good,None,Good,None,Manhattan,-74.010661,40.718833,10013,39,2001,164122,"ASH, GREEN",FRAXINUS PENNSYLVANICA,"(40.718833, -74.010661)"
17,25 HARRISON ST,10013,TICO,6,Excellent,None,Good,None,Manhattan,-74.01043,40.718806,10013,39,3000,164122,"LINDEN, LITTLE LEAF",TILIA CORDATA,"(40.718806, -74.01043)"
18,27 HARRISON ST,10013,TICO,11,Excellent,None,Good,None,Manhattan,-74.010481,40.718812,10013,39,3000,164122,"LINDEN, LITTLE LEAF",TILIA CORDATA,"(40.718812, -74.010481)"
19,29 HARRISON ST,10013,TICO,8,Good,None,Good,None,Manhattan,-74.010533,40.718818,10013,39,3000,164122,"LINDEN, LITTLE LEAF",TILIA CORDATA,"(40.718818, -74.010533)"
20,29 HARRISON ST,10013,TICO,9,Excellent,None,Good,None,Manhattan,-74.010533,40.718818,10013,39,3000,164122,"LINDEN, LITTLE LEAF",TILIA CORDATA,"(40.718818, -74.010533)"
21,33 HARRISON ST,10013,TICO,12,Excellent,None,Good,None,Manhattan,-74.010636,40.71883,10013,39,3000,164122,"LINDEN, LITTLE LEAF",TILIA CORDATA,"(40.71883, -74.010636)"
22,33 HARRISON ST,10013,TICO,10,Excellent,None,Good,None,Manhattan,-74.010636,40.71883,10013,39,3000,164122,"LINDEN, LITTLE LEAF",TILIA CORDATA,"(40.71883, -74.010636)"
23,33 HARRISON ST,10013,TICO,10,Excellent,None,Good,None,Manhattan,-74.010636,40.71883,10013,39,3000,164122,"LINDEN, LITTLE LEAF",TILIA CORDATA,"(40.71883, -74.010636)"
24,37 HARRISON ST,10013,TICO,10,Excellent,None,Good,None,Manhattan,-74.010739,40.718842,10013,39,3000,164122,"LINDEN, LITTLE LEAF",TILIA CORDATA,"(40.718842, -74.010739)"
25,39 HARRISON ST,10013,TICO,11,Excellent,None,Good,None,Manhattan,-74.010791,40.718848,10013,39,3000,164122,"LINDEN, LITTLE LEAF",TILIA CORDATA,"(40.718848, -74.010791)"
26,41 HARRISON ST,10013,GLTR,9,Poor,None,Good,None,Manhattan,-74.010843,40.718854,10013,39,3000,164122,HONEYLOCUST,GLEDITSIA TRIACANTHOS,"(40.718854, -74.010843)"
27,39 HARRISON ST,10013,GLTR,6,Poor,None,Good,None,Manhattan,-74.010791,40.718848,10013,39,3000,164122,HONEYLOCUST,GLEDITSIA TRIACANTHOS,"(40.718848, -74.010791)"
28,37 HARRISON ST,10013,GLTR,8,Poor,None,Good,None,Manhattan,-74.010739,40.718842,10013,39,3000,164122,HONEYLOCUST,GLEDITSIA TRIACANTHOS,"(40.718842, -74.010739)"
29,33 HARRISON ST,10013,GLTR,7,Poor,None,Good,None,Manhattan,-74.010636,40.71883,10013,39,3000,164122,HONEYLOCUST,GLEDITSIA TRIACANTHOS,"(40.71883, -74.010636)"
30,33 HARRISON ST,10013,GLTR,10,Poor,None,Good,None,Manhattan,-74.010636,40.71883,10013,39,3000,164122,HONEYLOCUST,GLEDITSIA TRIACANTHOS,"(40.71883, -74.010636)"
31,290 BROADWAY,10007,OSVI,4,Excellent,None,Good,None,Manhattan,-74.005823,40.714754,10007,31,1016,23405,EASTERN HOP HORNBEAM,OSTRYA VIRGINIANA,"(40.714754, -74.005823)"
32,290 BROADWAY,10007,OSVI,4,Excellent,None,Good,None,Manhattan,-74.005823,40.714754,10007,31,1016,23405,EASTERN HOP HORNBEAM,OSTRYA VIRGINIANA,"(40.714754, -74.005823)"
33,290 BROADWAY,10007,OSVI,4,Excellent,None,Good,None,Manhattan,-74.005823,40.714754,10007,31,1016,23405,EASTERN HOP HORNBEAM,OSTRYA VIRGINIANA,"(40.714754, -74.005823)"
34,355 GREENWICH ST,10013,TICO,9,Good,None,Good,None,Manhattan,-74.010399,40.718813,10013,39,4004,31565,"LINDEN, LITTLE LEAF",TILIA CORDATA,"(40.718813, -74.010399)"
35,290 BROADWAY,10007,OSVI,4,Excellent,None,Good,None,Manhattan,-74.005823,40.714754,10007,31,1016,23405,EASTERN HOP HORNBEAM,OSTRYA VIRGINIANA,"(40.714754, -74.005823)"
36,290 BROADWAY,10007,OSVI,4,Excellent,None,Good,None,Manhattan,-74.005823,40.714754,10007,31,1016,23405,EASTERN HOP HORNBEAM,OSTRYA VIRGINIANA,"(40.714754, -74.005823)"
37,361 GREENWICH ST,10013,TICO,8,Poor,None,Good,None,Manhattan,-74.010354,40.719082,10013,39,4004,31565,"LINDEN, LITTLE LEAF",TILIA CORDATA,"(40.719082, -74.010354)"
38,290 BROADWAY,10007,OSVI,4,Excellent,None,Good,None,Manhattan,-74.005823,40.714754,10007,31,1016,23405,EASTERN HOP HORNBEAM,OSTRYA VIRGINIANA,"(40.714754, -74.005823)"
39,290 BROADWAY,10007,OSVI,4,Excellent,None,Good,None,Manhattan,-74.005823,40.714754,10007,31,1016,23405,EASTERN HOP HORNBEAM,OSTRYA VIRGINIANA,"(40.714754, -74.005823)"
40,3521/2 GREENWICH ST,0,GLTR,7,Poor,None,Good,None,Manhattan,1,1,10013,39,2001,31565,HONEYLOCUST,GLEDITSIA TRIACANTHOS,"(1.0, 1.0)"
41,290 BROADWAY,10007,OSVI,4,Excellent,None,Good,None,Manhattan,-74.005823,40.714754,10007,31,1016,23405,EASTERN HOP HORNBEAM,OSTRYA VIRGINIANA,"(40.714754, -74.005823)"
42,290 BROADWAY,10007,OSVI,4,Excellent,None,Good,None,Manhattan,-74.005823,40.714754,10007,31,1016,23405,EASTERN HOP HORNBEAM,OSTRYA VIRGINIANA,"(40.714754, -74.005823)"
43,3541/2 GREENWICH ST,0,GLTR,3,Good,None,Good,None,Manhattan,1,1,10013,39,2001,31565,HONEYLOCUST,GLEDITSIA TRIACANTHOS,"(1.0, 1.0)"
44,290 BROADWAY,10007,OSVI,4,Excellent,None,Good,None,Manhattan,-74.005823,40.714754,10007,31,1016,23405,EASTERN HOP HORNBEAM,OSTRYA VIRGINIANA,"(40.714754, -74.005823)"
45,290 BROADWAY,10007,OSVI,4,Excellent,None,Good,None,Manhattan,-74.005823,40.714754,10007,31,1016,23405,EASTERN HOP HORNBEAM,OSTRYA VIRGINIANA,"(40.714754, -74.005823)"
46,3541/2 GREENWICH ST,0,GLTR,4,Poor,None,Good,None,Manhattan,1,1,10013,39,2001,31565,HONEYLOCUST,GLEDITSIA TRIACANTHOS,"(1.0, 1.0)"
47,290 BROADWAY,10007,OSVI,4,Excellent,None,Good,None,Manhattan,-74.005823,40.714754,10007,31,1016,23405,EASTERN HOP HORNBEAM,OSTRYA VIRGINIANA,"(40.714754, -74.005823)"
48,290 BROADWAY,10007,OSVI,4,Excellent,None,Good,None,Manhattan,-74.005823,40.714754,10007,31,1016,23405,EASTERN HOP HORNBEAM,OSTRYA VIRGINIANA,"(40.714754, -74.005823)"
49,3701/2 GREENWICH ST,0,GLTR,5,Good,None,Good,None,Manhattan,1,1,10013,39,2001,31566,HONEYLOCUST,GLEDITSIA TRIACANTHOS,"(1.0, 1.0)"
50,290 BROADWAY,10007,OSVI,4,Excellent,None,Good,None,Manhattan,-74.005823,40.714754,10007,31,1016,23405,EASTERN HOP HORNBEAM,OSTRYA VIRGINIANA,"(40.714754, -74.005823)"
51,290 BROADWAY,10007,OSVI,4,Excellent,None,Good,None,Manhattan,-74.005823,40.714754,10007,31,1016,23405,EASTERN HOP HORNBEAM,OSTRYA VIRGINIANA,"(40.714754, -74.005823)"
52,3721/2 GREENWICH ST,0,GLTR,4,Poor,None,Good,None,Manhattan,1,1,10013,39,2001,31566,HONEYLOCUST,GLEDITSIA TRIACANTHOS,"(1.0, 1.0)"
53,290 BROADWAY,10007,OSVI,4,Excellent,None,Good,None,Manhattan,-74.005823,40.714754,10007,31,1016,23405,EASTERN HOP HORNBEAM,OSTRYA VIRGINIANA,"(40.714754, -74.005823)"
54,290 BROADWAY,10007,OSVI,4,Good,None,Good,None,Manhattan,-74.005823,40.714754,10007,31,1016,23405,EASTERN HOP HORNBEAM,OSTRYA VIRGINIANA,"(40.714754, -74.005823)"
55,3781/2 GREENWICH ST,0,GLTR,7,Good,None,Good,None,Manhattan,1,1,10013,39,2001,31566,HONEYLOCUST,GLEDITSIA TRIACANTHOS,"(1.0, 1.0)"
56,3781/2 GREENWICH ST,0,GIBI,5,Excellent,None,Good,None,Manhattan,1,1,10013,39,2001,31566,GINKGO,GINKGO BILOBA,"(1.0, 1.0)"
57,3781/2 GREENWICH ST,0,GIBI,4,Good,None,Good,None,Manhattan,1,1,10013,39,2001,31566,GINKGO,GINKGO BILOBA,"(1.0, 1.0)"
58,361 GREENWICH ST,10013,ULAM,4,Good,None,Good,None,Manhattan,-74.010354,40.719082,10013,39,4004,31565,"ELM, AMERICAN",ULMUS AMERICANA,"(40.719082, -74.010354)"
59,290 BROADWAY,10007,OSVI,4,Excellent,None,Good,None,Manhattan,-74.005823,40.714754,10007,31,1016,23405,EASTERN HOP HORNBEAM,OSTRYA VIRGINIANA,"(40.714754, -74.005823)"
60,290 BROADWAY,10007,OSVI,4,Excellent,None,Good,None,Manhattan,-74.005823,40.714754,10007,31,1016,23405,EASTERN HOP HORNBEAM,OSTRYA VIRGINIANA,"(40.714754, -74.005823)"
61,290 BROADWAY,10007,OSVI,4,Excellent,None,Good,None,Manhattan,-74.005823,40.714754,10007,31,1016,23405,EASTERN HOP HORNBEAM,OSTRYA VIRGINIANA,"(40.714754, -74.005823)"
62,290 BROADWAY,10007,OSVI,4,Excellent,None,Good,None,Manhattan,-74.005823,40.714754,10007,31,1016,23405,EASTERN HOP HORNBEAM,OSTRYA VIRGINIANA,"(40.714754, -74.005823)"
63,290 BROADWAY,10007,OSVI,4,Excellent,None,Good,None,Manhattan,-74.005823,40.714754,10007,31,1016,23405,EASTERN HOP HORNBEAM,OSTRYA VIRGINIANA,"(40.714754, -74.005823)"
64,290 BROADWAY,10007,OSVI,4,Excellent,None,Good,None,Manhattan,-74.005823,40.714754,10007,31,1016,23405,EASTERN HOP HORNBEAM,OSTRYA VIRGINIANA,"(40.714754, -74.005823)"
65,290 BROADWAY,10007,OSVI,4,Excellent,None,Good,None,Manhattan,-74.005823,40.714754,10007,31,1016,23405,EASTERN HOP HORNBEAM,OSTRYA VIRGINIANA,"(40.714754, -74.005823)"
66,290 BROADWAY,10007,OSVI,4,Excellent,None,Good,None,Manhattan,-74.005823,40.714754,10007,31,1016,23405,EASTERN HOP HORNBEAM,OSTRYA VIRGINIANA,"(40.714754, -74.005823)"
67,290 BROADWAY,10007,OSVI,4,Excellent,None,Good,None,Manhattan,-74.005823,40.714754,10007,31,1016,23405,EASTERN HOP HORNBEAM,OSTRYA VIRGINIANA,"(40.714754, -74.005823)"
68,9 N MOORE ST,10013,PR,2,Poor,None,Good,None,Manhattan,-74.006433,40.719742,10013,33,3013,31804,"CHERRY, OTHER",PRUNUS SPECIES,"(40.719742, -74.006433)"
69,290 BROADWAY,10007,OSVI,4,Excellent,None,Good,None,Manhattan,-74.005823,40.714754,10007,31,1016,23405,EASTERN HOP HORNBEAM,OSTRYA VIRGINIANA,"(40.714754, -74.005823)"
70,9 N MOORE ST,10013,PR,2,Poor,None,Good,None,Manhattan,-74.006433,40.719742,10013,33,3013,31804,"CHERRY, OTHER",PRUNUS SPECIES,"(40.719742, -74.006433)"
71,290 BROADWAY,10007,OSVI,5,Excellent,None,Good,None,Manhattan,-74.005823,40.714754,10007,31,1016,23405,EASTERN HOP HORNBEAM,OSTRYA VIRGINIANA,"(40.714754, -74.005823)"
72,290 BROADWAY,10007,OSVI,4,Excellent,None,Good,None,Manhattan,-74.005823,40.714754,10007,31,1016,23405,EASTERN HOP HORNBEAM,OSTRYA VIRGINIANA,"(40.714754, -74.005823)"
73,388 GREENWICH ST,10013,GLTR,5,Excellent,None,Good,None,Manhattan,-74.010132,40.720544,10013,39,2002,31568,HONEYLOCUST,GLEDITSIA TRIACANTHOS,"(40.720544, -74.010132)"
74,388 GREENWICH ST,10013,GLTR,5,Excellent,None,Good,None,Manhattan,-74.010132,40.720544,10013,39,2002,31568,HONEYLOCUST,GLEDITSIA TRIACANTHOS,"(40.720544, -74.010132)"
75,388 GREENWICH ST,10013,GLTR,5,Excellent,None,Good,None,Manhattan,-74.010132,40.720544,10013,39,2002,31568,HONEYLOCUST,GLEDITSIA TRIACANTHOS,"(40.720544, -74.010132)"
76,388 GREENWICH ST,10013,GLTR,4,Good,None,Good,None,Manhattan,-74.010132,40.720544,10013,39,2002,31568,HONEYLOCUST,GLEDITSIA TRIACANTHOS,"(40.720544, -74.010132)"
77,388 GREENWICH ST,10013,GLTR,5,Excellent,None,Good,None,Manhattan,-74.010132,40.720544,10013,39,2002,31568,HONEYLOCUST,GLEDITSIA TRIACANTHOS,"(40.720544, -74.010132)"
78,388 GREENWICH ST,10013,GLTR,5,Excellent,None,Good,None,Manhattan,-74.010132,40.720544,10013,39,2002,31568,HONEYLOCUST,GLEDITSIA TRIACANTHOS,"(40.720544, -74.010132)"
79,388 GREENWICH ST,10013,GLTR,6,Excellent,None,Good,None,Manhattan,-74.010132,40.720544,10013,39,2002,31568,HONEYLOCUST,GLEDITSIA TRIACANTHOS,"(40.720544, -74.010132)"
80,80 N MOORE ST,10013,ACPL,6,Poor,None,Good,None,Manhattan,-74.010532,40.720159,10013,39,2001,31567,"MAPLE, NORWAY",ACER PLATANOIDES,"(40.720159, -74.010532)"
81,80 N MOORE ST,10013,ACPL,8,Poor,None,Good,None,Manhattan,-74.010532,40.720159,10013,39,2001,31567,"MAPLE, NORWAY",ACER PLATANOIDES,"(40.720159, -74.010532)"
82,80 N MOORE ST,10013,ACPL,7,Poor,None,Good,None,Manhattan,-74.010532,40.720159,10013,39,2001,31567,"MAPLE, NORWAY",ACER PLATANOIDES,"(40.720159, -74.010532)"
83,80 N MOORE ST,10013,FRPE,6,Excellent,None,Good,None,Manhattan,-74.010532,40.720159,10013,39,2001,31567,"ASH, GREEN",FRAXINUS PENNSYLVANICA,"(40.720159, -74.010532)"
84,105 DUANE ST,10007,OSVI,4,Excellent,None,Good,None,Manhattan,-74.006097,40.715544,10007,33,1010,23406,EASTERN HOP HORNBEAM,OSTRYA VIRGINIANA,"(40.715544, -74.006097)"
85,105 DUANE ST,10007,OSVI,4,Good,None,Good,None,Manhattan,-74.006097,40.715544,10007,33,1010,23406,EASTERN HOP HORNBEAM,OSTRYA VIRGINIANA,"(40.715544, -74.006097)"
86,105 DUANE ST,10007,OSVI,4,Poor,None,Good,None,Manhattan,-74.006097,40.715544,10007,33,1010,23406,EASTERN HOP HORNBEAM,OSTRYA VIRGINIANA,"(40.715544, -74.006097)"
87,105 DUANE ST,10007,OSVI,4,Good,None,Good,None,Manhattan,-74.006097,40.715544,10007,33,1010,23406,EASTERN HOP HORNBEAM,OSTRYA VIRGINIANA,"(40.715544, -74.006097)"
88,105 DUANE ST,10007,OSVI,4,Excellent,None,Good,None,Manhattan,-74.006097,40.715544,10007,33,1010,23406,EASTERN HOP HORNBEAM,OSTRYA VIRGINIANA,"(40.715544, -74.006097)"
89,105 DUANE ST,10007,OSVI,4,Good,None,Good,None,Manhattan,-74.006097,40.715544,10007,33,1010,23406,EASTERN HOP HORNBEAM,OSTRYA VIRGINIANA,"(40.715544, -74.006097)"
90,105 DUANE ST,10007,OSVI,3,Excellent,None,Good,None,Manhattan,-74.006097,40.715544,10007,33,1010,23406,EASTERN HOP HORNBEAM,OSTRYA VIRGINIANA,"(40.715544, -74.006097)"
91,350B HUDSON ST,10014,PYCA,3,Good,None,Good,None,Manhattan,-74.007293,40.727495,10014,37,2004,31914,"PEAR, CALLERY",PYRUS CALLERYANA,"(40.727495, -74.007293)"
94,335 GREENWICH ST,10013,PYCA,3,Poor,None,Good,Stakes / Wires,Manhattan,-74.010556,40.718,10013,39,4007,31539,"PEAR, CALLERY",PYRUS CALLERYANA,"(40.718, -74.010556)"
95,33 THOMAS ST,10013,OSVI,4,Excellent,None,Good,None,Manhattan,-74.006176,40.716304,10007,33,1007,31772,EASTERN HOP HORNBEAM,OSTRYA VIRGINIANA,"(40.716304, -74.006176)"
213,101 BARCLAY ST,10007,GIBI,5,Dead,None,Good,None,Manhattan,-74.011889,40.71374,10007,21,2006,23238,GINKGO,GINKGO BILOBA,"(40.71374, -74.011889)"
96,33 THOMAS ST,10013,OSVI,3,Excellent,None,Good,None,Manhattan,-74.006176,40.716304,10007,33,1007,31772,EASTERN HOP HORNBEAM,OSTRYA VIRGINIANA,"(40.716304, -74.006176)"
97,33 THOMAS ST,10013,OSVI,3,Good,None,Good,None,Manhattan,-74.006176,40.716304,10007,33,1007,31772,EASTERN HOP HORNBEAM,OSTRYA VIRGINIANA,"(40.716304, -74.006176)"
98,335 GREENWICH ST,10013,PYCA,2,Poor,None,Good,Stakes / Wires,Manhattan,-74.010556,40.718,10013,39,4007,31539,"PEAR, CALLERY",PYRUS CALLERYANA,"(40.718, -74.010556)"
99,33 THOMAS ST,10013,OSVI,4,Good,None,Good,None,Manhattan,-74.006176,40.716304,10007,33,1007,31772,EASTERN HOP HORNBEAM,OSTRYA VIRGINIANA,"(40.716304, -74.006176)"
100,335 GREENWICH ST,10013,PYCA,5,Excellent,None,Good,None,Manhattan,-74.010556,40.718,10013,39,4007,31539,"PEAR, CALLERY",PYRUS CALLERYANA,"(40.718, -74.010556)"
101,335 GREENWICH ST,10013,PYCA,4,Excellent,None,Good,None,Manhattan,-74.010556,40.718,10013,39,4007,31539,"PEAR, CALLERY",PYRUS CALLERYANA,"(40.718, -74.010556)"
102,335 GREENWICH ST,10013,PYCA,4,Excellent,None,Good,None,Manhattan,-74.010556,40.718,10013,39,4007,31539,"PEAR, CALLERY",PYRUS CALLERYANA,"(40.718, -74.010556)"
103,335 GREENWICH ST,10013,PYCA,4,Excellent,None,Good,None,Manhattan,-74.010556,40.718,10013,39,4007,31539,"PEAR, CALLERY",PYRUS CALLERYANA,"(40.718, -74.010556)"
104,323A GREENWICH ST,10013,GLTR,2,Good,None,Good,None,Manhattan,-74.010694,40.717461,10013,39,4010,31538,HONEYLOCUST,GLEDITSIA TRIACANTHOS,"(40.717461, -74.010694)"
105,52 DUANE ST,10007,GIBI,4,Poor,None,Good,None,Manhattan,-74.003786,40.714405,10007,31,1015,23568,GINKGO,GINKGO BILOBA,"(40.714405, -74.003786)"
106,323A GREENWICH ST,10013,GLTR,3,Excellent,None,Good,None,Manhattan,-74.010694,40.717461,10013,39,4010,31538,HONEYLOCUST,GLEDITSIA TRIACANTHOS,"(40.717461, -74.010694)"
107,323A GREENWICH ST,10013,GLTR,11,Excellent,None,Good,None,Manhattan,-74.010694,40.717461,10013,39,4010,31538,HONEYLOCUST,GLEDITSIA TRIACANTHOS,"(40.717461, -74.010694)"
108,323A GREENWICH ST,10013,GLTR,5,Excellent,None,Good,None,Manhattan,-74.010694,40.717461,10013,39,4010,31538,HONEYLOCUST,GLEDITSIA TRIACANTHOS,"(40.717461, -74.010694)"
109,323A GREENWICH ST,10013,GLTR,11,Excellent,None,Good,None,Manhattan,-74.010694,40.717461,10013,39,4010,31538,HONEYLOCUST,GLEDITSIA TRIACANTHOS,"(40.717461, -74.010694)"
110,323A GREENWICH ST,10013,GLTR,11,Excellent,None,Good,None,Manhattan,-74.010694,40.717461,10013,39,4010,31538,HONEYLOCUST,GLEDITSIA TRIACANTHOS,"(40.717461, -74.010694)"
111,323A GREENWICH ST,10013,GLTR,14,Excellent,None,Good,None,Manhattan,-74.010694,40.717461,10013,39,4010,31538,HONEYLOCUST,GLEDITSIA TRIACANTHOS,"(40.717461, -74.010694)"
112,323A GREENWICH ST,10013,GLTR,11,Excellent,None,Good,None,Manhattan,-74.010694,40.717461,10013,39,4010,31538,HONEYLOCUST,GLEDITSIA TRIACANTHOS,"(40.717461, -74.010694)"
113,323A GREENWICH ST,10013,GLTR,10,Excellent,None,Good,None,Manhattan,-74.010694,40.717461,10013,39,4010,31538,HONEYLOCUST,GLEDITSIA TRIACANTHOS,"(40.717461, -74.010694)"
114,323A GREENWICH ST,10013,GLTR,10,Excellent,None,Good,None,Manhattan,-74.010694,40.717461,10013,39,4010,31538,HONEYLOCUST,GLEDITSIA TRIACANTHOS,"(40.717461, -74.010694)"
115,323A GREENWICH ST,10013,GLTR,12,Excellent,None,Good,None,Manhattan,-74.010694,40.717461,10013,39,4010,31538,HONEYLOCUST,GLEDITSIA TRIACANTHOS,"(40.717461, -74.010694)"
116,323A GREENWICH ST,10013,GLTR,12,Excellent,None,Good,None,Manhattan,-74.010694,40.717461,10013,39,4010,31538,HONEYLOCUST,GLEDITSIA TRIACANTHOS,"(40.717461, -74.010694)"
140,49 CHAMBERS ST,10007,GLTR,5,Good,None,Good,None,Manhattan,-74.005362,40.713746,10007,31,1017,23408,HONEYLOCUST,GLEDITSIA TRIACANTHOS,"(40.713746, -74.005362)"
117,323A GREENWICH ST,10013,GLTR,10,Excellent,None,Good,None,Manhattan,-74.010694,40.717461,10013,39,4010,31538,HONEYLOCUST,GLEDITSIA TRIACANTHOS,"(40.717461, -74.010694)"
118,323A GREENWICH ST,10013,GLTR,12,Excellent,None,Good,None,Manhattan,-74.010694,40.717461,10013,39,4010,31538,HONEYLOCUST,GLEDITSIA TRIACANTHOS,"(40.717461, -74.010694)"
119,2 LAFAYETTE ST,10007,PLAC,4,Good,None,Good,None,Manhattan,-74.003618,40.71364,10007,31,1015,23561,LONDON PLANETREE,PLATANUS ACERIFOLIA,"(40.71364, -74.003618)"
120,2 LAFAYETTE ST,10007,PLAC,7,Good,None,Good,None,Manhattan,-74.003618,40.71364,10007,31,1015,23561,LONDON PLANETREE,PLATANUS ACERIFOLIA,"(40.71364, -74.003618)"
121,311 GREENWICH ST,10013,PYCA,7,Excellent,None,Good,None,Manhattan,-74.010861,40.716795,10013,21,2000,31537,"PEAR, CALLERY",PYRUS CALLERYANA,"(40.716795, -74.010861)"
122,311 GREENWICH ST,10013,PYCA,8,Excellent,None,Good,None,Manhattan,-74.010861,40.716795,10013,21,2000,31537,"PEAR, CALLERY",PYRUS CALLERYANA,"(40.716795, -74.010861)"
123,311 GREENWICH ST,10013,PYCA,8,Excellent,None,Good,None,Manhattan,-74.010861,40.716795,10013,21,2000,31537,"PEAR, CALLERY",PYRUS CALLERYANA,"(40.716795, -74.010861)"
124,154 READE ST,10013,PYCA,5,Excellent,None,Good,None,Manhattan,-74.009918,40.716511,10013,39,4010,31543,"PEAR, CALLERY",PYRUS CALLERYANA,"(40.716511, -74.009918)"
125,154 READE ST,10013,PYCA,7,Excellent,None,Good,None,Manhattan,-74.009918,40.716511,10013,39,4010,31543,"PEAR, CALLERY",PYRUS CALLERYANA,"(40.716511, -74.009918)"
126,154 READE ST,10013,PYCA,5,Excellent,None,Good,None,Manhattan,-74.009918,40.716511,10013,39,4010,31543,"PEAR, CALLERY",PYRUS CALLERYANA,"(40.716511, -74.009918)"
127,152 READE ST,10013,PYCA,7,Excellent,None,Good,None,Manhattan,-74.009877,40.716492,10013,39,4010,31543,"PEAR, CALLERY",PYRUS CALLERYANA,"(40.716492, -74.009877)"
128,152 READE ST,10013,PYCA,6,Excellent,None,Good,None,Manhattan,-74.009877,40.716492,10013,39,4010,31543,"PEAR, CALLERY",PYRUS CALLERYANA,"(40.716492, -74.009877)"
129,134 READE ST,10013,PYCA,11,Excellent,None,Good,None,Manhattan,-74.009513,40.716327,10013,39,4010,31543,"PEAR, CALLERY",PYRUS CALLERYANA,"(40.716327, -74.009513)"
130,134 READE ST,10013,PYCA,10,Excellent,None,Good,None,Manhattan,-74.009513,40.716327,10013,39,4010,31543,"PEAR, CALLERY",PYRUS CALLERYANA,"(40.716327, -74.009513)"
131,134 READE ST,10013,PYCA,12,Excellent,None,Good,None,Manhattan,-74.009513,40.716327,10013,39,4010,31543,"PEAR, CALLERY",PYRUS CALLERYANA,"(40.716327, -74.009513)"
132,134 READE ST,10013,PYCA,11,Excellent,None,Good,None,Manhattan,-74.009513,40.716327,10013,39,4010,31543,"PEAR, CALLERY",PYRUS CALLERYANA,"(40.716327, -74.009513)"
133,134 READE ST,10013,PYCA,9,Excellent,None,Good,None,Manhattan,-74.009513,40.716327,10013,39,4010,31543,"PEAR, CALLERY",PYRUS CALLERYANA,"(40.716327, -74.009513)"
134,13 HUDSON ST,10013,PYCA,11,Excellent,None,Good,None,Manhattan,-74.009198,40.716249,10013,39,4010,31544,"PEAR, CALLERY",PYRUS CALLERYANA,"(40.716249, -74.009198)"
135,13 HUDSON ST,10013,FRPE,5,Excellent,None,Good,None,Manhattan,-74.009198,40.716249,10013,39,4010,31544,"ASH, GREEN",FRAXINUS PENNSYLVANICA,"(40.716249, -74.009198)"
136,31 CHAMBERS ST,10007,GLTR,4,Excellent,None,Good,None,Manhattan,-74.00472,40.713435,10007,31,1020,23556,HONEYLOCUST,GLEDITSIA TRIACANTHOS,"(40.713435, -74.00472)"
137,13 HUDSON ST,10013,GLTR,4,Poor,None,Good,None,Manhattan,-74.009198,40.716249,10013,39,4010,31544,HONEYLOCUST,GLEDITSIA TRIACANTHOS,"(40.716249, -74.009198)"
138,31 CHAMBERS ST,10007,GLTR,4,Excellent,None,Good,None,Manhattan,-74.00472,40.713435,10007,31,1020,23556,HONEYLOCUST,GLEDITSIA TRIACANTHOS,"(40.713435, -74.00472)"
139,31 CHAMBERS ST,10007,GLTR,6,Excellent,None,Good,None,Manhattan,-74.00472,40.713435,10007,31,1020,23556,HONEYLOCUST,GLEDITSIA TRIACANTHOS,"(40.713435, -74.00472)"
212,101 W BROADWAY,10013,GIBI,6,Excellent,None,Good,None,Manhattan,-74.009031,40.715767,10013,21,1000,23257,GINKGO,GINKGO BILOBA,"(40.715767, -74.009031)"
141,51 CHAMBERS ST,10007,GLTR,4,Excellent,None,Good,None,Manhattan,-74.005449,40.71379,10007,31,1017,23408,HONEYLOCUST,GLEDITSIA TRIACANTHOS,"(40.71379, -74.005449)"
142,61 CHAMBERS ST,10007,GLTR,5,Excellent,None,Good,None,Manhattan,-74.005883,40.714006,10007,31,1017,23408,HONEYLOCUST,GLEDITSIA TRIACANTHOS,"(40.714006, -74.005883)"
143,61 CHAMBERS ST,10007,GLTR,7,Excellent,None,Good,None,Manhattan,-74.005883,40.714006,10007,31,1017,23408,HONEYLOCUST,GLEDITSIA TRIACANTHOS,"(40.714006, -74.005883)"
144,162 CHAMBERS ST,10007,GLTR,3,Excellent,None,Good,None,Manhattan,-74.010627,40.716149,10007,21,2001,23255,HONEYLOCUST,GLEDITSIA TRIACANTHOS,"(40.716149, -74.010627)"
145,164 CHAMBERS ST,10007,GLTR,6,Good,None,Good,None,Manhattan,-74.010731,40.716196,10007,21,2001,23255,HONEYLOCUST,GLEDITSIA TRIACANTHOS,"(40.716196, -74.010731)"
146,166 CHAMBERS ST,10007,GLTR,5,Good,None,Good,None,Manhattan,-74.010836,40.716244,10007,21,2001,23255,HONEYLOCUST,GLEDITSIA TRIACANTHOS,"(40.716244, -74.010836)"
147,166 CHAMBERS ST,10007,GLTR,5,Excellent,None,Good,None,Manhattan,-74.010836,40.716244,10007,21,2001,23255,HONEYLOCUST,GLEDITSIA TRIACANTHOS,"(40.716244, -74.010836)"
148,166 CHAMBERS ST,10007,GLTR,5,Good,None,Good,None,Manhattan,-74.010836,40.716244,10007,21,2001,23255,HONEYLOCUST,GLEDITSIA TRIACANTHOS,"(40.716244, -74.010836)"
149,199 CHAMBERS ST,10013,QUPA,8,Excellent,None,Good,None,Manhattan,-74.012281,40.71692,10013,39,3000,31478,"OAK, PIN",QUERCUS PALUSTRIS,"(40.71692, -74.012281)"
150,199 CHAMBERS ST,10013,QUPA,6,Good,None,Good,None,Manhattan,-74.012281,40.71692,10013,39,3000,31478,"OAK, PIN",QUERCUS PALUSTRIS,"(40.71692, -74.012281)"
151,199 CHAMBERS ST,10013,QUPA,5,Good,None,Good,None,Manhattan,-74.012281,40.71692,10013,39,3000,31478,"OAK, PIN",QUERCUS PALUSTRIS,"(40.71692, -74.012281)"
152,199 CHAMBERS ST,10013,QUPA,6,Excellent,None,Good,None,Manhattan,-74.012281,40.71692,10013,39,3000,31478,"OAK, PIN",QUERCUS PALUSTRIS,"(40.71692, -74.012281)"
153,199 CHAMBERS ST,10013,QUPA,5,Good,None,Good,None,Manhattan,-74.012281,40.71692,10013,39,3000,31478,"OAK, PIN",QUERCUS PALUSTRIS,"(40.71692, -74.012281)"
154,199 CHAMBERS ST,10013,QUPA,4,Poor,None,Good,None,Manhattan,-74.012281,40.71692,10013,39,3000,31478,"OAK, PIN",QUERCUS PALUSTRIS,"(40.71692, -74.012281)"
155,199 CHAMBERS ST,10013,QUPA,2,Good,None,Good,None,Manhattan,-74.012281,40.71692,10013,39,3000,31478,"OAK, PIN",QUERCUS PALUSTRIS,"(40.71692, -74.012281)"
156,199 CHAMBERS ST,10013,QUPA,2,Good,None,Good,None,Manhattan,-74.012281,40.71692,10013,39,3000,31478,"OAK, PIN",QUERCUS PALUSTRIS,"(40.71692, -74.012281)"
157,199 CHAMBERS ST,10013,QUPA,3,Good,None,Good,None,Manhattan,-74.012281,40.71692,10013,39,3000,31478,"OAK, PIN",QUERCUS PALUSTRIS,"(40.71692, -74.012281)"
158,199 CHAMBERS ST,10013,QUPA,4,Poor,None,Good,None,Manhattan,-74.012281,40.71692,10013,39,3000,31478,"OAK, PIN",QUERCUS PALUSTRIS,"(40.71692, -74.012281)"
159,199 CHAMBERS ST,10013,GLTR,3,Good,None,Good,None,Manhattan,-74.012281,40.71692,10013,39,3000,31478,HONEYLOCUST,GLEDITSIA TRIACANTHOS,"(40.71692, -74.012281)"
160,290 BROADWAY,10007,OSVI,4,Excellent,None,Good,None,Manhattan,-74.005823,40.714754,10007,31,1016,23405,EASTERN HOP HORNBEAM,OSTRYA VIRGINIANA,"(40.714754, -74.005823)"
161,199 CHAMBERS ST,10013,QURU,4,Excellent,None,Good,None,Manhattan,-74.012281,40.71692,10013,39,3000,31478,"OAK, NORTHERN RED",QUERCUS RUBRA,"(40.71692, -74.012281)"
162,290 BROADWAY,10007,OSVI,4,Excellent,None,Good,None,Manhattan,-74.005823,40.714754,10007,31,1016,23405,EASTERN HOP HORNBEAM,OSTRYA VIRGINIANA,"(40.714754, -74.005823)"
163,290 BROADWAY,10007,OSVI,4,Excellent,None,Good,None,Manhattan,-74.005823,40.714754,10007,31,1016,23405,EASTERN HOP HORNBEAM,OSTRYA VIRGINIANA,"(40.714754, -74.005823)"
164,290 BROADWAY,10007,OSVI,4,Excellent,None,Good,None,Manhattan,-74.005823,40.714754,10007,31,1016,23405,EASTERN HOP HORNBEAM,OSTRYA VIRGINIANA,"(40.714754, -74.005823)"
165,199 CHAMBERS ST,10013,GLTR,4,Excellent,None,Good,None,Manhattan,-74.012281,40.71692,10013,39,3000,31478,HONEYLOCUST,GLEDITSIA TRIACANTHOS,"(40.71692, -74.012281)"
166,290 BROADWAY,10007,OSVI,4,Excellent,None,Good,None,Manhattan,-74.005823,40.714754,10007,31,1016,23405,EASTERN HOP HORNBEAM,OSTRYA VIRGINIANA,"(40.714754, -74.005823)"
167,290 BROADWAY,10007,OSVI,4,Excellent,None,Good,None,Manhattan,-74.005823,40.714754,10007,31,1016,23405,EASTERN HOP HORNBEAM,OSTRYA VIRGINIANA,"(40.714754, -74.005823)"
168,290 BROADWAY,10007,OSVI,4,Excellent,None,Good,None,Manhattan,-74.005823,40.714754,10007,31,1016,23405,EASTERN HOP HORNBEAM,OSTRYA VIRGINIANA,"(40.714754, -74.005823)"
169,199 CHAMBERS ST,10013,QURU,3,Excellent,None,Good,None,Manhattan,-74.012281,40.71692,10013,39,3000,31478,"OAK, NORTHERN RED",QUERCUS RUBRA,"(40.71692, -74.012281)"
170,290 BROADWAY,10007,OSVI,4,Excellent,None,Good,None,Manhattan,-74.005823,40.714754,10007,31,1016,23405,EASTERN HOP HORNBEAM,OSTRYA VIRGINIANA,"(40.714754, -74.005823)"
171,290 BROADWAY,10007,OSVI,4,Excellent,None,Good,None,Manhattan,-74.005823,40.714754,10007,31,1016,23405,EASTERN HOP HORNBEAM,OSTRYA VIRGINIANA,"(40.714754, -74.005823)"
172,199 CHAMBERS ST,10013,GLTR,3,Excellent,None,Good,None,Manhattan,-74.012281,40.71692,10013,39,3000,31478,HONEYLOCUST,GLEDITSIA TRIACANTHOS,"(40.71692, -74.012281)"
173,199 CHAMBERS ST,10013,GLTR,3,Excellent,None,Good,None,Manhattan,-74.012281,40.71692,10013,39,3000,31478,HONEYLOCUST,GLEDITSIA TRIACANTHOS,"(40.71692, -74.012281)"
174,290 BROADWAY,10007,OSVI,4,Excellent,None,Good,None,Manhattan,-74.005823,40.714754,10007,31,1016,23405,EASTERN HOP HORNBEAM,OSTRYA VIRGINIANA,"(40.714754, -74.005823)"
175,290 BROADWAY,10007,OSVI,4,Excellent,None,Good,None,Manhattan,-74.005823,40.714754,10007,31,1016,23405,EASTERN HOP HORNBEAM,OSTRYA VIRGINIANA,"(40.714754, -74.005823)"
176,199 CHAMBERS ST,10013,GLTR,3,Dead,None,Good,None,Manhattan,-74.012281,40.71692,10013,39,3000,31478,HONEYLOCUST,GLEDITSIA TRIACANTHOS,"(40.71692, -74.012281)"
177,290 BROADWAY,10007,OSVI,4,Excellent,None,Good,None,Manhattan,-74.005823,40.714754,10007,31,1016,23405,EASTERN HOP HORNBEAM,OSTRYA VIRGINIANA,"(40.714754, -74.005823)"
178,199 CHAMBERS ST,10013,QUPA,5,Excellent,None,Good,Stakes / Wires,Manhattan,-74.012281,40.71692,10013,39,3000,31478,"OAK, PIN",QUERCUS PALUSTRIS,"(40.71692, -74.012281)"
179,199 CHAMBERS ST,10013,QUPA,6,Excellent,None,Good,Stakes / Wires,Manhattan,-74.012281,40.71692,10013,39,3000,31478,"OAK, PIN",QUERCUS PALUSTRIS,"(40.71692, -74.012281)"
180,199 CHAMBERS ST,10013,QUPA,5,Excellent,None,Good,Stakes / Wires,Manhattan,-74.012281,40.71692,10013,39,3000,31478,"OAK, PIN",QUERCUS PALUSTRIS,"(40.71692, -74.012281)"
181,199 CHAMBERS ST,10013,QUPA,6,Excellent,None,Good,Stakes / Wires,Manhattan,-74.012281,40.71692,10013,39,3000,31478,"OAK, PIN",QUERCUS PALUSTRIS,"(40.71692, -74.012281)"
182,199 CHAMBERS ST,10013,QUPA,5,Excellent,None,Good,Stakes / Wires,Manhattan,-74.012281,40.71692,10013,39,3000,31478,"OAK, PIN",QUERCUS PALUSTRIS,"(40.71692, -74.012281)"
183,295 GREENWICH ST,10007,QUPA,6,Excellent,None,Good,None,Manhattan,-74.01102,40.716033,10007,21,2001,23244,"OAK, PIN",QUERCUS PALUSTRIS,"(40.716033, -74.01102)"
184,295 GREENWICH ST,10007,QUPA,6,Excellent,None,Good,None,Manhattan,-74.01102,40.716033,10007,21,2001,23244,"OAK, PIN",QUERCUS PALUSTRIS,"(40.716033, -74.01102)"
185,295 GREENWICH ST,10007,QUPA,5,Poor,None,Good,None,Manhattan,-74.01102,40.716033,10007,21,2001,23244,"OAK, PIN",QUERCUS PALUSTRIS,"(40.716033, -74.01102)"
186,295 GREENWICH ST,10007,QUPA,4,Poor,None,Good,None,Manhattan,-74.01102,40.716033,10007,21,2001,23244,"OAK, PIN",QUERCUS PALUSTRIS,"(40.716033, -74.01102)"
187,295 GREENWICH ST,10007,GLTR,7,Excellent,None,Good,None,Manhattan,-74.01102,40.716033,10007,21,2001,23244,HONEYLOCUST,GLEDITSIA TRIACANTHOS,"(40.716033, -74.01102)"
188,295 GREENWICH ST,10007,GLTR,6,Excellent,None,Good,None,Manhattan,-74.01102,40.716033,10007,21,2001,23244,HONEYLOCUST,GLEDITSIA TRIACANTHOS,"(40.716033, -74.01102)"
189,295 GREENWICH ST,10007,GLTR,5,Excellent,None,Good,None,Manhattan,-74.01102,40.716033,10007,21,2001,23244,HONEYLOCUST,GLEDITSIA TRIACANTHOS,"(40.716033, -74.01102)"
190,295 GREENWICH ST,10007,GLTR,6,Excellent,None,Good,None,Manhattan,-74.01102,40.716033,10007,21,2001,23244,HONEYLOCUST,GLEDITSIA TRIACANTHOS,"(40.716033, -74.01102)"
191,295 GREENWICH ST,10007,GLTR,6,Excellent,None,Good,None,Manhattan,-74.01102,40.716033,10007,21,2001,23244,HONEYLOCUST,GLEDITSIA TRIACANTHOS,"(40.716033, -74.01102)"
192,295 GREENWICH ST,10007,GLTR,6,Excellent,None,Good,None,Manhattan,-74.01102,40.716033,10007,21,2001,23244,HONEYLOCUST,GLEDITSIA TRIACANTHOS,"(40.716033, -74.01102)"
193,295 GREENWICH ST,10007,GLTR,6,Excellent,None,Good,None,Manhattan,-74.01102,40.716033,10007,21,2001,23244,HONEYLOCUST,GLEDITSIA TRIACANTHOS,"(40.716033, -74.01102)"
194,275 GREENWICH ST,10007,GLTR,5,Excellent,None,Good,None,Manhattan,-74.011244,40.715203,10007,21,2004,23242,HONEYLOCUST,GLEDITSIA TRIACANTHOS,"(40.715203, -74.011244)"
195,275 GREENWICH ST,10007,GLTR,3,Good,None,Good,None,Manhattan,-74.011244,40.715203,10007,21,2004,23242,HONEYLOCUST,GLEDITSIA TRIACANTHOS,"(40.715203, -74.011244)"
196,275 GREENWICH ST,10007,GLTR,4,Good,None,Good,None,Manhattan,-74.011244,40.715203,10007,21,2004,23242,HONEYLOCUST,GLEDITSIA TRIACANTHOS,"(40.715203, -74.011244)"
197,275 GREENWICH ST,10007,GLTR,3,Good,None,Good,None,Manhattan,-74.011244,40.715203,10007,21,2004,23242,HONEYLOCUST,GLEDITSIA TRIACANTHOS,"(40.715203, -74.011244)"
198,275 GREENWICH ST,10007,GLTR,3,Good,None,Good,None,Manhattan,-74.011244,40.715203,10007,21,2004,23242,HONEYLOCUST,GLEDITSIA TRIACANTHOS,"(40.715203, -74.011244)"
199,275 GREENWICH ST,10007,GLTR,3,Good,None,Good,None,Manhattan,-74.011244,40.715203,10007,21,2004,23242,HONEYLOCUST,GLEDITSIA TRIACANTHOS,"(40.715203, -74.011244)"
200,75 PARK PL,10007,GLTR,5,Good,None,Good,None,Manhattan,-74.011514,40.714287,10007,21,2005,23247,HONEYLOCUST,GLEDITSIA TRIACANTHOS,"(40.714287, -74.011514)"
201,75 PARK PL,10007,GLTR,5,Good,None,Good,None,Manhattan,-74.011514,40.714287,10007,21,2005,23247,HONEYLOCUST,GLEDITSIA TRIACANTHOS,"(40.714287, -74.011514)"
202,75 PARK PL,10007,GLTR,5,Good,None,Good,None,Manhattan,-74.011514,40.714287,10007,21,2005,23247,HONEYLOCUST,GLEDITSIA TRIACANTHOS,"(40.714287, -74.011514)"
203,75 PARK PL,10007,GLTR,5,Good,None,Good,None,Manhattan,-74.011514,40.714287,10007,21,2005,23247,HONEYLOCUST,GLEDITSIA TRIACANTHOS,"(40.714287, -74.011514)"
204,75 PARK PL,10007,GLTR,5,Good,None,Good,None,Manhattan,-74.011514,40.714287,10007,21,2005,23247,HONEYLOCUST,GLEDITSIA TRIACANTHOS,"(40.714287, -74.011514)"
205,75 PARK PL,10007,GLTR,5,Good,None,Good,None,Manhattan,-74.011514,40.714287,10007,21,2005,23247,HONEYLOCUST,GLEDITSIA TRIACANTHOS,"(40.714287, -74.011514)"
206,75 PARK PL,10007,GLTR,4,Good,None,Good,None,Manhattan,-74.011514,40.714287,10007,21,2005,23247,HONEYLOCUST,GLEDITSIA TRIACANTHOS,"(40.714287, -74.011514)"
207,49 W BROADWAY,10007,GLTR,6,Good,None,Good,Stakes / Wires,Manhattan,-74.010369,40.714086,10007,21,1006,257494,HONEYLOCUST,GLEDITSIA TRIACANTHOS,"(40.714086, -74.010369)"
208,49 W BROADWAY,10007,GLTR,5,Good,None,Good,None,Manhattan,-74.010369,40.714086,10007,21,1006,257494,HONEYLOCUST,GLEDITSIA TRIACANTHOS,"(40.714086, -74.010369)"
209,30 W BROADWAY,10007,GIBI,7,Excellent,None,Good,None,Manhattan,-74.010674,40.713713,10007,21,2009,23246,GINKGO,GINKGO BILOBA,"(40.713713, -74.010674)"
210,30 W BROADWAY,10007,GIBI,8,Excellent,None,Good,None,Manhattan,-74.010674,40.713713,10007,21,2009,23246,GINKGO,GINKGO BILOBA,"(40.713713, -74.010674)"
211,30 W BROADWAY,10007,GIBI,6,Excellent,None,Good,None,Manhattan,-74.010674,40.713713,10007,21,2009,23246,GINKGO,GINKGO BILOBA,"(40.713713, -74.010674)"
214,101 BARCLAY ST,10007,GIBI,5,Dead,None,Good,None,Manhattan,-74.011889,40.71374,10007,21,2006,23238,GINKGO,GINKGO BILOBA,"(40.71374, -74.011889)"
215,101 BARCLAY ST,10007,GIBI,6,Dead,None,Good,None,Manhattan,-74.011889,40.71374,10007,21,2006,23238,GINKGO,GINKGO BILOBA,"(40.71374, -74.011889)"
216,101 BARCLAY ST,10007,GIBI,6,Poor,None,Good,None,Manhattan,-74.011889,40.71374,10007,21,2006,23238,GINKGO,GINKGO BILOBA,"(40.71374, -74.011889)"
217,101 BARCLAY ST,10007,GIBI,5,Dead,None,Good,None,Manhattan,-74.011889,40.71374,10007,21,2006,23238,GINKGO,GINKGO BILOBA,"(40.71374, -74.011889)"
218,101 BARCLAY ST,10007,GIBI,5,Dead,None,Good,None,Manhattan,-74.011889,40.71374,10007,21,2006,23238,GINKGO,GINKGO BILOBA,"(40.71374, -74.011889)"
219,101 BARCLAY ST,10007,GIBI,6,Good,None,Good,None,Manhattan,-74.011889,40.71374,10007,21,2006,23238,GINKGO,GINKGO BILOBA,"(40.71374, -74.011889)"
220,101 BARCLAY ST,10007,GIBI,5,Good,None,Good,None,Manhattan,-74.011889,40.71374,10007,21,2006,23238,GINKGO,GINKGO BILOBA,"(40.71374, -74.011889)"
221,140 PARK PL,10007,QUPA,9,Good,None,Good,None,Manhattan,-74.013076,40.714984,10007,21,2006,162338,"OAK, PIN",QUERCUS PALUSTRIS,"(40.714984, -74.013076)"
222,140 PARK PL,10007,QUPA,8,Good,None,Good,None,Manhattan,-74.013076,40.714984,10007,21,2006,162338,"OAK, PIN",QUERCUS PALUSTRIS,"(40.714984, -74.013076)"
223,140 PARK PL,10007,QUPA,10,Good,None,Good,None,Manhattan,-74.013076,40.714984,10007,21,2006,162338,"OAK, PIN",QUERCUS PALUSTRIS,"(40.714984, -74.013076)"
224,140 PARK PL,10007,QUPA,8,Good,None,Good,None,Manhattan,-74.013076,40.714984,10007,21,2006,162338,"OAK, PIN",QUERCUS PALUSTRIS,"(40.714984, -74.013076)"
225,140 PARK PL,10007,QUPA,9,Good,None,Good,None,Manhattan,-74.013076,40.714984,10007,21,2006,162338,"OAK, PIN",QUERCUS PALUSTRIS,"(40.714984, -74.013076)"
226,140 PARK PL,10007,QUPA,9,Good,None,Good,None,Manhattan,-74.013076,40.714984,10007,21,2006,162338,"OAK, PIN",QUERCUS PALUSTRIS,"(40.714984, -74.013076)"
227,140 PARK PL,10007,QUPA,8,Good,None,Good,None,Manhattan,-74.013076,40.714984,10007,21,2006,162338,"OAK, PIN",QUERCUS PALUSTRIS,"(40.714984, -74.013076)"
228,140 PARK PL,10007,QUPA,7,Good,None,Good,None,Manhattan,-74.013076,40.714984,10007,21,2006,162338,"OAK, PIN",QUERCUS PALUSTRIS,"(40.714984, -74.013076)"
229,140 PARK PL,10007,GIBI,5,Dead,None,Good,None,Manhattan,-74.013076,40.714984,10007,21,2006,162338,GINKGO,GINKGO BILOBA,"(40.714984, -74.013076)"
230,140 PARK PL,10007,GIBI,5,Dead,None,Good,None,Manhattan,-74.013076,40.714984,10007,21,2006,162338,GINKGO,GINKGO BILOBA,"(40.714984, -74.013076)"
231,140 PARK PL,10007,GIBI,6,Dead,None,Good,None,Manhattan,-74.013076,40.714984,10007,21,2006,162338,GINKGO,GINKGO BILOBA,"(40.714984, -74.013076)"
232,140 PARK PL,10007,GIBI,6,Dead,None,Good,None,Manhattan,-74.013076,40.714984,10007,21,2006,162338,GINKGO,GINKGO BILOBA,"(40.714984, -74.013076)"
233,140 PARK PL,10007,GIBI,7,Dead,None,Good,None,Manhattan,-74.013076,40.714984,10007,21,2006,162338,GINKGO,GINKGO BILOBA,"(40.714984, -74.013076)"
234,140 PARK PL,10007,GIBI,6,Excellent,None,Good,None,Manhattan,-74.013076,40.714984,10007,21,2006,162338,GINKGO,GINKGO BILOBA,"(40.714984, -74.013076)"
235,140 PARK PL,10007,GIBI,6,Excellent,None,Good,None,Manhattan,-74.013076,40.714984,10007,21,2006,162338,GINKGO,GINKGO BILOBA,"(40.714984, -74.013076)"
236,140 PARK PL,10007,GIBI,7,Poor,None,Good,None,Manhattan,-74.013076,40.714984,10007,21,2006,162338,GINKGO,GINKGO BILOBA,"(40.714984, -74.013076)"
237,140 PARK PL,10007,GIBI,4,Excellent,None,Good,None,Manhattan,-74.013076,40.714984,10007,21,2006,162338,GINKGO,GINKGO BILOBA,"(40.714984, -74.013076)"
238,140 PARK PL,10007,GIBI,7,Excellent,None,Good,None,Manhattan,-74.013076,40.714984,10007,21,2006,162338,GINKGO,GINKGO BILOBA,"(40.714984, -74.013076)"
239,140 PARK PL,10007,GIBI,5,Good,None,Good,None,Manhattan,-74.013076,40.714984,10007,21,2006,162338,GINKGO,GINKGO BILOBA,"(40.714984, -74.013076)"
240,140 PARK PL,10007,GIBI,5,Excellent,None,Good,None,Manhattan,-74.013076,40.714984,10007,21,2006,162338,GINKGO,GINKGO BILOBA,"(40.714984, -74.013076)"
241,140 PARK PL,10007,GIBI,4,Excellent,None,Good,None,Manhattan,-74.013076,40.714984,10007,21,2006,162338,GINKGO,GINKGO BILOBA,"(40.714984, -74.013076)"
242,140 PARK PL,10007,GIBI,5,Excellent,None,Good,None,Manhattan,-74.013076,40.714984,10007,21,2006,162338,GINKGO,GINKGO BILOBA,"(40.714984, -74.013076)"
243,140 PARK PL,10007,GIBI,4,Excellent,None,Good,None,Manhattan,-74.013076,40.714984,10007,21,2006,162338,GINKGO,GINKGO BILOBA,"(40.714984, -74.013076)"
244,140 PARK PL,10007,GIBI,5,Good,None,Good,None,Manhattan,-74.013076,40.714984,10007,21,2006,162338,GINKGO,GINKGO BILOBA,"(40.714984, -74.013076)"
245,140 PARK PL,10007,GIBI,5,Excellent,None,Good,None,Manhattan,-74.013076,40.714984,10007,21,2006,162338,GINKGO,GINKGO BILOBA,"(40.714984, -74.013076)"
246,140 PARK PL,10007,GIBI,4,Excellent,None,Good,None,Manhattan,-74.013076,40.714984,10007,21,2006,162338,GINKGO,GINKGO BILOBA,"(40.714984, -74.013076)"
247,83 MURRAY ST,10007,GLTR,7,Good,None,Good,None,Manhattan,-74.011115,40.714808,10007,21,2004,23249,HONEYLOCUST,GLEDITSIA TRIACANTHOS,"(40.714808, -74.011115)"
248,83 MURRAY ST,10007,GLTR,7,Excellent,None,Good,None,Manhattan,-74.011115,40.714808,10007,21,2004,23249,HONEYLOCUST,GLEDITSIA TRIACANTHOS,"(40.714808, -74.011115)"
249,83 MURRAY ST,10007,GLTR,6,Good,None,Good,Stakes / Wires,Manhattan,-74.011115,40.714808,10007,21,2004,23249,HONEYLOCUST,GLEDITSIA TRIACANTHOS,"(40.714808, -74.011115)"
250,83 MURRAY ST,10007,GLTR,6,Excellent,None,Good,Stakes / Wires,Manhattan,-74.011115,40.714808,10007,21,2004,23249,HONEYLOCUST,GLEDITSIA TRIACANTHOS,"(40.714808, -74.011115)"
251,83 MURRAY ST,10007,GLTR,6,Excellent,None,Good,Stakes / Wires,Manhattan,-74.011115,40.714808,10007,21,2004,23249,HONEYLOCUST,GLEDITSIA TRIACANTHOS,"(40.714808, -74.011115)"
252,83 MURRAY ST,10007,GLTR,6,Excellent,None,Good,Stakes / Wires,Manhattan,-74.011115,40.714808,10007,21,2004,23249,HONEYLOCUST,GLEDITSIA TRIACANTHOS,"(40.714808, -74.011115)"
253,83 MURRAY ST,10007,GLTR,6,Excellent,None,Good,Stakes / Wires,Manhattan,-74.011115,40.714808,10007,21,2004,23249,HONEYLOCUST,GLEDITSIA TRIACANTHOS,"(40.714808, -74.011115)"
254,71 MURRAY ST,10007,GLTR,6,Excellent,None,Good,Stakes / Wires,Manhattan,-74.01047,40.714531,10007,21,2004,23249,HONEYLOCUST,GLEDITSIA TRIACANTHOS,"(40.714531, -74.01047)"
255,71 MURRAY ST,10007,GLTR,5,Excellent,None,Good,None,Manhattan,-74.01047,40.714531,10007,21,2004,23249,HONEYLOCUST,GLEDITSIA TRIACANTHOS,"(40.714531, -74.01047)"
256,69 MURRAY ST,10007,GLTR,6,Excellent,None,Good,None,Manhattan,-74.010363,40.714484,10007,21,2004,23249,HONEYLOCUST,GLEDITSIA TRIACANTHOS,"(40.714484, -74.010363)"
257,67 MURRAY ST,10007,GLTR,6,Excellent,None,Good,None,Manhattan,-74.010255,40.714438,10007,21,2004,23249,HONEYLOCUST,GLEDITSIA TRIACANTHOS,"(40.714438, -74.010255)"
258,83 WARREN ST,10007,GLTR,6,Excellent,None,Good,None,Manhattan,-74.010533,40.715332,10007,21,2004,23251,HONEYLOCUST,GLEDITSIA TRIACANTHOS,"(40.715332, -74.010533)"
259,83 WARREN ST,10007,GLTR,6,Excellent,None,Good,None,Manhattan,-74.010533,40.715332,10007,21,2004,23251,HONEYLOCUST,GLEDITSIA TRIACANTHOS,"(40.715332, -74.010533)"
260,92 WARREN ST,10007,GLTR,5,Excellent,None,Good,None,Manhattan,-74.010902,40.715499,10007,21,2001,23251,HONEYLOCUST,GLEDITSIA TRIACANTHOS,"(40.715499, -74.010902)"
261,92 WARREN ST,10007,GLTR,6,Excellent,None,Good,None,Manhattan,-74.010902,40.715499,10007,21,2001,23251,HONEYLOCUST,GLEDITSIA TRIACANTHOS,"(40.715499, -74.010902)"
262,94 WARREN ST,10007,GLTR,3,Good,None,Good,Stakes / Wires,Manhattan,-74.010993,40.71554,10007,21,2001,23251,HONEYLOCUST,GLEDITSIA TRIACANTHOS,"(40.71554, -74.010993)"
263,94 WARREN ST,10007,GLTR,7,Excellent,None,Good,None,Manhattan,-74.010993,40.71554,10007,21,2001,23251,HONEYLOCUST,GLEDITSIA TRIACANTHOS,"(40.71554, -74.010993)"
264,393 CANAL ST,10013,PLAC,24,Excellent,None,Good,None,Manhattan,-74.004846,40.721516,10013,47,2005,31875,LONDON PLANETREE,PLATANUS ACERIFOLIA,"(40.721516, -74.004846)"
265,17 THOMPSON ST,10013,PLAC,19,Excellent,None,Good,None,Manhattan,-74.004543,40.722606,10013,47,2006,110917,LONDON PLANETREE,PLATANUS ACERIFOLIA,"(40.722606, -74.004543)"
266,17 THOMPSON ST,10013,PLAC,16,Excellent,None,Good,None,Manhattan,-74.004543,40.722606,10013,47,2006,110917,LONDON PLANETREE,PLATANUS ACERIFOLIA,"(40.722606, -74.004543)"
267,17 THOMPSON ST,10013,PLAC,16,Excellent,None,Good,None,Manhattan,-74.004543,40.722606,10013,47,2006,110917,LONDON PLANETREE,PLATANUS ACERIFOLIA,"(40.722606, -74.004543)"
268,17 THOMPSON ST,10013,GIBI,9,Excellent,None,Good,None,Manhattan,-74.004543,40.722606,10013,47,2006,110917,GINKGO,GINKGO BILOBA,"(40.722606, -74.004543)"
269,17 THOMPSON ST,10013,GIBI,9,Good,None,Good,Guard Strangling,Manhattan,-74.004543,40.722606,10013,47,2006,110917,GINKGO,GINKGO BILOBA,"(40.722606, -74.004543)"
270,30 GRAND ST,10013,SOJA,3,Good,None,Good,None,Manhattan,-74.004602,40.722799,10013,47,2002,31874,JAPANESE PAGODA TREE,SOPHORA JAPONICA,"(40.722799, -74.004602)"
271,30 GRAND ST,10013,SOJA,3,Good,None,Good,None,Manhattan,-74.004602,40.722799,10013,47,2002,31874,JAPANESE PAGODA TREE,SOPHORA JAPONICA,"(40.722799, -74.004602)"
272,49 GRAND ST,10013,TICO,4,Excellent,None,Good,None,Manhattan,-74.003859,40.722431,10013,47,2005,32099,"LINDEN, LITTLE LEAF",TILIA CORDATA,"(40.722431, -74.003859)"
273,49 GRAND ST,10013,TICO,4,Excellent,None,Good,None,Manhattan,-74.003859,40.722431,10013,47,2005,32099,"LINDEN, LITTLE LEAF",TILIA CORDATA,"(40.722431, -74.003859)"
274,49 GRAND ST,10013,TICO,3,Excellent,None,Good,None,Manhattan,-74.003859,40.722431,10013,47,2005,32099,"LINDEN, LITTLE LEAF",TILIA CORDATA,"(40.722431, -74.003859)"
275,340 W BROADWAY,10013,SOJA,3,Good,None,Good,None,Manhattan,-74.003703,40.722459,10013,47,2003,32103,JAPANESE PAGODA TREE,SOPHORA JAPONICA,"(40.722459, -74.003703)"
276,349 W BROADWAY,10013,QURU,6,Good,None,Good,Guard Strangling,Manhattan,-74.00342,40.722791,10013,47,2009,32103,"OAK, NORTHERN RED",QUERCUS RUBRA,"(40.722791, -74.00342)"
277,349 W BROADWAY,10013,PLAC,7,Good,None,Good,Guard Strangling,Manhattan,-74.00342,40.722791,10013,47,2009,32103,LONDON PLANETREE,PLATANUS ACERIFOLIA,"(40.722791, -74.00342)"
278,351 W BROADWAY,10013,UNKSTMP,0,Stump,None,Good,None,Manhattan,-74.003373,40.722846,10013,47,2009,32103,UNKNOWN STUMP,UNKNOWN STUMP ,"(40.722846, -74.003373)"
279,351 W BROADWAY,10013,UNKSTMP,0,Stump,None,Good,None,Manhattan,-74.003373,40.722846,10013,47,2009,32103,UNKNOWN STUMP,UNKNOWN STUMP ,"(40.722846, -74.003373)"
280,355 W BROADWAY,10013,GIBI,5,Excellent,None,Good,None,Manhattan,-74.003278,40.722958,10013,47,2009,32103,GINKGO,GINKGO BILOBA,"(40.722958, -74.003278)"
281,361 W BROADWAY,10013,SOJA,7,Excellent,None,Good,None,Manhattan,-74.003134,40.723126,10013,47,2009,32103,JAPANESE PAGODA TREE,SOPHORA JAPONICA,"(40.723126, -74.003134)"
282,364 W BROADWAY,10013,SOJA,8,Excellent,None,Good,None,Manhattan,-74.003093,40.723175,10013,47,2003,32103,JAPANESE PAGODA TREE,SOPHORA JAPONICA,"(40.723175, -74.003093)"
283,366 W BROADWAY,10013,PYCA,5,Excellent,None,Good,None,Manhattan,-74.003043,40.723234,10013,47,2003,32103,"PEAR, CALLERY",PYRUS CALLERYANA,"(40.723234, -74.003043)"
284,360 W BROADWAY,10013,UNKSTMP,0,Stump,None,Good,None,Manhattan,-74.003195,40.723055,10013,47,2003,32103,UNKNOWN STUMP,UNKNOWN STUMP ,"(40.723055, -74.003195)"
287,32 WATTS ST,10013,UNKDEAD,0,Dead,None,Good,None,Manhattan,-74.004604,40.723592,10013,47,2001,32100,UNKNOWN DEAD TREES,UNKNOWN DEAD TREES ,"(40.723592, -74.004604)"
288,32 WATTS ST,10013,UNKDEAD,0,Dead,None,Good,None,Manhattan,-74.004604,40.723592,10013,47,2001,32100,UNKNOWN DEAD TREES,UNKNOWN DEAD TREES ,"(40.723592, -74.004604)"
289,59 SULLIVAN ST,10012,ACSA1,7,Excellent,None,Good,None,Manhattan,-74.004211,40.724255,10012,47,1001,32120,"MAPLE, SILVER",ACER SACCHARINUM,"(40.724255, -74.004211)"
290,59 SULLIVAN ST,10012,SOJA,3,Excellent,None,Good,Stakes / Wires,Manhattan,-74.004211,40.724255,10012,47,1001,32120,JAPANESE PAGODA TREE,SOPHORA JAPONICA,"(40.724255, -74.004211)"
291,59 SULLIVAN ST,10012,GIBI,3,Excellent,None,Good,None,Manhattan,-74.004211,40.724255,10012,47,1001,32120,GINKGO,GINKGO BILOBA,"(40.724255, -74.004211)"
292,63 SULLIVAN ST,10012,GIBI,4,Excellent,None,Good,None,Manhattan,-74.004109,40.724377,10012,47,1001,32120,GINKGO,GINKGO BILOBA,"(40.724377, -74.004109)"
293,65 SULLIVAN ST,10012,TICO,6,Good,None,Good,None,Manhattan,-74.004057,40.724439,10012,47,1001,32120,"LINDEN, LITTLE LEAF",TILIA CORDATA,"(40.724439, -74.004057)"
294,67 SULLIVAN ST,10012,TICO,5,Excellent,None,Good,None,Manhattan,-74.004007,40.724499,10012,47,1001,32120,"LINDEN, LITTLE LEAF",TILIA CORDATA,"(40.724499, -74.004007)"
295,71 SULLIVAN ST,10012,PLAC,10,Poor,None,Good,None,Manhattan,-74.003904,40.724622,10012,47,1001,32120,LONDON PLANETREE,PLATANUS ACERIFOLIA,"(40.724622, -74.003904)"
296,77 SULLIVAN ST,10012,TICO,6,Excellent,None,Good,None,Manhattan,-74.00375,40.724806,10012,47,1001,32120,"LINDEN, LITTLE LEAF",TILIA CORDATA,"(40.724806, -74.00375)"
297,77 SULLIVAN ST,10012,PLAC,7,Excellent,None,Good,None,Manhattan,-74.00375,40.724806,10012,47,1001,32120,LONDON PLANETREE,PLATANUS ACERIFOLIA,"(40.724806, -74.00375)"
298,81 SULLIVAN ST,10012,SOJA,7,Excellent,None,Good,None,Manhattan,-74.003648,40.724928,10012,47,1001,32120,JAPANESE PAGODA TREE,SOPHORA JAPONICA,"(40.724928, -74.003648)"
299,81 SULLIVAN ST,10012,ZESE,5,Excellent,None,Good,None,Manhattan,-74.003648,40.724928,10012,47,1001,32120,"ZELKOVA, JAPANESE",ZELKOVA SERRATA,"(40.724928, -74.003648)"
300,83 SULLIVAN ST,10012,ZESE,5,Good,None,Good,None,Manhattan,-74.003597,40.724988,10012,47,1001,32120,"ZELKOVA, JAPANESE",ZELKOVA SERRATA,"(40.724988, -74.003597)"
301,83 SULLIVAN ST,10012,UNKSTMP,0,Stump,None,Good,None,Manhattan,-74.003597,40.724988,10012,47,1001,32120,UNKNOWN STUMP,UNKNOWN STUMP ,"(40.724988, -74.003597)"
302,83 SULLIVAN ST,10012,PYCA,6,Good,None,Good,None,Manhattan,-74.003597,40.724988,10012,47,1001,32120,"PEAR, CALLERY",PYRUS CALLERYANA,"(40.724988, -74.003597)"
303,83 SULLIVAN ST,10012,GIBI,4,Good,None,Good,None,Manhattan,-74.003597,40.724988,10012,47,1001,32120,GINKGO,GINKGO BILOBA,"(40.724988, -74.003597)"
304,202 SPRING ST,10012,PLAC,9,Excellent,None,Good,None,Manhattan,-74.003387,40.725255,10012,47,1000,110924,LONDON PLANETREE,PLATANUS ACERIFOLIA,"(40.725255, -74.003387)"
305,202 SPRING ST,10012,PYCA,4,Excellent,None,Good,None,Manhattan,-74.003387,40.725255,10012,47,1000,110924,"PEAR, CALLERY",PYRUS CALLERYANA,"(40.725255, -74.003387)"
306,202 SPRING ST,10012,PYCA,2,Excellent,None,Good,Stakes / Wires,Manhattan,-74.003387,40.725255,10012,47,1000,110924,"PEAR, CALLERY",PYRUS CALLERYANA,"(40.725255, -74.003387)"
307,200 SPRING ST,10012,SOJA,13,Excellent,None,Good,None,Manhattan,-74.003366,40.725245,10012,47,1001,32132,JAPANESE PAGODA TREE,SOPHORA JAPONICA,"(40.725245, -74.003366)"
308,200 SPRING ST,10012,SOJA,8,Excellent,None,Good,None,Manhattan,-74.003366,40.725245,10012,47,1001,32132,JAPANESE PAGODA TREE,SOPHORA JAPONICA,"(40.725245, -74.003366)"
309,186 SPRING ST,10012,GLTR,11,Excellent,None,Good,None,Manhattan,-74.002794,40.724966,10012,47,1001,32132,HONEYLOCUST,GLEDITSIA TRIACANTHOS,"(40.724966, -74.002794)"
310,190 SPRING ST,10012,GLTR,10,Excellent,None,Good,None,Manhattan,-74.002957,40.725045,10012,47,1001,32132,HONEYLOCUST,GLEDITSIA TRIACANTHOS,"(40.725045, -74.002957)"
311,196 SPRING ST,10012,GLTR,4,Excellent,None,Good,None,Manhattan,-74.003202,40.725165,10012,47,1001,32132,HONEYLOCUST,GLEDITSIA TRIACANTHOS,"(40.725165, -74.003202)"
312,200 SPRING ST,10012,GLTR,8,Excellent,None,Good,None,Manhattan,-74.003366,40.725245,10012,47,1001,32132,HONEYLOCUST,GLEDITSIA TRIACANTHOS,"(40.725245, -74.003366)"
313,210 SPRING ST,10012,SOJA,3,Good,None,Good,None,Manhattan,-74.003668,40.725367,10012,47,1000,110924,JAPANESE PAGODA TREE,SOPHORA JAPONICA,"(40.725367, -74.003668)"
314,210 SPRING ST,10012,SOJA,3,Good,None,Good,None,Manhattan,-74.003668,40.725367,10012,47,1000,110924,JAPANESE PAGODA TREE,SOPHORA JAPONICA,"(40.725367, -74.003668)"
315,210 SPRING ST,10012,SOJA,3,Poor,None,Good,None,Manhattan,-74.003668,40.725367,10012,47,1000,110924,JAPANESE PAGODA TREE,SOPHORA JAPONICA,"(40.725367, -74.003668)"
316,160 Avenue of the Amer,10013,TICO,8,Excellent,None,Good,None,Manhattan,-74.004066,40.725374,10013,47,1000,32124,"LINDEN, LITTLE LEAF",TILIA CORDATA,"(40.725374, -74.004066)"
317,124 Avenue of the Amer,10012,ULAM,6,Poor,None,Good,None,Manhattan,-74.004534,40.724249,10013,47,1000,31911,"ELM, AMERICAN",ULMUS AMERICANA,"(40.724249, -74.004534)"
318,124 Avenue of the Amer,10012,PYCA,4,Excellent,None,Good,None,Manhattan,-74.004534,40.724249,10013,47,1000,31911,"PEAR, CALLERY",PYRUS CALLERYANA,"(40.724249, -74.004534)"
319,529 BROOME ST,10012,QURU,4,Excellent,None,Good,None,Manhattan,-74.004188,40.723958,10013,47,2001,32104,"OAK, NORTHERN RED",QUERCUS RUBRA,"(40.723958, -74.004188)"
320,529 BROOME ST,10012,ULAM,7,Excellent,None,Good,None,Manhattan,-74.004188,40.723958,10013,47,2001,32104,"ELM, AMERICAN",ULMUS AMERICANA,"(40.723958, -74.004188)"
321,529 BROOME ST,10012,AIAL,7,Excellent,None,Good,None,Manhattan,-74.004188,40.723958,10013,47,2001,32104,TREE OF HEAVEN,AILANTHUS ALTISSIMA,"(40.723958, -74.004188)"
322,529 BROOME ST,10012,ULAM,7,Good,None,Good,None,Manhattan,-74.004188,40.723958,10013,47,2001,32104,"ELM, AMERICAN",ULMUS AMERICANA,"(40.723958, -74.004188)"
323,110 Avenue of the Amer,10013,UNKSTMP,0,Stump,None,Good,None,Manhattan,-74.004784,40.723634,10013,47,2000,31878,UNKNOWN STUMP,UNKNOWN STUMP ,"(40.723634, -74.004784)"
324,110 Avenue of the Amer,10013,ULAM,8,Good,None,Good,None,Manhattan,-74.004784,40.723634,10013,47,2000,31878,"ELM, AMERICAN",ULMUS AMERICANA,"(40.723634, -74.004784)"
325,74 Avenue of the Amer,10013,PLAC,21,Excellent,None,Good,None,Manhattan,-74.005204,40.722502,10013,47,2006,110915,LONDON PLANETREE,PLATANUS ACERIFOLIA,"(40.722502, -74.005204)"
326,74 Avenue of the Amer,10013,ULAM,6,Good,None,Good,None,Manhattan,-74.005204,40.722502,10013,47,2006,110915,"ELM, AMERICAN",ULMUS AMERICANA,"(40.722502, -74.005204)"
327,74 Avenue of the Amer,10013,PLAC,19,Excellent,None,Good,None,Manhattan,-74.005204,40.722502,10013,47,2006,110915,LONDON PLANETREE,PLATANUS ACERIFOLIA,"(40.722502, -74.005204)"
328,74 Avenue of the Amer,10013,PLAC,18,Excellent,None,Good,None,Manhattan,-74.005204,40.722502,10013,47,2006,110915,LONDON PLANETREE,PLATANUS ACERIFOLIA,"(40.722502, -74.005204)"
329,74 Avenue of the Amer,10013,ULAM,9,Good,None,Good,None,Manhattan,-74.005204,40.722502,10013,47,2006,110915,"ELM, AMERICAN",ULMUS AMERICANA,"(40.722502, -74.005204)"
330,196 SPRING ST,10012,GLTR,7,Excellent,None,Good,None,Manhattan,-74.003202,40.725165,10012,47,1001,32132,HONEYLOCUST,GLEDITSIA TRIACANTHOS,"(40.725165, -74.003202)"
331,72-074 THOMPSON ST,0,PYCA,3,Excellent,None,Good,None,Manhattan,1,1,10012,47,1002,32105,"PEAR, CALLERY",PYRUS CALLERYANA,"(1.0, 1.0)"
332,72-074 THOMPSON ST,0,PYCA,3,Excellent,None,Good,None,Manhattan,1,1,10012,47,1002,32105,"PEAR, CALLERY",PYRUS CALLERYANA,"(1.0, 1.0)"
333,72-074 THOMPSON ST,0,PYCA,3,Excellent,None,Good,None,Manhattan,1,1,10012,47,1002,32105,"PEAR, CALLERY",PYRUS CALLERYANA,"(1.0, 1.0)"
334,72-074 THOMPSON ST,0,PYCA,3,Excellent,None,Good,None,Manhattan,1,1,10012,47,1002,32105,"PEAR, CALLERY",PYRUS CALLERYANA,"(1.0, 1.0)"
335,402-404 W BROADWAY,10013,ZESE,5,Poor,None,Good,None,Manhattan,-74.002006,40.724465,10012,47,1002,32110,"ZELKOVA, JAPANESE",ZELKOVA SERRATA,"(40.724465, -74.002006)"
336,402-404 W BROADWAY,10013,ZESE,5,Poor,None,Good,None,Manhattan,-74.002062,40.724398,10012,47,1002,32110,"ZELKOVA, JAPANESE",ZELKOVA SERRATA,"(40.724398, -74.002062)"
337,382 W BROADWAY,10013,SOJA,6,Excellent,None,Good,None,Manhattan,-74.002626,40.723728,10012,47,1002,32110,JAPANESE PAGODA TREE,SOPHORA JAPONICA,"(40.723728, -74.002626)"
338,382 W BROADWAY,10013,SOJA,6,Excellent,None,Good,None,Manhattan,-74.002626,40.723728,10012,47,1002,32110,JAPANESE PAGODA TREE,SOPHORA JAPONICA,"(40.723728, -74.002626)"
339,383 W BROADWAY,10013,ACSA1,5,Excellent,None,Good,None,Manhattan,-74.002546,40.723823,10012,47,1003,32110,"MAPLE, SILVER",ACER SACCHARINUM,"(40.723823, -74.002546)"
340,383 W BROADWAY,10013,ACSA1,4,Excellent,None,Good,None,Manhattan,-74.002546,40.723823,10012,47,1003,32110,"MAPLE, SILVER",ACER SACCHARINUM,"(40.723823, -74.002546)"
341,80 VARICK ST,10013,PLAC,9,Excellent,None,Good,None,Manhattan,-74.006232,40.72313,10013,37,3015,31858,LONDON PLANETREE,PLATANUS ACERIFOLIA,"(40.72313, -74.006232)"
342,80 VARICK ST,10013,PLAC,7,Excellent,None,Good,None,Manhattan,-74.006232,40.72313,10013,37,3015,31858,LONDON PLANETREE,PLATANUS ACERIFOLIA,"(40.72313, -74.006232)"
343,80 VARICK ST,10013,PLAC,8,Excellent,None,Good,None,Manhattan,-74.006232,40.72313,10013,37,3015,31858,LONDON PLANETREE,PLATANUS ACERIFOLIA,"(40.72313, -74.006232)"
344,80 VARICK ST,10013,PS,0,Planting Space,None,Good,None,Manhattan,-74.006232,40.72313,10013,37,3015,31858,PLANTING SITE,PLANTING SITE,"(40.72313, -74.006232)"
345,439 CANAL ST,10013,PYCA,10,Excellent,None,Good,None,Manhattan,-74.006703,40.722841,10013,37,3014,106025,"PEAR, CALLERY",PYRUS CALLERYANA,"(40.722841, -74.006703)"
346,439 CANAL ST,10013,PYCA,7,Excellent,None,Good,None,Manhattan,-74.006703,40.722841,10013,37,3014,106025,"PEAR, CALLERY",PYRUS CALLERYANA,"(40.722841, -74.006703)"
347,465 CANAL ST,10013,PYCA,11,Excellent,None,Good,None,Manhattan,-74.007555,40.723461,10013,37,3014,106025,"PEAR, CALLERY",PYRUS CALLERYANA,"(40.723461, -74.007555)"
348,465 CANAL ST,10013,ZESE,4,Excellent,None,Good,None,Manhattan,-74.007555,40.723461,10013,37,3014,106025,"ZELKOVA, JAPANESE",ZELKOVA SERRATA,"(40.723461, -74.007555)"
349,465 CANAL ST,10013,PS,0,Planting Space,None,Good,None,Manhattan,-74.007555,40.723461,10013,37,3014,106025,PLANTING SITE,PLANTING SITE,"(40.723461, -74.007555)"
350,76 Avenue of the Amer,10013,ULAM,9,Good,None,Good,None,Manhattan,-74.005173,40.72257,10013,47,2006,110915,"ELM, AMERICAN",ULMUS AMERICANA,"(40.72257, -74.005173)"
351,76 Avenue of the Amer,10013,ULAM,10,Good,None,Good,None,Manhattan,-74.005173,40.72257,10013,47,2006,110915,"ELM, AMERICAN",ULMUS AMERICANA,"(40.72257, -74.005173)"
352,76 Avenue of the Amer,10013,CR,3,Excellent,None,Good,Stakes / Wires,Manhattan,-74.005173,40.72257,10013,47,2006,110915,"HAWTHORN, OTHER",CRATAEGUS SPECIES,"(40.72257, -74.005173)"
353,76 Avenue of the Amer,10013,PYCA,5,Good,None,Good,None,Manhattan,-74.005173,40.72257,10013,47,2006,110915,"PEAR, CALLERY",PYRUS CALLERYANA,"(40.72257, -74.005173)"
354,76 Avenue of the Amer,10013,ULAM,8,Excellent,None,Good,None,Manhattan,-74.005173,40.72257,10013,47,2006,110915,"ELM, AMERICAN",ULMUS AMERICANA,"(40.72257, -74.005173)"
355,76 Avenue of the Amer,10013,CR,2,Excellent,None,Good,Stakes / Wires,Manhattan,-74.005173,40.72257,10013,47,2006,110915,"HAWTHORN, OTHER",CRATAEGUS SPECIES,"(40.72257, -74.005173)"
356,76 Avenue of the Amer,10013,CR,2,Excellent,None,Good,Stakes / Wires,Manhattan,-74.005173,40.72257,10013,47,2006,110915,"HAWTHORN, OTHER",CRATAEGUS SPECIES,"(40.72257, -74.005173)"
357,76 Avenue of the Amer,10013,PS,0,Planting Space,None,Good,None,Manhattan,-74.005173,40.72257,10013,47,2006,110915,PLANTING SITE,PLANTING SITE,"(40.72257, -74.005173)"
358,76 Avenue of the Amer,10013,UNKDEAD,0,Dead,None,Good,None,Manhattan,-74.005173,40.72257,10013,47,2006,110915,UNKNOWN DEAD TREES,UNKNOWN DEAD TREES ,"(40.72257, -74.005173)"
359,76 Avenue of the Amer,10013,CR,2,Excellent,None,Good,Stakes / Wires,Manhattan,-74.005173,40.72257,10013,47,2006,110915,"HAWTHORN, OTHER",CRATAEGUS SPECIES,"(40.72257, -74.005173)"
360,76 Avenue of the Amer,10013,ULAM,11,Excellent,None,Good,None,Manhattan,-74.005173,40.72257,10013,47,2006,110915,"ELM, AMERICAN",ULMUS AMERICANA,"(40.72257, -74.005173)"
361,11-017 GRAND ST,0,PLAC,20,Excellent,None,Good,None,Manhattan,1,1,10013,37,3016,110912,LONDON PLANETREE,PLATANUS ACERIFOLIA,"(1.0, 1.0)"
362,50 WATTS ST,10013,PYCA,24,Excellent,None,Good,None,Manhattan,-74.005262,40.723669,10013,37,3011,31877,"PEAR, CALLERY",PYRUS CALLERYANA,"(40.723669, -74.005262)"
363,60 WATTS ST,10013,ZESE,5,Poor,None,Good,None,Manhattan,-74.005641,40.723703,10013,37,3011,31877,"ZELKOVA, JAPANESE",ZELKOVA SERRATA,"(40.723703, -74.005641)"
364,60 WATTS ST,10013,ZESE,4,Excellent,None,Good,None,Manhattan,-74.005641,40.723703,10013,37,3011,31877,"ZELKOVA, JAPANESE",ZELKOVA SERRATA,"(40.723703, -74.005641)"
365,60 WATTS ST,10013,ZESE,4,Excellent,None,Good,None,Manhattan,-74.005641,40.723703,10013,37,3011,31877,"ZELKOVA, JAPANESE",ZELKOVA SERRATA,"(40.723703, -74.005641)"
366,66 WATTS ST,10013,ZESE,4,Excellent,None,Good,None,Manhattan,-74.005869,40.723724,10013,37,3011,31877,"ZELKOVA, JAPANESE",ZELKOVA SERRATA,"(40.723724, -74.005869)"
367,66 WATTS ST,10013,PYCA,9,Excellent,None,Good,None,Manhattan,-74.005869,40.723724,10013,37,3011,31877,"PEAR, CALLERY",PYRUS CALLERYANA,"(40.723724, -74.005869)"
368,559 BROOME ST,10013,PYCA,8,Excellent,None,Good,None,Manhattan,-74.005908,40.724382,10013,37,3011,110919,"PEAR, CALLERY",PYRUS CALLERYANA,"(40.724382, -74.005908)"
369,557 BROOME ST,10013,COMA,8,Excellent,None,Good,None,Manhattan,-74.005799,40.724365,10013,37,3011,110919,"CHERRY, CORNELIAN",CORNUS MAS,"(40.724365, -74.005799)"
370,558 BROOME ST,10013,COMA,9,Excellent,None,Good,None,Manhattan,-74.006017,40.724399,10013,37,3009,110919,"CHERRY, CORNELIAN",CORNUS MAS,"(40.724399, -74.006017)"
371,552 BROOME ST,10013,PYCA,10,Excellent,None,Good,None,Manhattan,-74.005662,40.724343,10013,37,3009,110919,"PEAR, CALLERY",PYRUS CALLERYANA,"(40.724343, -74.005662)"
372,550 BROOME ST,10013,COMA,7,Excellent,None,Good,None,Manhattan,-74.005544,40.724325,10013,37,3009,110919,"CHERRY, CORNELIAN",CORNUS MAS,"(40.724325, -74.005544)"
373,550 BROOME ST,10013,PYCA,6,Excellent,None,Good,None,Manhattan,-74.005544,40.724325,10013,37,3009,110919,"PEAR, CALLERY",PYRUS CALLERYANA,"(40.724325, -74.005544)"
374,550 BROOME ST,10013,PYCA,4,Excellent,None,Good,None,Manhattan,-74.005544,40.724325,10013,37,3009,110919,"PEAR, CALLERY",PYRUS CALLERYANA,"(40.724325, -74.005544)"
375,550 BROOME ST,10013,PYCA,6,Excellent,None,Good,None,Manhattan,-74.005544,40.724325,10013,37,3009,110919,"PEAR, CALLERY",PYRUS CALLERYANA,"(40.724325, -74.005544)"
376,121 Avenue of the Amer,10013,PYCA,4,Excellent,None,Good,None,Manhattan,-74.004681,40.723899,10013,37,3011,31878,"PEAR, CALLERY",PYRUS CALLERYANA,"(40.723899, -74.004681)"
377,121 Avenue of the Amer,10013,PYCA,4,Excellent,None,Good,None,Manhattan,-74.004681,40.723899,10013,37,3011,31878,"PEAR, CALLERY",PYRUS CALLERYANA,"(40.723899, -74.004681)"
378,121 Avenue of the Amer,10013,PYCA,4,Excellent,None,Good,None,Manhattan,-74.004681,40.723899,10013,37,3011,31878,"PEAR, CALLERY",PYRUS CALLERYANA,"(40.723899, -74.004681)"
379,121 Avenue of the Amer,10013,ULAM,9,Excellent,None,Good,None,Manhattan,-74.004681,40.723899,10013,37,3011,31878,"ELM, AMERICAN",ULMUS AMERICANA,"(40.723899, -74.004681)"
380,121 Avenue of the Amer,10013,ULAM,7,Poor,None,Good,None,Manhattan,-74.004681,40.723899,10013,37,3011,31878,"ELM, AMERICAN",ULMUS AMERICANA,"(40.723899, -74.004681)"
381,160 Avenue of the Amer,10013,ULAM,9,Excellent,None,Good,None,Manhattan,-74.004066,40.725374,10013,47,1000,32124,"ELM, AMERICAN",ULMUS AMERICANA,"(40.725374, -74.004066)"
382,160 Avenue of the Amer,10013,ULAM,5,Poor,None,Good,None,Manhattan,-74.004066,40.725374,10013,47,1000,32124,"ELM, AMERICAN",ULMUS AMERICANA,"(40.725374, -74.004066)"
383,160 Avenue of the Amer,10013,ULAM,8,Good,None,Good,None,Manhattan,-74.004066,40.725374,10013,47,1000,32124,"ELM, AMERICAN",ULMUS AMERICANA,"(40.725374, -74.004066)"
384,160 Avenue of the Amer,10013,PYCA,5,Good,None,Good,None,Manhattan,-74.004066,40.725374,10013,47,1000,32124,"PEAR, CALLERY",PYRUS CALLERYANA,"(40.725374, -74.004066)"
385,160 Avenue of the Amer,10013,ULAM,8,Good,None,Good,None,Manhattan,-74.004066,40.725374,10013,47,1000,32124,"ELM, AMERICAN",ULMUS AMERICANA,"(40.725374, -74.004066)"
386,160 Avenue of the Amer,10013,ZESE,3,Good,None,Good,None,Manhattan,-74.004066,40.725374,10013,47,1000,32124,"ZELKOVA, JAPANESE",ZELKOVA SERRATA,"(40.725374, -74.004066)"
387,160 Avenue of the Amer,10013,ULAM,9,Excellent,None,Good,None,Manhattan,-74.004066,40.725374,10013,47,1000,32124,"ELM, AMERICAN",ULMUS AMERICANA,"(40.725374, -74.004066)"
388,160 Avenue of the Amer,10013,TICO,6,Poor,None,Good,None,Manhattan,-74.004066,40.725374,10013,47,1000,32124,"LINDEN, LITTLE LEAF",TILIA CORDATA,"(40.725374, -74.004066)"
389,160 Avenue of the Amer,10013,ULAM,9,Excellent,None,Good,None,Manhattan,-74.004066,40.725374,10013,47,1000,32124,"ELM, AMERICAN",ULMUS AMERICANA,"(40.725374, -74.004066)"
390,160 Avenue of the Amer,10013,TICO,0,Dead,None,Good,None,Manhattan,-74.004066,40.725374,10013,47,1000,32124,"LINDEN, LITTLE LEAF",TILIA CORDATA,"(40.725374, -74.004066)"
391,160 Avenue of the Amer,10013,ULAM,8,Good,None,Good,None,Manhattan,-74.004066,40.725374,10013,47,1000,32124,"ELM, AMERICAN",ULMUS AMERICANA,"(40.725374, -74.004066)"
392,160 Avenue of the Amer,10013,ULAM,7,Good,None,Good,None,Manhattan,-74.004066,40.725374,10013,47,1000,32124,"ELM, AMERICAN",ULMUS AMERICANA,"(40.725374, -74.004066)"
393,160 Avenue of the Amer,10013,ULAM,9,Good,None,Good,None,Manhattan,-74.004066,40.725374,10013,47,1000,32124,"ELM, AMERICAN",ULMUS AMERICANA,"(40.725374, -74.004066)"
394,131 Avenue of the Amer,10013,ZESE,11,Excellent,None,Good,None,Manhattan,-74.004569,40.724183,10013,37,3009,105041,"ZELKOVA, JAPANESE",ZELKOVA SERRATA,"(40.724183, -74.004569)"
395,131 Avenue of the Amer,10013,ULAM,8,Poor,None,Good,None,Manhattan,-74.004569,40.724183,10013,37,3009,105041,"ELM, AMERICAN",ULMUS AMERICANA,"(40.724183, -74.004569)"
396,131 Avenue of the Amer,10013,COMA,10,Good,None,Good,None,Manhattan,-74.004569,40.724183,10013,37,3009,105041,"CHERRY, CORNELIAN",CORNUS MAS,"(40.724183, -74.004569)"
397,131 Avenue of the Amer,10013,COMA,9,Excellent,None,Good,None,Manhattan,-74.004569,40.724183,10013,37,3009,105041,"CHERRY, CORNELIAN",CORNUS MAS,"(40.724183, -74.004569)"
398,131 Avenue of the Amer,10013,COMA,10,Good,None,Good,None,Manhattan,-74.004569,40.724183,10013,37,3009,105041,"CHERRY, CORNELIAN",CORNUS MAS,"(40.724183, -74.004569)"
399,131 Avenue of the Amer,10013,COMA,11,Good,None,Good,None,Manhattan,-74.004569,40.724183,10013,37,3009,105041,"CHERRY, CORNELIAN",CORNUS MAS,"(40.724183, -74.004569)"
400,145 Avenue of the Amer,10012,ZESE,8,Excellent,None,Good,None,Manhattan,-74.004183,40.724922,10013,37,3006,32122,"ZELKOVA, JAPANESE",ZELKOVA SERRATA,"(40.724922, -74.004183)"
401,145 Avenue of the Amer,10012,PYCA,3,Excellent,None,Good,None,Manhattan,-74.004183,40.724922,10013,37,3006,32122,"PEAR, CALLERY",PYRUS CALLERYANA,"(40.724922, -74.004183)"
402,145 Avenue of the Amer,10012,OSVI,6,Poor,None,Good,None,Manhattan,-74.004183,40.724922,10013,37,3006,32122,EASTERN HOP HORNBEAM,OSTRYA VIRGINIANA,"(40.724922, -74.004183)"
403,155 Avenue of the Amer,10013,OSVI,7,Excellent,None,Good,None,Manhattan,-74.004057,40.725406,10013,37,3006,32122,EASTERN HOP HORNBEAM,OSTRYA VIRGINIANA,"(40.725406, -74.004057)"
404,155 Avenue of the Amer,10013,OSVI,6,Good,None,Good,None,Manhattan,-74.004057,40.725406,10013,37,3006,32122,EASTERN HOP HORNBEAM,OSTRYA VIRGINIANA,"(40.725406, -74.004057)"
405,155 Avenue of the Amer,10013,OSVI,6,Good,None,Good,None,Manhattan,-74.004057,40.725406,10013,37,3006,32122,EASTERN HOP HORNBEAM,OSTRYA VIRGINIANA,"(40.725406, -74.004057)"
406,155 Avenue of the Amer,10013,OSVI,8,Good,None,Good,None,Manhattan,-74.004057,40.725406,10013,37,3006,32122,EASTERN HOP HORNBEAM,OSTRYA VIRGINIANA,"(40.725406, -74.004057)"
407,15 KING ST,10014,TICO,10,Excellent,None,Good,None,Manhattan,-74.003226,40.727663,10014,37,2002,32148,"LINDEN, LITTLE LEAF",TILIA CORDATA,"(40.727663, -74.003226)"
408,15 KING ST,10014,ULAM,11,Good,None,Good,None,Manhattan,-74.003226,40.727663,10014,37,2002,32148,"ELM, AMERICAN",ULMUS AMERICANA,"(40.727663, -74.003226)"
409,227 Avenue of the Amer,10014,ACSA1,7,Excellent,None,Good,None,Manhattan,-74.002991,40.727888,10014,37,2002,110637,"MAPLE, SILVER",ACER SACCHARINUM,"(40.727888, -74.002991)"
410,227 Avenue of the Amer,10014,TICO,6,Excellent,None,Good,None,Manhattan,-74.002991,40.727888,10014,37,2002,110637,"LINDEN, LITTLE LEAF",TILIA CORDATA,"(40.727888, -74.002991)"
411,227 Avenue of the Amer,10014,ULAM,10,Excellent,None,Good,None,Manhattan,-74.002991,40.727888,10014,37,2002,110637,"ELM, AMERICAN",ULMUS AMERICANA,"(40.727888, -74.002991)"
412,185 W HOUSTON ST,10014,SOJA,5,Excellent,None,Good,None,Manhattan,-74.003223,40.728401,10014,37,2002,32151,JAPANESE PAGODA TREE,SOPHORA JAPONICA,"(40.728401, -74.003223)"
413,185 W HOUSTON ST,10014,SOJA,4,Excellent,None,Good,None,Manhattan,-74.003223,40.728401,10014,37,2002,32151,JAPANESE PAGODA TREE,SOPHORA JAPONICA,"(40.728401, -74.003223)"
414,185 W HOUSTON ST,10014,SOJA,5,Excellent,None,Good,None,Manhattan,-74.003223,40.728401,10014,37,2002,32151,JAPANESE PAGODA TREE,SOPHORA JAPONICA,"(40.728401, -74.003223)"
415,185 W HOUSTON ST,10014,SOJA,6,Excellent,None,Good,None,Manhattan,-74.003223,40.728401,10014,37,2002,32151,JAPANESE PAGODA TREE,SOPHORA JAPONICA,"(40.728401, -74.003223)"
416,197 W HOUSTON ST,10014,ZESE,7,Excellent,None,Good,None,Manhattan,-74.003697,40.728447,10014,37,2002,32151,"ZELKOVA, JAPANESE",ZELKOVA SERRATA,"(40.728447, -74.003697)"
417,180 W HOUSTON ST,10014,PLAC,13,Poor,None,Good,None,Manhattan,-74.002987,40.728378,10014,67,2003,32151,LONDON PLANETREE,PLATANUS ACERIFOLIA,"(40.728378, -74.002987)"
418,180 W HOUSTON ST,10014,UNKDEAD,0,Dead,None,Good,None,Manhattan,-74.002987,40.728378,10014,67,2003,32151,UNKNOWN DEAD TREES,UNKNOWN DEAD TREES ,"(40.728378, -74.002987)"
419,180 W HOUSTON ST,10014,PYCA,4,Good,None,Good,None,Manhattan,-74.002987,40.728378,10014,67,2003,32151,"PEAR, CALLERY",PYRUS CALLERYANA,"(40.728378, -74.002987)"
420,180 W HOUSTON ST,10014,PYCA,5,Excellent,None,Good,None,Manhattan,-74.002987,40.728378,10014,67,2003,32151,"PEAR, CALLERY",PYRUS CALLERYANA,"(40.728378, -74.002987)"
421,375 HUDSON ST,10014,PYCA,6,Excellent,None,Good,None,Manhattan,-74.007141,40.728443,10014,37,1000,31916,"PEAR, CALLERY",PYRUS CALLERYANA,"(40.728443, -74.007141)"
422,375 HUDSON ST,10014,PYCA,6,Excellent,None,Good,None,Manhattan,-74.007141,40.728443,10014,37,1000,31916,"PEAR, CALLERY",PYRUS CALLERYANA,"(40.728443, -74.007141)"
423,375 HUDSON ST,10014,PYCA,6,Excellent,None,Good,None,Manhattan,-74.007141,40.728443,10014,37,1000,31916,"PEAR, CALLERY",PYRUS CALLERYANA,"(40.728443, -74.007141)"
424,375 HUDSON ST,10014,PYCA,7,Excellent,None,Good,None,Manhattan,-74.007141,40.728443,10014,37,1000,31916,"PEAR, CALLERY",PYRUS CALLERYANA,"(40.728443, -74.007141)"
425,229 W HOUSTON ST,10014,PYCA,5,Excellent,None,Good,None,Manhattan,-74.004963,40.728571,10014,37,2002,32151,"PEAR, CALLERY",PYRUS CALLERYANA,"(40.728571, -74.004963)"
426,229 W HOUSTON ST,10014,PYCA,5,Excellent,None,Good,None,Manhattan,-74.004963,40.728571,10014,37,2002,32151,"PEAR, CALLERY",PYRUS CALLERYANA,"(40.728571, -74.004963)"
427,229 W HOUSTON ST,10014,PYCA,5,Excellent,None,Good,None,Manhattan,-74.004963,40.728571,10014,37,2002,32151,"PEAR, CALLERY",PYRUS CALLERYANA,"(40.728571, -74.004963)"
428,229 W HOUSTON ST,10014,PYCA,5,Excellent,None,Good,None,Manhattan,-74.004963,40.728571,10014,37,2002,32151,"PEAR, CALLERY",PYRUS CALLERYANA,"(40.728571, -74.004963)"
429,229 W HOUSTON ST,10014,PYCA,5,Excellent,None,Good,None,Manhattan,-74.004963,40.728571,10014,37,2002,32151,"PEAR, CALLERY",PYRUS CALLERYANA,"(40.728571, -74.004963)"
437,356 WEST ST,10014,AIAL,18,Excellent,None,Good,None,Manhattan,-74.010561,40.730075,10014,69,1010,31668,TREE OF HEAVEN,AILANTHUS ALTISSIMA,"(40.730075, -74.010561)"
438,356 WEST ST,10014,AIAL,18,Excellent,None,Good,None,Manhattan,-74.010561,40.730075,10014,69,1010,31668,TREE OF HEAVEN,AILANTHUS ALTISSIMA,"(40.730075, -74.010561)"
439,560 WASHINGTON ST,10013,AIAL,16,Good,Yes,Good,None,Manhattan,-74.009435,40.728679,10014,37,1002,31655,TREE OF HEAVEN,AILANTHUS ALTISSIMA,"(40.728679, -74.009435)"
440,560 WASHINGTON ST,10013,AIAL,14,Good,Yes,Good,None,Manhattan,-74.009435,40.728679,10014,37,1002,31655,TREE OF HEAVEN,AILANTHUS ALTISSIMA,"(40.728679, -74.009435)"
441,560 WASHINGTON ST,10013,AIAL,12,Good,None,Good,None,Manhattan,-74.009435,40.728679,10014,37,1002,31655,TREE OF HEAVEN,AILANTHUS ALTISSIMA,"(40.728679, -74.009435)"
442,560 WASHINGTON ST,10013,AIAL,13,Good,None,Good,None,Manhattan,-74.009435,40.728679,10014,37,1002,31655,TREE OF HEAVEN,AILANTHUS ALTISSIMA,"(40.728679, -74.009435)"
443,560 WASHINGTON ST,10013,AIAL,22,Good,None,Good,None,Manhattan,-74.009435,40.728679,10014,37,1002,31655,TREE OF HEAVEN,AILANTHUS ALTISSIMA,"(40.728679, -74.009435)"
444,560 WASHINGTON ST,10013,AIAL,16,Poor,None,Good,None,Manhattan,-74.009435,40.728679,10014,37,1002,31655,TREE OF HEAVEN,AILANTHUS ALTISSIMA,"(40.728679, -74.009435)"
445,560 WASHINGTON ST,10013,AIAL,19,Poor,None,Raised,None,Manhattan,-74.009435,40.728679,10014,37,1002,31655,TREE OF HEAVEN,AILANTHUS ALTISSIMA,"(40.728679, -74.009435)"
446,326 SPRING ST,10014,GLTR,8,Good,None,Good,None,Manhattan,-74.00937,40.726017,10013,37,1008,31640,HONEYLOCUST,GLEDITSIA TRIACANTHOS,"(40.726017, -74.00937)"
447,326 SPRING ST,10014,GLTR,11,Good,None,Good,None,Manhattan,-74.00937,40.726017,10013,37,1008,31640,HONEYLOCUST,GLEDITSIA TRIACANTHOS,"(40.726017, -74.00937)"
448,535 GREENWICH ST,10014,BE,5,Excellent,None,Good,None,Manhattan,-74.008957,40.726846,10013,37,1012,31658,"BIRCH, OTHER",BETULA SPECIES,"(40.726846, -74.008957)"
449,99 VAN DAM ST,10013,SOJA,7,Excellent,None,Good,Stakes / Wires,Manhattan,-74.008414,40.726694,10013,37,1012,31889,JAPANESE PAGODA TREE,SOPHORA JAPONICA,"(40.726694, -74.008414)"
450,325 HUDSON ST,10013,PS,0,Planting Space,None,Good,None,Manhattan,-74.007417,40.7267,10013,37,1012,31890,PLANTING SITE,PLANTING SITE,"(40.7267, -74.007417)"
451,325 HUDSON ST,10013,PLAC,10,Good,None,Good,None,Manhattan,-74.007417,40.7267,10013,37,1012,31890,LONDON PLANETREE,PLATANUS ACERIFOLIA,"(40.7267, -74.007417)"
452,325 HUDSON ST,10013,PLAC,10,Good,None,Good,None,Manhattan,-74.007417,40.7267,10013,37,1012,31890,LONDON PLANETREE,PLATANUS ACERIFOLIA,"(40.7267, -74.007417)"
453,333 HUDSON ST,10013,PS,0,Planting Space,None,Good,None,Manhattan,-74.007363,40.727053,10013,37,1012,31890,PLANTING SITE,PLANTING SITE,"(40.727053, -74.007363)"
454,333 HUDSON ST,10013,PS,0,Planting Space,None,Good,None,Manhattan,-74.007363,40.727053,10013,37,1012,31890,PLANTING SITE,PLANTING SITE,"(40.727053, -74.007363)"
455,333 HUDSON ST,10013,PS,0,Planting Space,None,Good,None,Manhattan,-74.007363,40.727053,10013,37,1012,31890,PLANTING SITE,PLANTING SITE,"(40.727053, -74.007363)"
456,330 HUDSON ST,10013,PLAC,8,Good,None,Good,None,Manhattan,-74.007398,40.726824,10013,37,3002,31890,LONDON PLANETREE,PLATANUS ACERIFOLIA,"(40.726824, -74.007398)"
457,330 HUDSON ST,10013,PLAC,8,Good,None,Good,None,Manhattan,-74.007398,40.726824,10013,37,3002,31890,LONDON PLANETREE,PLATANUS ACERIFOLIA,"(40.726824, -74.007398)"
505,28 KING ST,10014,GIBI,6,Excellent,None,Good,None,Manhattan,-74.003734,40.727713,10014,37,2005,32148,GINKGO,GINKGO BILOBA,"(40.727713, -74.003734)"
458,340-344 HUDSON ST,10013,PLAC,8,Good,None,Good,None,Manhattan,-74.007322,40.727318,10013,37,3002,31890,LONDON PLANETREE,PLATANUS ACERIFOLIA,"(40.727318, -74.007322)"
459,340-344 HUDSON ST,10013,PS,0,Planting Space,None,Good,None,Manhattan,-74.007344,40.727176,10013,37,3002,31890,PLANTING SITE,PLANTING SITE,"(40.727176, -74.007344)"
460,350 HUDSON ST,10014,PYCA,7,Excellent,None,Good,None,Manhattan,-74.007293,40.727495,10014,37,2004,31914,"PEAR, CALLERY",PYRUS CALLERYANA,"(40.727495, -74.007293)"
461,350 HUDSON ST,10014,PYCA,7,Excellent,None,Good,Guard Strangling,Manhattan,-74.007293,40.727495,10014,37,2004,31914,"PEAR, CALLERY",PYRUS CALLERYANA,"(40.727495, -74.007293)"
462,161 Avenue of the Amer,10013,TICO,6,Good,None,Good,None,Manhattan,-74.003992,40.725596,10013,37,3004,32126,"LINDEN, LITTLE LEAF",TILIA CORDATA,"(40.725596, -74.003992)"
463,110 Avenue of the Amer,10013,ULAM,10,Excellent,None,Good,None,Manhattan,-74.004784,40.723634,10013,47,2000,31878,"ELM, AMERICAN",ULMUS AMERICANA,"(40.723634, -74.004784)"
464,161 Avenue of the Amer,10013,ULAM,10,Excellent,None,Good,None,Manhattan,-74.003992,40.725596,10013,37,3004,32126,"ELM, AMERICAN",ULMUS AMERICANA,"(40.725596, -74.003992)"
465,161 Avenue of the Amer,10013,TICO,4,Good,None,Good,None,Manhattan,-74.003992,40.725596,10013,37,3004,32126,"LINDEN, LITTLE LEAF",TILIA CORDATA,"(40.725596, -74.003992)"
466,26 VAN DAM ST,10013,GLTR,5,Good,None,Good,None,Manhattan,-74.004927,40.726372,10013,37,3004,32127,HONEYLOCUST,GLEDITSIA TRIACANTHOS,"(40.726372, -74.004927)"
467,27 VAN DAM ST,10013,GLTR,5,Good,None,Good,None,Manhattan,-74.004902,40.72637,10013,37,3001,32127,HONEYLOCUST,GLEDITSIA TRIACANTHOS,"(40.72637, -74.004902)"
468,25 VAN DAM ST,10013,SOJA,8,Excellent,None,Good,None,Manhattan,-74.004811,40.726362,10013,37,3001,32127,JAPANESE PAGODA TREE,SOPHORA JAPONICA,"(40.726362, -74.004811)"
469,23 VAN DAM ST,10013,TICO,4,Excellent,None,Good,None,Manhattan,-74.004722,40.726354,10013,37,3001,32127,"LINDEN, LITTLE LEAF",TILIA CORDATA,"(40.726354, -74.004722)"
470,19 VAN DAM ST,10013,GLTR,6,Excellent,None,Good,None,Manhattan,-74.004541,40.726338,10013,37,3001,32127,HONEYLOCUST,GLEDITSIA TRIACANTHOS,"(40.726338, -74.004541)"
471,17 VAN DAM ST,10013,GLTR,6,Excellent,None,Good,None,Manhattan,-74.004449,40.72633,10013,37,3001,32127,HONEYLOCUST,GLEDITSIA TRIACANTHOS,"(40.72633, -74.004449)"
472,13 VAN DAM ST,10013,GIBI,7,Excellent,None,Good,None,Manhattan,-74.004268,40.726314,10013,37,3001,32127,GINKGO,GINKGO BILOBA,"(40.726314, -74.004268)"
473,11 VAN DAM ST,10013,GIBI,8,Excellent,None,Good,None,Manhattan,-74.004177,40.726306,10013,37,3001,32127,GINKGO,GINKGO BILOBA,"(40.726306, -74.004177)"
474,11 VAN DAM ST,10013,ZESE,6,Good,None,Good,None,Manhattan,-74.004177,40.726306,10013,37,3001,32127,"ZELKOVA, JAPANESE",ZELKOVA SERRATA,"(40.726306, -74.004177)"
2316,72-074 E 3 ST,10003,GLTR,4,Good,None,Good,Stakes / Wires,Manhattan,1,1,10003,3602,1000,32894,HONEYLOCUST,GLEDITSIA TRIACANTHOS,"(1.0, 1.0)"
475,11 VAN DAM ST,10013,ZESE,6,Poor,None,Good,None,Manhattan,-74.004177,40.726306,10013,37,3001,32127,"ZELKOVA, JAPANESE",ZELKOVA SERRATA,"(40.726306, -74.004177)"
476,2 CHARLTON ST,10014,PLAC,9,Good,None,Good,None,Manhattan,-74.003477,40.726961,10014,37,3001,32142,LONDON PLANETREE,PLATANUS ACERIFOLIA,"(40.726961, -74.003477)"
477,2 CHARLTON ST,10014,GIBI,5,Good,None,Good,None,Manhattan,-74.003477,40.726961,10014,37,3001,32142,GINKGO,GINKGO BILOBA,"(40.726961, -74.003477)"
478,2 CHARLTON ST,10014,ACPL,3,Good,None,Good,None,Manhattan,-74.003477,40.726961,10014,37,3001,32142,"MAPLE, NORWAY",ACER PLATANOIDES,"(40.726961, -74.003477)"
479,22 CHARLTON ST,10014,GIBI,3,Excellent,None,Good,None,Manhattan,-74.004231,40.727032,10014,37,3001,32142,GINKGO,GINKGO BILOBA,"(40.727032, -74.004231)"
480,24 CHARLTON ST,10014,GIBI,7,Excellent,None,Good,None,Manhattan,-74.004306,40.727039,10014,37,3001,32142,GINKGO,GINKGO BILOBA,"(40.727039, -74.004306)"
481,30 CHARLTON ST,10014,SOJA,3,Excellent,None,Good,None,Manhattan,-74.004534,40.72706,10014,37,3001,32142,JAPANESE PAGODA TREE,SOPHORA JAPONICA,"(40.72706, -74.004534)"
482,30 CHARLTON ST,10014,GLTR,3,Good,None,Good,None,Manhattan,-74.004534,40.72706,10014,37,3001,32142,HONEYLOCUST,GLEDITSIA TRIACANTHOS,"(40.72706, -74.004534)"
483,30 CHARLTON ST,10014,ULAM,6,Poor,None,Good,None,Manhattan,-74.004534,40.72706,10014,37,3001,32142,"ELM, AMERICAN",ULMUS AMERICANA,"(40.72706, -74.004534)"
484,40 CHARLTON ST,10014,GLTR,8,Poor,None,Good,None,Manhattan,-74.004911,40.727096,10014,37,3001,32142,HONEYLOCUST,GLEDITSIA TRIACANTHOS,"(40.727096, -74.004911)"
485,40 CHARLTON ST,10014,GLTR,7,Good,None,Good,None,Manhattan,-74.004911,40.727096,10014,37,3001,32142,HONEYLOCUST,GLEDITSIA TRIACANTHOS,"(40.727096, -74.004911)"
486,40 CHARLTON ST,10014,GLTR,8,Good,None,Good,None,Manhattan,-74.004911,40.727096,10014,37,3001,32142,HONEYLOCUST,GLEDITSIA TRIACANTHOS,"(40.727096, -74.004911)"
487,42 CHARLTON ST,10014,SOJA,3,Excellent,None,Good,Stakes / Wires,Manhattan,-74.004986,40.727103,10014,37,3001,32142,JAPANESE PAGODA TREE,SOPHORA JAPONICA,"(40.727103, -74.004986)"
488,43 CHARLTON ST,10014,PLAC,10,Good,None,Good,None,Manhattan,-74.005005,40.727105,10014,37,2005,32142,LONDON PLANETREE,PLATANUS ACERIFOLIA,"(40.727105, -74.005005)"
489,41 CHARLTON ST,10014,GIBI,4,Excellent,None,Good,None,Manhattan,-74.004919,40.727097,10014,37,2005,32142,GINKGO,GINKGO BILOBA,"(40.727097, -74.004919)"
490,39 CHARLTON ST,10014,PLAC,10,Excellent,None,Good,Stakes / Wires,Manhattan,-74.004836,40.727089,10014,37,2005,32142,LONDON PLANETREE,PLATANUS ACERIFOLIA,"(40.727089, -74.004836)"
491,35 CHARLTON ST,10014,QUPH,14,Excellent,None,Good,None,Manhattan,-74.004665,40.727073,10014,37,2005,32142,"OAK, WILLOW",QUERCUS PHELLOS,"(40.727073, -74.004665)"
492,31 CHARLTON ST,10014,PLAC,11,Excellent,None,Good,None,Manhattan,-74.004495,40.727057,10014,37,2005,32142,LONDON PLANETREE,PLATANUS ACERIFOLIA,"(40.727057, -74.004495)"
493,29 CHARLTON ST,10014,ZESE,4,Poor,None,Good,None,Manhattan,-74.00441,40.727049,10014,37,2005,32142,"ZELKOVA, JAPANESE",ZELKOVA SERRATA,"(40.727049, -74.00441)"
494,25 CHARLTON ST,10014,PLAC,14,Excellent,None,Good,None,Manhattan,-74.004241,40.727033,10014,37,2005,32142,LONDON PLANETREE,PLATANUS ACERIFOLIA,"(40.727033, -74.004241)"
495,21 CHARLTON ST,10014,ZESE,5,Poor,None,Good,None,Manhattan,-74.004072,40.727017,10014,37,2005,32142,"ZELKOVA, JAPANESE",ZELKOVA SERRATA,"(40.727017, -74.004072)"
496,21 CHARLTON ST,10014,GIBI,11,Excellent,None,Good,None,Manhattan,-74.004072,40.727017,10014,37,2005,32142,GINKGO,GINKGO BILOBA,"(40.727017, -74.004072)"
497,17 CHARLTON ST,10014,GIBI,11,Excellent,None,Good,None,Manhattan,-74.003901,40.727001,10014,37,2005,32142,GINKGO,GINKGO BILOBA,"(40.727001, -74.003901)"
498,11 CHARLTON ST,10014,GIBI,4,Excellent,None,Good,None,Manhattan,-74.003646,40.726977,10014,37,2005,32142,GINKGO,GINKGO BILOBA,"(40.726977, -74.003646)"
499,210 Avenue of the Amer,10014,GIBI,3,Excellent,None,Good,None,Manhattan,-74.003354,40.727136,10014,37,2006,32143,GINKGO,GINKGO BILOBA,"(40.727136, -74.003354)"
500,210 Avenue of the Amer,10014,GIBI,3,Excellent,None,Good,None,Manhattan,-74.003354,40.727136,10014,37,2006,32143,GINKGO,GINKGO BILOBA,"(40.727136, -74.003354)"
501,20 KING ST,10014,PLAC,10,Excellent,None,Good,None,Manhattan,-74.003384,40.727679,10014,37,2005,32148,LONDON PLANETREE,PLATANUS ACERIFOLIA,"(40.727679, -74.003384)"
502,22 KING ST,10014,GIBI,5,Excellent,None,Good,None,Manhattan,-74.003473,40.727687,10014,37,2005,32148,GINKGO,GINKGO BILOBA,"(40.727687, -74.003473)"
503,24 KING ST,10014,ACPL,6,Excellent,None,Good,None,Manhattan,-74.003559,40.727696,10014,37,2005,32148,"MAPLE, NORWAY",ACER PLATANOIDES,"(40.727696, -74.003559)"
504,26 KING ST,10014,ZESE,4,Poor,None,Good,None,Manhattan,-74.003647,40.727704,10014,37,2005,32148,"ZELKOVA, JAPANESE",ZELKOVA SERRATA,"(40.727704, -74.003647)"
506,34 KING ST,10014,ZESE,5,Excellent,None,Good,None,Manhattan,-74.003997,40.727738,10014,37,2005,32148,"ZELKOVA, JAPANESE",ZELKOVA SERRATA,"(40.727738, -74.003997)"
507,36 KING ST,10014,PYCA,3,Excellent,None,Good,None,Manhattan,-74.004083,40.727747,10014,37,2005,32148,"PEAR, CALLERY",PYRUS CALLERYANA,"(40.727747, -74.004083)"
508,38 KING ST,10014,ZESE,5,Excellent,None,Good,None,Manhattan,-74.004171,40.727755,10014,37,2005,32148,"ZELKOVA, JAPANESE",ZELKOVA SERRATA,"(40.727755, -74.004171)"
509,42 KING ST,10014,PLAC,9,Excellent,None,Good,None,Manhattan,-74.004344,40.727772,10014,37,2005,32148,LONDON PLANETREE,PLATANUS ACERIFOLIA,"(40.727772, -74.004344)"
510,50 KING ST,10014,UNKDEAD,0,Dead,None,Good,None,Manhattan,-74.004693,40.727806,10014,37,2005,32148,UNKNOWN DEAD TREES,UNKNOWN DEAD TREES ,"(40.727806, -74.004693)"
511,50 KING ST,10014,COMA,5,Poor,None,Good,None,Manhattan,-74.004693,40.727806,10014,37,2005,32148,"CHERRY, CORNELIAN",CORNUS MAS,"(40.727806, -74.004693)"
512,52 KING ST,10014,ZESE,5,Excellent,None,Good,None,Manhattan,-74.004781,40.727815,10014,37,2005,32148,"ZELKOVA, JAPANESE",ZELKOVA SERRATA,"(40.727815, -74.004781)"
513,49 KING ST,10014,ULAM,6,Excellent,None,Good,None,Manhattan,-74.004979,40.727834,10014,37,2002,32148,"ELM, AMERICAN",ULMUS AMERICANA,"(40.727834, -74.004979)"
514,47 KING ST,10014,ULAM,8,Good,None,Good,None,Manhattan,-74.004877,40.727824,10014,37,2002,32148,"ELM, AMERICAN",ULMUS AMERICANA,"(40.727824, -74.004877)"
515,45 KING ST,10014,QURU,11,Excellent,None,Good,None,Manhattan,-74.004772,40.727814,10014,37,2002,32148,"OAK, NORTHERN RED",QUERCUS RUBRA,"(40.727814, -74.004772)"
516,41 KING ST,10014,PLAC,12,Good,None,Good,None,Manhattan,-74.004566,40.727794,10014,37,2002,32148,LONDON PLANETREE,PLATANUS ACERIFOLIA,"(40.727794, -74.004566)"
517,37 KING ST,10014,QURU,7,Excellent,None,Good,None,Manhattan,-74.004359,40.727774,10014,37,2002,32148,"OAK, NORTHERN RED",QUERCUS RUBRA,"(40.727774, -74.004359)"
518,29 KING ST,10014,ZESE,7,Excellent,None,Good,None,Manhattan,-74.003949,40.727734,10014,37,2002,32148,"ZELKOVA, JAPANESE",ZELKOVA SERRATA,"(40.727734, -74.003949)"
519,29 KING ST,10014,PYCA,7,Good,None,Good,None,Manhattan,-74.003949,40.727734,10014,37,2002,32148,"PEAR, CALLERY",PYRUS CALLERYANA,"(40.727734, -74.003949)"
520,29 KING ST,10014,PYCA,8,Excellent,None,Good,None,Manhattan,-74.003949,40.727734,10014,37,2002,32148,"PEAR, CALLERY",PYRUS CALLERYANA,"(40.727734, -74.003949)"
521,29 KING ST,10014,ZESE,5,Poor,None,Good,None,Manhattan,-74.003949,40.727734,10014,37,2002,32148,"ZELKOVA, JAPANESE",ZELKOVA SERRATA,"(40.727734, -74.003949)"
522,25 KING ST,10014,ULAM,5,Excellent,None,Good,None,Manhattan,-74.003743,40.727713,10014,37,2002,32148,"ELM, AMERICAN",ULMUS AMERICANA,"(40.727713, -74.003743)"
523,211/2 KING ST,0,PLAC,13,Unknown,None,Good,None,Manhattan,1,1,10014,37,2002,32148,LONDON PLANETREE,PLATANUS ACERIFOLIA,"(1.0, 1.0)"
524,350 HUDSON ST,10014,PYCA,6,Excellent,None,Good,Guard Strangling,Manhattan,-74.007293,40.727495,10014,37,2004,31914,"PEAR, CALLERY",PYRUS CALLERYANA,"(40.727495, -74.007293)"
525,350 HUDSON ST,10014,PYCA,7,Excellent,None,Good,None,Manhattan,-74.007293,40.727495,10014,37,2004,31914,"PEAR, CALLERY",PYRUS CALLERYANA,"(40.727495, -74.007293)"
526,345 HUDSON ST,10014,PYCA,7,Good,None,Good,None,Manhattan,-74.007296,40.727479,10014,37,1011,31914,"PEAR, CALLERY",PYRUS CALLERYANA,"(40.727479, -74.007296)"
527,345 HUDSON ST,10014,PYCA,6,Excellent,None,Good,Guard Strangling,Manhattan,-74.007296,40.727479,10014,37,1011,31914,"PEAR, CALLERY",PYRUS CALLERYANA,"(40.727479, -74.007296)"
528,345 HUDSON ST,10014,PYCA,8,Excellent,None,Good,None,Manhattan,-74.007296,40.727479,10014,37,1011,31914,"PEAR, CALLERY",PYRUS CALLERYANA,"(40.727479, -74.007296)"
529,345 HUDSON ST,10014,PYCA,7,Excellent,None,Good,Guard Strangling,Manhattan,-74.007296,40.727479,10014,37,1011,31914,"PEAR, CALLERY",PYRUS CALLERYANA,"(40.727479, -74.007296)"
530,345 HUDSON ST,10014,PYCA,8,Excellent,None,Good,None,Manhattan,-74.007296,40.727479,10014,37,1011,31914,"PEAR, CALLERY",PYRUS CALLERYANA,"(40.727479, -74.007296)"
531,345 HUDSON ST,10014,PYCA,8,Excellent,None,Good,None,Manhattan,-74.007296,40.727479,10014,37,1011,31914,"PEAR, CALLERY",PYRUS CALLERYANA,"(40.727479, -74.007296)"
534,70 VAN DAM ST,10013,UNKDEAD,0,Dead,None,Good,None,Manhattan,-74.007103,40.72657,10013,37,3003,31908,UNKNOWN DEAD TREES,UNKNOWN DEAD TREES ,"(40.72657, -74.007103)"
535,304 HUDSON ST,10013,PYCA,4,Excellent,None,Good,Stakes / Wires,Manhattan,-74.007544,40.725926,10013,37,3003,31888,"PEAR, CALLERY",PYRUS CALLERYANA,"(40.725926, -74.007544)"
536,304 HUDSON ST,10013,PS,0,Planting Space,None,Good,None,Manhattan,-74.007544,40.725926,10013,37,3003,31888,PLANTING SITE,PLANTING SITE,"(40.725926, -74.007544)"
537,304 HUDSON ST,10013,PYCA,4,Excellent,None,Good,Stakes / Wires,Manhattan,-74.007544,40.725926,10013,37,3003,31888,"PEAR, CALLERY",PYRUS CALLERYANA,"(40.725926, -74.007544)"
538,304 HUDSON ST,10013,PS,0,Planting Space,None,Good,None,Manhattan,-74.007544,40.725926,10013,37,3003,31888,PLANTING SITE,PLANTING SITE,"(40.725926, -74.007544)"
539,304 HUDSON ST,10013,PS,0,Planting Space,None,Good,None,Manhattan,-74.007544,40.725926,10013,37,3003,31888,PLANTING SITE,PLANTING SITE,"(40.725926, -74.007544)"
540,304 HUDSON ST,10013,PYCA,4,Excellent,None,Good,None,Manhattan,-74.007544,40.725926,10013,37,3003,31888,"PEAR, CALLERY",PYRUS CALLERYANA,"(40.725926, -74.007544)"
541,304 HUDSON ST,10013,PYCA,4,Excellent,None,Good,Stakes / Wires,Manhattan,-74.007544,40.725926,10013,37,3003,31888,"PEAR, CALLERY",PYRUS CALLERYANA,"(40.725926, -74.007544)"
542,315 HUDSON ST,10013,QUPH,10,Excellent,None,Good,None,Manhattan,-74.007475,40.726344,10013,37,1013,31888,"OAK, WILLOW",QUERCUS PHELLOS,"(40.726344, -74.007475)"
543,315 HUDSON ST,10013,PYCA,4,Excellent,None,Good,None,Manhattan,-74.007475,40.726344,10013,37,1013,31888,"PEAR, CALLERY",PYRUS CALLERYANA,"(40.726344, -74.007475)"
544,302 SPRING ST,10013,SOJA,5,Excellent,None,Good,None,Manhattan,-74.008118,40.725893,10013,37,1015,31887,JAPANESE PAGODA TREE,SOPHORA JAPONICA,"(40.725893, -74.008118)"
545,302 SPRING ST,10013,SOJA,4,Excellent,None,Good,None,Manhattan,-74.008118,40.725893,10013,37,1015,31887,JAPANESE PAGODA TREE,SOPHORA JAPONICA,"(40.725893, -74.008118)"
546,143 VARICK ST,10013,PLAC,11,Good,None,Good,None,Manhattan,-74.005724,40.72593,10013,37,3003,31907,LONDON PLANETREE,PLATANUS ACERIFOLIA,"(40.72593, -74.005724)"
547,175 VARICK ST,10014,PLAC,9,Good,None,Good,None,Manhattan,-74.005515,40.727341,10014,37,2004,31920,LONDON PLANETREE,PLATANUS ACERIFOLIA,"(40.727341, -74.005515)"
548,100 CHARLTON ST,10014,SOJA,4,Excellent,None,Good,None,Manhattan,-74.007884,40.727383,10014,37,1012,31913,JAPANESE PAGODA TREE,SOPHORA JAPONICA,"(40.727383, -74.007884)"
549,486 GREENWICH ST,10013,GLTR,12,Excellent,None,Good,None,Manhattan,-74.009282,40.724982,10013,37,1018,31637,HONEYLOCUST,GLEDITSIA TRIACANTHOS,"(40.724982, -74.009282)"
550,488 GREENWICH ST,10013,GLTR,14,Excellent,None,Good,None,Manhattan,-74.009264,40.725113,10013,37,1018,31637,HONEYLOCUST,GLEDITSIA TRIACANTHOS,"(40.725113, -74.009264)"
551,500 GREENWICH ST,10013,PYCA,4,Excellent,None,Good,Stakes / Wires,Manhattan,-74.009159,40.725902,10013,37,1018,31637,"PEAR, CALLERY",PYRUS CALLERYANA,"(40.725902, -74.009159)"
552,500 GREENWICH ST,10013,PYCA,4,Excellent,None,Good,Stakes / Wires,Manhattan,-74.009159,40.725902,10013,37,1018,31637,"PEAR, CALLERY",PYRUS CALLERYANA,"(40.725902, -74.009159)"
553,500 GREENWICH ST,10013,PYCA,4,Excellent,None,Good,Stakes / Wires,Manhattan,-74.009159,40.725902,10013,37,1018,31637,"PEAR, CALLERY",PYRUS CALLERYANA,"(40.725902, -74.009159)"
554,500 GREENWICH ST,10013,PYCA,5,Excellent,None,Good,Stakes / Wires,Manhattan,-74.009159,40.725902,10013,37,1018,31637,"PEAR, CALLERY",PYRUS CALLERYANA,"(40.725902, -74.009159)"
555,275 HUDSON ST,10013,PS,0,Planting Space,None,Good,None,Manhattan,-74.007672,40.725184,10013,37,1016,31883,PLANTING SITE,PLANTING SITE,"(40.725184, -74.007672)"
556,38 DOMINICK ST,10013,SOJA,3,Unknown,None,Good,None,Manhattan,-74.006478,40.725088,10013,37,3008,31904,JAPANESE PAGODA TREE,SOPHORA JAPONICA,"(40.725088, -74.006478)"
557,121 VARICK ST,10013,TICO,5,Excellent,None,Good,None,Manhattan,-74.005921,40.724915,10013,37,3008,31903,"LINDEN, LITTLE LEAF",TILIA CORDATA,"(40.724915, -74.005921)"
558,572 BROOME ST,10013,AIAL,10,Excellent,None,Good,None,Manhattan,-74.006694,40.724464,10013,37,3008,31901,TREE OF HEAVEN,AILANTHUS ALTISSIMA,"(40.724464, -74.006694)"
559,572 BROOME ST,10013,GLTR,2,Poor,None,Good,None,Manhattan,-74.006694,40.724464,10013,37,3008,31901,HONEYLOCUST,GLEDITSIA TRIACANTHOS,"(40.724464, -74.006694)"
560,572 BROOME ST,10013,COMA,8,Excellent,None,Good,None,Manhattan,-74.006694,40.724464,10013,37,3008,31901,"CHERRY, CORNELIAN",CORNUS MAS,"(40.724464, -74.006694)"
561,100 VARICK ST,10013,TICO,9,Excellent,None,Good,None,Manhattan,-74.00609,40.723968,10013,37,3011,31862,"LINDEN, LITTLE LEAF",TILIA CORDATA,"(40.723968, -74.00609)"
562,100 VARICK ST,10013,TICO,8,Excellent,None,Good,None,Manhattan,-74.00609,40.723968,10013,37,3011,31862,"LINDEN, LITTLE LEAF",TILIA CORDATA,"(40.723968, -74.00609)"
563,100 VARICK ST,10013,TICO,9,Excellent,None,Good,None,Manhattan,-74.00609,40.723968,10013,37,3011,31862,"LINDEN, LITTLE LEAF",TILIA CORDATA,"(40.723968, -74.00609)"
564,100 VARICK ST,10013,UNKDEAD,9,Dead,None,Good,None,Manhattan,-74.00609,40.723968,10013,37,3011,31862,UNKNOWN DEAD TREES,UNKNOWN DEAD TREES ,"(40.723968, -74.00609)"
565,100 VARICK ST,10013,TICO,9,Excellent,None,Good,None,Manhattan,-74.00609,40.723968,10013,37,3011,31862,"LINDEN, LITTLE LEAF",TILIA CORDATA,"(40.723968, -74.00609)"
566,100 VARICK ST,10013,TICO,7,Poor,None,Good,None,Manhattan,-74.00609,40.723968,10013,37,3011,31862,"LINDEN, LITTLE LEAF",TILIA CORDATA,"(40.723968, -74.00609)"
567,100 VARICK ST,10013,TICO,8,Excellent,None,Good,None,Manhattan,-74.00609,40.723968,10013,37,3011,31862,"LINDEN, LITTLE LEAF",TILIA CORDATA,"(40.723968, -74.00609)"
568,100 VARICK ST,10013,TICO,9,Excellent,None,Good,None,Manhattan,-74.00609,40.723968,10013,37,3011,31862,"LINDEN, LITTLE LEAF",TILIA CORDATA,"(40.723968, -74.00609)"
569,281 W BROADWAY,10013,PYCA,4,Excellent,None,Good,None,Manhattan,-74.004908,40.721009,10013,33,2000,31819,"PEAR, CALLERY",PYRUS CALLERYANA,"(40.721009, -74.004908)"
570,285 W BROADWAY,10013,SOJA,3,Excellent,None,Good,None,Manhattan,-74.004849,40.721084,10013,33,2000,31819,JAPANESE PAGODA TREE,SOPHORA JAPONICA,"(40.721084, -74.004849)"
571,285 W BROADWAY,10013,GLTR,6,Excellent,Yes,Good,None,Manhattan,-74.004849,40.721084,10013,33,2000,31819,HONEYLOCUST,GLEDITSIA TRIACANTHOS,"(40.721084, -74.004849)"
572,148 SPRING ST,10012,GIBI,6,Excellent,None,Good,None,Manhattan,-74.001312,40.724255,10012,47,1003,32140,GINKGO,GINKGO BILOBA,"(40.724255, -74.001312)"
573,146 SPRING ST,10012,GIBI,6,Excellent,None,Good,None,Manhattan,-74.001225,40.724214,10012,47,1003,32140,GINKGO,GINKGO BILOBA,"(40.724214, -74.001225)"
574,80 WOOSTER ST,10012,AIAL,8,Excellent,None,Good,None,Manhattan,-74.001479,40.723748,10012,49,1009,32114,TREE OF HEAVEN,AILANTHUS ALTISSIMA,"(40.723748, -74.001479)"
575,80 WOOSTER ST,10012,AIAL,10,Excellent,None,Good,None,Manhattan,-74.001479,40.723748,10012,49,1009,32114,TREE OF HEAVEN,AILANTHUS ALTISSIMA,"(40.723748, -74.001479)"
576,120 SPRING ST,10012,GIBI,5,Excellent,None,Good,None,Manhattan,-74.000136,40.723682,10012,49,1008,32359,GINKGO,GINKGO BILOBA,"(40.723682, -74.000136)"
577,111 SPRING ST,10012,GIBI,5,Excellent,None,Good,None,Manhattan,-73.999866,40.723549,10012,49,1005,32359,GINKGO,GINKGO BILOBA,"(40.723549, -73.999866)"
578,47 BEACH ST,10013,PYCA,7,Excellent,None,Good,None,Manhattan,-74.008966,40.72064,10013,39,4000,31582,"PEAR, CALLERY",PYRUS CALLERYANA,"(40.72064, -74.008966)"
579,47 BEACH ST,10013,PYCA,8,Excellent,None,Good,None,Manhattan,-74.008966,40.72064,10013,39,4000,31582,"PEAR, CALLERY",PYRUS CALLERYANA,"(40.72064, -74.008966)"
580,57 BEACH ST,10013,AIAL,16,Excellent,None,Good,None,Manhattan,-74.009416,40.720696,10013,39,4001,31572,TREE OF HEAVEN,AILANTHUS ALTISSIMA,"(40.720696, -74.009416)"
581,427 WASHINGTON ST,10013,UNKDEAD,0,Dead,None,Good,None,Manhattan,-74.01045,40.72287,10013,39,1012,31591,UNKNOWN DEAD TREES,UNKNOWN DEAD TREES ,"(40.72287, -74.01045)"
582,135 WASHINGTON ST,10006,PS,0,Planting Space,None,Good,None,Manhattan,-74.013826,40.709661,10006,13,1002,23077,PLANTING SITE,PLANTING SITE,"(40.709661, -74.013826)"
583,135 WASHINGTON ST,10006,PS,0,Planting Space,None,Good,None,Manhattan,-74.013826,40.709661,10006,13,1002,23077,PLANTING SITE,PLANTING SITE,"(40.709661, -74.013826)"
584,135 WASHINGTON ST,10006,PS,0,Planting Space,None,Good,None,Manhattan,-74.013826,40.709661,10006,13,1002,23077,PLANTING SITE,PLANTING SITE,"(40.709661, -74.013826)"
585,135 WASHINGTON ST,10006,PS,0,Planting Space,None,Good,None,Manhattan,-74.013826,40.709661,10006,13,1002,23077,PLANTING SITE,PLANTING SITE,"(40.709661, -74.013826)"
586,138-140 WATTS ST,10013,PS,0,Planting Space,None,Good,None,Manhattan,-74.010018,40.724149,10013,39,1003,31632,PLANTING SITE,PLANTING SITE,"(40.724149, -74.010018)"
587,138-140 WATTS ST,10013,PS,0,Planting Space,None,Good,None,Manhattan,-74.009921,40.724139,10013,39,1003,31632,PLANTING SITE,PLANTING SITE,"(40.724139, -74.009921)"
588,468 GREENWICH ST,10013,PS,0,Planting Space,None,Good,None,Manhattan,-74.009423,40.724097,10013,39,1003,31633,PLANTING SITE,PLANTING SITE,"(40.724097, -74.009423)"
589,472 GREENWICH ST,10013,PS,0,Planting Space,None,Good,None,Manhattan,-74.009365,40.724588,10013,39,1003,31633,PLANTING SITE,PLANTING SITE,"(40.724588, -74.009365)"
590,472 GREENWICH ST,10013,PS,0,Planting Space,None,Good,None,Manhattan,-74.009365,40.724588,10013,39,1003,31633,PLANTING SITE,PLANTING SITE,"(40.724588, -74.009365)"
591,474 GREENWICH ST,10013,PS,0,Planting Space,None,Good,None,Manhattan,-74.009354,40.724616,10013,39,1003,31633,PLANTING SITE,PLANTING SITE,"(40.724616, -74.009354)"
592,506 CANAL ST,10013,ACSA1,14,Excellent,None,Good,None,Manhattan,-74.0095,40.724817,10013,39,1004,31636,"MAPLE, SILVER",ACER SACCHARINUM,"(40.724817, -74.0095)"
593,506 CANAL ST,10013,SOJA,3,Excellent,None,Good,None,Manhattan,-74.0095,40.724817,10013,39,1004,31636,JAPANESE PAGODA TREE,SOPHORA JAPONICA,"(40.724817, -74.0095)"
594,508 CANAL ST,10013,PYCA,3,Excellent,None,Good,None,Manhattan,-74.009585,40.72487,10013,39,1004,31636,"PEAR, CALLERY",PYRUS CALLERYANA,"(40.72487, -74.009585)"
595,207 HUDSON ST,10013,ULAM,6,Excellent,None,Good,None,Manhattan,-74.007946,40.723513,10013,39,1007,164194,"ELM, AMERICAN",ULMUS AMERICANA,"(40.723513, -74.007946)"
596,16 DESBROSSES ST,10013,PLAC,9,Good,None,Good,None,Manhattan,-74.009066,40.723387,10013,39,1007,31827,LONDON PLANETREE,PLATANUS ACERIFOLIA,"(40.723387, -74.009066)"
597,16 DESBROSSES ST,10013,PLAC,7,Excellent,None,Good,None,Manhattan,-74.009066,40.723387,10013,39,1007,31827,LONDON PLANETREE,PLATANUS ACERIFOLIA,"(40.723387, -74.009066)"
598,195 HUDSON ST,10013,PLAC,9,Excellent,None,Good,None,Manhattan,-74.008028,40.723132,10013,39,1013,31826,LONDON PLANETREE,PLATANUS ACERIFOLIA,"(40.723132, -74.008028)"
599,215 HESTER ST,10013,MAPU,2,Good,None,Good,None,Manhattan,-73.999152,40.718585,10013,41,5002,32338,APPLE,MALUS PUMILA,"(40.718585, -73.999152)"
2317,72-074 E 3 ST,10003,GLTR,4,Good,None,Good,Stakes / Wires,Manhattan,1,1,10003,3602,1000,32894,HONEYLOCUST,GLEDITSIA TRIACANTHOS,"(1.0, 1.0)"
600,17 CLEVELAND PL,10012,QUPA,5,Good,None,Good,None,Manhattan,-73.997323,40.721678,10012,41,6001,32369,"OAK, PIN",QUERCUS PALUSTRIS,"(40.721678, -73.997323)"
601,19 CLEVELAND PL,10012,PS,0,Planting Space,None,Good,None,Manhattan,-73.997287,40.721785,10012,41,6001,32369,PLANTING SITE,PLANTING SITE,"(40.721785, -73.997287)"
602,21 CLEVELAND PL,10012,QUPA,4,Unknown,None,Good,None,Manhattan,-73.997251,40.721893,10012,41,6001,32369,"OAK, PIN",QUERCUS PALUSTRIS,"(40.721893, -73.997251)"
603,25 CLEVELAND PL,10012,GIBI,4,Unknown,None,Good,None,Manhattan,-73.997179,40.722108,10012,41,6001,32369,GINKGO,GINKGO BILOBA,"(40.722108, -73.997179)"
604,106 KENMARE ST,10012,GIBI,11,Good,None,Good,None,Manhattan,-73.997202,40.721383,10012,45,1006,32368,GINKGO,GINKGO BILOBA,"(40.721383, -73.997202)"
605,106 KENMARE ST,10012,PS,0,Planting Space,None,Good,None,Manhattan,-73.997202,40.721383,10012,45,1006,32368,PLANTING SITE,PLANTING SITE,"(40.721383, -73.997202)"
606,85 KENMARE ST,10012,GLTR,9,Unknown,None,Good,None,Manhattan,-73.996688,40.72121,10012,41,6001,32516,HONEYLOCUST,GLEDITSIA TRIACANTHOS,"(40.72121, -73.996688)"
607,97 KENMARE ST,10012,GLTR,8,Unknown,None,Good,None,Manhattan,-73.996988,40.721311,10012,41,6001,32516,HONEYLOCUST,GLEDITSIA TRIACANTHOS,"(40.721311, -73.996988)"
608,97 KENMARE ST,10012,GLTR,5,Unknown,None,Good,None,Manhattan,-73.996988,40.721311,10012,41,6001,32516,HONEYLOCUST,GLEDITSIA TRIACANTHOS,"(40.721311, -73.996988)"
609,97 KENMARE ST,10012,GLTR,5,Unknown,None,Good,None,Manhattan,-73.996988,40.721311,10012,41,6001,32516,HONEYLOCUST,GLEDITSIA TRIACANTHOS,"(40.721311, -73.996988)"
610,98 KENMARE ST,10012,GLTR,11,Unknown,None,Good,None,Manhattan,-73.996957,40.721301,10012,41,6002,32516,HONEYLOCUST,GLEDITSIA TRIACANTHOS,"(40.721301, -73.996957)"
611,98 KENMARE ST,10012,GLTR,10,Unknown,None,Good,None,Manhattan,-73.996957,40.721301,10012,41,6002,32516,HONEYLOCUST,GLEDITSIA TRIACANTHOS,"(40.721301, -73.996957)"
612,438 BROOME ST,10012,UNKNOWN,2,Good,None,Good,None,Manhattan,-73.999641,40.721697,10013,45,1002,32361,UNKNOWN LIVE TREES,UNKNOWN LIVE TREES ,"(40.721697, -73.999641)"
613,438 BROOME ST,10012,UNKNOWN,2,Good,None,Good,None,Manhattan,-73.999641,40.721697,10013,45,1002,32361,UNKNOWN LIVE TREES,UNKNOWN LIVE TREES ,"(40.721697, -73.999641)"
614,378 BROOME ST,10012,GLTR,7,Good,None,Good,None,Manhattan,-73.996336,40.720304,10013,41,6003,32494,HONEYLOCUST,GLEDITSIA TRIACANTHOS,"(40.720304, -73.996336)"
615,369 BROOME ST,10012,GLTR,7,Good,None,Good,None,Manhattan,-73.99602,40.720177,10013,41,3000,32500,HONEYLOCUST,GLEDITSIA TRIACANTHOS,"(40.720177, -73.99602)"
616,179 GRAND ST,10013,PYCA,5,Good,None,Good,None,Manhattan,-73.99779,40.719492,10013,41,5003,32344,"PEAR, CALLERY",PYRUS CALLERYANA,"(40.719492, -73.99779)"
617,179 GRAND ST,10013,PYCA,5,Good,None,Good,None,Manhattan,-73.99779,40.719492,10013,41,5003,32344,"PEAR, CALLERY",PYRUS CALLERYANA,"(40.719492, -73.99779)"
618,194 GRAND ST,10013,GLTR,4,Good,None,Good,None,Manhattan,-73.99699,40.71922,10013,41,4000,32349,HONEYLOCUST,GLEDITSIA TRIACANTHOS,"(40.71922, -73.99699)"
619,12 SPRING ST,10012,GIBI,4,Good,None,Good,None,Manhattan,-73.99469,40.721304,10012,41,1000,275212,GINKGO,GINKGO BILOBA,"(40.721304, -73.99469)"
620,10 SPRING ST,10012,GIBI,4,Good,None,Good,None,Manhattan,-73.994514,40.721231,10012,41,1000,275212,GINKGO,GINKGO BILOBA,"(40.721231, -73.994514)"
621,7 SPRING ST,10012,TICO,9,Good,None,Good,None,Manhattan,-73.994338,40.721159,10012,43,2000,275212,"LINDEN, LITTLE LEAF",TILIA CORDATA,"(40.721159, -73.994338)"
622,159 MOTT ST,10013,GLTR,2,Good,None,Good,None,Manhattan,-73.996314,40.719465,10013,41,4000,32492,HONEYLOCUST,GLEDITSIA TRIACANTHOS,"(40.719465, -73.996314)"
623,129 MULBERRY ST,10013,GIBI,4,Good,None,Good,None,Manhattan,-73.99792,40.718176,10013,41,5003,32324,GINKGO,GINKGO BILOBA,"(40.718176, -73.99792)"
624,130 BAXTER ST,10013,GIBI,4,Good,None,Good,None,Manhattan,-73.99881,40.718351,10013,41,5005,32316,GINKGO,GINKGO BILOBA,"(40.718351, -73.99881)"
625,195 HUDSON ST,10013,PLAC,10,Excellent,None,Good,None,Manhattan,-74.008028,40.723132,10013,39,1013,31826,LONDON PLANETREE,PLATANUS ACERIFOLIA,"(40.723132, -74.008028)"
626,195 HUDSON ST,10013,PLAC,10,Excellent,None,Good,None,Manhattan,-74.008028,40.723132,10013,39,1013,31826,LONDON PLANETREE,PLATANUS ACERIFOLIA,"(40.723132, -74.008028)"
627,195 HUDSON ST,10013,PLAC,11,Excellent,None,Good,None,Manhattan,-74.008028,40.723132,10013,39,1013,31826,LONDON PLANETREE,PLATANUS ACERIFOLIA,"(40.723132, -74.008028)"
628,200 HUDSON ST,10013,PYCA,4,Excellent,None,Good,None,Manhattan,-74.00805,40.723011,10013,33,3002,31826,"PEAR, CALLERY",PYRUS CALLERYANA,"(40.723011, -74.00805)"
629,200 HUDSON ST,10003,PYCA,4,Excellent,None,Good,None,Manhattan,-74.00805,40.723011,10013,33,3002,31826,"PEAR, CALLERY",PYRUS CALLERYANA,"(40.723011, -74.00805)"
630,200 HUDSON ST,10003,PYCA,3,Excellent,None,Good,None,Manhattan,-74.00805,40.723011,10013,33,3002,31826,"PEAR, CALLERY",PYRUS CALLERYANA,"(40.723011, -74.00805)"
631,200 HUDSON ST,10003,PYCA,3,Excellent,None,Good,None,Manhattan,-74.00805,40.723011,10013,33,3002,31826,"PEAR, CALLERY",PYRUS CALLERYANA,"(40.723011, -74.00805)"
632,200 HUDSON ST,10012,QUPH,10,Excellent,None,Good,None,Manhattan,-74.00805,40.723011,10013,33,3002,31826,"OAK, WILLOW",QUERCUS PHELLOS,"(40.723011, -74.00805)"
633,157 HUDSON ST,10003,PYCA,11,Unknown,None,Good,None,Manhattan,-74.008269,40.721651,10013,39,1020,31606,"PEAR, CALLERY",PYRUS CALLERYANA,"(40.721651, -74.008269)"
634,130 BAXTER ST,10012,SOJA,4,Good,None,Good,None,Manhattan,-73.99881,40.718351,10013,41,5005,32316,JAPANESE PAGODA TREE,SOPHORA JAPONICA,"(40.718351, -73.99881)"
635,130 BAXTER ST,10003,SOJA,5,Good,None,Good,None,Manhattan,-73.99881,40.718351,10013,41,5005,32316,JAPANESE PAGODA TREE,SOPHORA JAPONICA,"(40.718351, -73.99881)"
636,130 BAXTER ST,10012,UNKSHFT,0,Stump,None,Good,None,Manhattan,-73.99881,40.718351,10013,41,5005,32316,UNKNOWN SHAFT,UNKNOWN SHAFT ,"(40.718351, -73.99881)"
637,55 Avenue of the Amer,10012,PYCA,4,Excellent,None,Good,None,Manhattan,-74.005274,40.721231,10013,33,3009,31813,"PEAR, CALLERY",PYRUS CALLERYANA,"(40.721231, -74.005274)"
638,55 Avenue of the Amer,10012,PYCA,3,Excellent,None,Good,None,Manhattan,-74.005274,40.721231,10013,33,3009,31813,"PEAR, CALLERY",PYRUS CALLERYANA,"(40.721231, -74.005274)"
639,130 BAXTER ST,10003,SOJA,4,Unknown,None,Good,None,Manhattan,-73.99881,40.718351,10013,41,5005,32316,JAPANESE PAGODA TREE,SOPHORA JAPONICA,"(40.718351, -73.99881)"
640,55 Avenue of the Amer,10003,PS,0,Planting Space,None,Good,None,Manhattan,-74.005274,40.721231,10013,33,3009,31813,PLANTING SITE,PLANTING SITE,"(40.721231, -74.005274)"
641,130 BAXTER ST,10012,SOJA,4,Unknown,None,Good,None,Manhattan,-73.99881,40.718351,10013,41,5005,32316,JAPANESE PAGODA TREE,SOPHORA JAPONICA,"(40.718351, -73.99881)"
642,55 Avenue of the Amer,10003,TICO,6,Excellent,None,Good,None,Manhattan,-74.005274,40.721231,10013,33,3009,31813,"LINDEN, LITTLE LEAF",TILIA CORDATA,"(40.721231, -74.005274)"
643,55 Avenue of the Amer,10003,TICO,4,Excellent,None,Good,None,Manhattan,-74.005274,40.721231,10013,33,3009,31813,"LINDEN, LITTLE LEAF",TILIA CORDATA,"(40.721231, -74.005274)"
644,55 Avenue of the Amer,10012,TICO,3,Poor,None,Good,None,Manhattan,-74.005274,40.721231,10013,33,3009,31813,"LINDEN, LITTLE LEAF",TILIA CORDATA,"(40.721231, -74.005274)"
645,55 Avenue of the Amer,10012,TICO,11,Excellent,None,Good,None,Manhattan,-74.005274,40.721231,10013,33,3009,31813,"LINDEN, LITTLE LEAF",TILIA CORDATA,"(40.721231, -74.005274)"
646,55 Avenue of the Amer,10003,TICO,6,Good,None,Good,None,Manhattan,-74.005274,40.721231,10013,33,3009,31813,"LINDEN, LITTLE LEAF",TILIA CORDATA,"(40.721231, -74.005274)"
647,118 MULBERRY ST,10012,UNKNOWN,1,Good,None,Good,None,Manhattan,-73.998173,40.717758,10013,41,4002,32320,UNKNOWN LIVE TREES,UNKNOWN LIVE TREES ,"(40.717758, -73.998173)"
648,55 Avenue of the Amer,10003,TICO,11,Excellent,None,Good,None,Manhattan,-74.005274,40.721231,10013,33,3009,31813,"LINDEN, LITTLE LEAF",TILIA CORDATA,"(40.721231, -74.005274)"
649,55 Avenue of the Amer,10012,TICO,11,Excellent,None,Good,None,Manhattan,-74.005274,40.721231,10013,33,3009,31813,"LINDEN, LITTLE LEAF",TILIA CORDATA,"(40.721231, -74.005274)"
650,55 Avenue of the Amer,10003,TICO,8,Excellent,None,Good,None,Manhattan,-74.005274,40.721231,10013,33,3009,31813,"LINDEN, LITTLE LEAF",TILIA CORDATA,"(40.721231, -74.005274)"
651,129 MULBERRY ST,10003,GIBI,5,Good,None,Good,None,Manhattan,-73.99792,40.718176,10013,41,5003,32324,GINKGO,GINKGO BILOBA,"(40.718176, -73.99792)"
652,55 Avenue of the Amer,10003,TICO,11,Excellent,None,Good,None,Manhattan,-74.005274,40.721231,10013,33,3009,31813,"LINDEN, LITTLE LEAF",TILIA CORDATA,"(40.721231, -74.005274)"
653,129 MULBERRY ST,10003,GIBI,4,Good,None,Good,None,Manhattan,-73.99792,40.718176,10013,41,5003,32324,GINKGO,GINKGO BILOBA,"(40.718176, -73.99792)"
654,129 MULBERRY ST,10003,GIBI,4,Good,None,Good,None,Manhattan,-73.99792,40.718176,10013,41,5003,32324,GINKGO,GINKGO BILOBA,"(40.718176, -73.99792)"
655,55 Avenue of the Amer,10012,TICO,6,Good,None,Good,None,Manhattan,-74.005274,40.721231,10013,33,3009,31813,"LINDEN, LITTLE LEAF",TILIA CORDATA,"(40.721231, -74.005274)"
656,129 MULBERRY ST,10003,GIBI,3,Good,None,Good,None,Manhattan,-73.99792,40.718176,10013,41,5003,32324,GINKGO,GINKGO BILOBA,"(40.718176, -73.99792)"
657,55 Avenue of the Amer,10003,TICO,5,Poor,None,Good,None,Manhattan,-74.005274,40.721231,10013,33,3009,31813,"LINDEN, LITTLE LEAF",TILIA CORDATA,"(40.721231, -74.005274)"
658,55 Avenue of the Amer,10012,TICO,9,Excellent,None,Good,None,Manhattan,-74.005274,40.721231,10013,33,3009,31813,"LINDEN, LITTLE LEAF",TILIA CORDATA,"(40.721231, -74.005274)"
659,55 Avenue of the Amer,10003,TICO,5,Poor,None,Good,None,Manhattan,-74.005274,40.721231,10013,33,3009,31813,"LINDEN, LITTLE LEAF",TILIA CORDATA,"(40.721231, -74.005274)"
660,55 Avenue of the Amer,10012,TICO,6,Excellent,None,Good,None,Manhattan,-74.005274,40.721231,10013,33,3009,31813,"LINDEN, LITTLE LEAF",TILIA CORDATA,"(40.721231, -74.005274)"
661,260 W BROADWAY,10003,SOJA,9,Excellent,None,Good,None,Manhattan,-74.005466,40.720303,10013,33,3011,31812,JAPANESE PAGODA TREE,SOPHORA JAPONICA,"(40.720303, -74.005466)"
662,260 W BROADWAY,10003,SOJA,9,Excellent,None,Good,None,Manhattan,-74.005466,40.720303,10013,33,3011,31812,JAPANESE PAGODA TREE,SOPHORA JAPONICA,"(40.720303, -74.005466)"
663,260 W BROADWAY,10003,SOJA,9,Excellent,None,Good,None,Manhattan,-74.005466,40.720303,10013,33,3011,31812,JAPANESE PAGODA TREE,SOPHORA JAPONICA,"(40.720303, -74.005466)"
664,260 W BROADWAY,10003,PLAC,14,Excellent,None,Good,None,Manhattan,-74.005466,40.720303,10013,33,3011,31812,LONDON PLANETREE,PLATANUS ACERIFOLIA,"(40.720303, -74.005466)"
665,260 W BROADWAY,10003,SOJA,4,Excellent,None,Good,None,Manhattan,-74.005466,40.720303,10013,33,3011,31812,JAPANESE PAGODA TREE,SOPHORA JAPONICA,"(40.720303, -74.005466)"
666,260 W BROADWAY,10003,SOJA,4,Excellent,None,Good,None,Manhattan,-74.005466,40.720303,10013,33,3011,31812,JAPANESE PAGODA TREE,SOPHORA JAPONICA,"(40.720303, -74.005466)"
667,260 W BROADWAY,10003,SOJA,5,Excellent,None,Good,None,Manhattan,-74.005466,40.720303,10013,33,3011,31812,JAPANESE PAGODA TREE,SOPHORA JAPONICA,"(40.720303, -74.005466)"
668,260 W BROADWAY,10003,SOJA,5,Poor,None,Good,None,Manhattan,-74.005466,40.720303,10013,33,3011,31812,JAPANESE PAGODA TREE,SOPHORA JAPONICA,"(40.720303, -74.005466)"
669,260 W BROADWAY,10003,PLAC,12,Excellent,None,Good,None,Manhattan,-74.005466,40.720303,10013,33,3011,31812,LONDON PLANETREE,PLATANUS ACERIFOLIA,"(40.720303, -74.005466)"
670,260 W BROADWAY,10003,SOJA,5,Excellent,None,Good,None,Manhattan,-74.005466,40.720303,10013,33,3011,31812,JAPANESE PAGODA TREE,SOPHORA JAPONICA,"(40.720303, -74.005466)"
671,260 W BROADWAY,10003,PLAC,17,Excellent,None,Good,None,Manhattan,-74.005466,40.720303,10013,33,3011,31812,LONDON PLANETREE,PLATANUS ACERIFOLIA,"(40.720303, -74.005466)"
672,8 BEACH ST,10003,UNKDEAD,0,Dead,None,Good,None,Manhattan,-74.006001,40.720203,10013,33,3013,31806,UNKNOWN DEAD TREES,UNKNOWN DEAD TREES ,"(40.720203, -74.006001)"
673,62 SPRING ST,10009,COMA,5,Good,None,Good,None,Manhattan,-73.997091,40.72233,10012,45,1001,32514,"CHERRY, CORNELIAN",CORNUS MAS,"(40.72233, -73.997091)"
674,62 SPRING ST,10009,COMA,5,Good,None,Good,None,Manhattan,-73.997091,40.72233,10012,45,1001,32514,"CHERRY, CORNELIAN",CORNUS MAS,"(40.72233, -73.997091)"
675,62 SPRING ST,10009,COMA,5,Good,None,Good,None,Manhattan,-73.997091,40.72233,10012,45,1001,32514,"CHERRY, CORNELIAN",CORNUS MAS,"(40.72233, -73.997091)"
676,62 SPRING ST,10009,COMA,4,Good,None,Good,None,Manhattan,-73.997091,40.72233,10012,45,1001,32514,"CHERRY, CORNELIAN",CORNUS MAS,"(40.72233, -73.997091)"
677,246 W BROADWAY,10009,UNKNOWN,15,Good,None,Good,None,Manhattan,-74.005808,40.719872,10013,33,3013,31805,UNKNOWN LIVE TREES,UNKNOWN LIVE TREES ,"(40.719872, -74.005808)"
678,80 N MOORE ST,10009,GLTR,5,Excellent,None,Good,None,Manhattan,-74.010532,40.720159,10013,39,2001,31567,HONEYLOCUST,GLEDITSIA TRIACANTHOS,"(40.720159, -74.010532)"
679,80 N MOORE ST,10009,GLTR,5,Excellent,None,Good,None,Manhattan,-74.010532,40.720159,10013,39,2001,31567,HONEYLOCUST,GLEDITSIA TRIACANTHOS,"(40.720159, -74.010532)"
680,80 N MOORE ST,10009,GLTR,5,Good,None,Good,None,Manhattan,-74.010532,40.720159,10013,39,2001,31567,HONEYLOCUST,GLEDITSIA TRIACANTHOS,"(40.720159, -74.010532)"
681,80 N MOORE ST,10009,GLTR,5,Good,None,Good,None,Manhattan,-74.010532,40.720159,10013,39,2001,31567,HONEYLOCUST,GLEDITSIA TRIACANTHOS,"(40.720159, -74.010532)"
682,80 N MOORE ST,10009,GLTR,5,Excellent,None,Good,None,Manhattan,-74.010532,40.720159,10013,39,2001,31567,HONEYLOCUST,GLEDITSIA TRIACANTHOS,"(40.720159, -74.010532)"
683,80 N MOORE ST,10009,GLTR,5,Excellent,None,Good,None,Manhattan,-74.010532,40.720159,10013,39,2001,31567,HONEYLOCUST,GLEDITSIA TRIACANTHOS,"(40.720159, -74.010532)"
684,80 N MOORE ST,10009,GLTR,5,Excellent,None,Good,None,Manhattan,-74.010532,40.720159,10013,39,2001,31567,HONEYLOCUST,GLEDITSIA TRIACANTHOS,"(40.720159, -74.010532)"
685,38 WEST ST,10009,GLTR,5,Good,None,Good,None,Manhattan,-74.015628,40.707402,10006,13,2004,105786,HONEYLOCUST,GLEDITSIA TRIACANTHOS,"(40.707402, -74.015628)"
686,38 WEST ST,10009,GLTR,5,Excellent,None,Good,None,Manhattan,-74.015628,40.707402,10006,13,2004,105786,HONEYLOCUST,GLEDITSIA TRIACANTHOS,"(40.707402, -74.015628)"
687,38 WEST ST,10009,GLTR,5,Excellent,None,Good,None,Manhattan,-74.015628,40.707402,10006,13,2004,105786,HONEYLOCUST,GLEDITSIA TRIACANTHOS,"(40.707402, -74.015628)"
688,38 WEST ST,10009,GLTR,6,Excellent,None,Good,None,Manhattan,-74.015628,40.707402,10006,13,2004,105786,HONEYLOCUST,GLEDITSIA TRIACANTHOS,"(40.707402, -74.015628)"
689,38 WEST ST,10009,GLTR,6,Excellent,None,Good,None,Manhattan,-74.015628,40.707402,10006,13,2004,105786,HONEYLOCUST,GLEDITSIA TRIACANTHOS,"(40.707402, -74.015628)"
690,38 WEST ST,10009,GLTR,5,Excellent,None,Good,None,Manhattan,-74.015628,40.707402,10006,13,2004,105786,HONEYLOCUST,GLEDITSIA TRIACANTHOS,"(40.707402, -74.015628)"
691,38 WEST ST,10009,GLTR,4,Excellent,None,Good,None,Manhattan,-74.015628,40.707402,10006,13,2004,105786,HONEYLOCUST,GLEDITSIA TRIACANTHOS,"(40.707402, -74.015628)"
692,38 WEST ST,10009,GLTR,4,Excellent,None,Good,None,Manhattan,-74.015628,40.707402,10006,13,2004,105786,HONEYLOCUST,GLEDITSIA TRIACANTHOS,"(40.707402, -74.015628)"
693,38 WEST ST,10009,GLTR,6,Excellent,None,Good,None,Manhattan,-74.015628,40.707402,10006,13,2004,105786,HONEYLOCUST,GLEDITSIA TRIACANTHOS,"(40.707402, -74.015628)"
694,38 WEST ST,10009,GLTR,8,Excellent,None,Good,None,Manhattan,-74.015628,40.707402,10006,13,2004,105786,HONEYLOCUST,GLEDITSIA TRIACANTHOS,"(40.707402, -74.015628)"
695,38 WEST ST,10009,QURU,4,Excellent,None,Good,None,Manhattan,-74.015628,40.707402,10006,13,2004,105786,"OAK, NORTHERN RED",QUERCUS RUBRA,"(40.707402, -74.015628)"
696,38 WEST ST,10009,PS,0,Planting Space,None,Good,None,Manhattan,-74.015628,40.707402,10006,13,2004,105786,PLANTING SITE,PLANTING SITE,"(40.707402, -74.015628)"
697,38 WEST ST,10009,GLTR,5,Excellent,None,Good,None,Manhattan,-74.015628,40.707402,10006,13,2004,105786,HONEYLOCUST,GLEDITSIA TRIACANTHOS,"(40.707402, -74.015628)"
698,38 WEST ST,10009,GLTR,5,Good,None,Good,None,Manhattan,-74.015628,40.707402,10006,13,2004,105786,HONEYLOCUST,GLEDITSIA TRIACANTHOS,"(40.707402, -74.015628)"
699,38 WEST ST,10009,GLTR,5,Excellent,None,Good,None,Manhattan,-74.015628,40.707402,10006,13,2004,105786,HONEYLOCUST,GLEDITSIA TRIACANTHOS,"(40.707402, -74.015628)"
700,38 WEST ST,10009,GLTR,4,Poor,None,Good,None,Manhattan,-74.015628,40.707402,10006,13,2004,105786,HONEYLOCUST,GLEDITSIA TRIACANTHOS,"(40.707402, -74.015628)"
701,38 WEST ST,10009,GLTR,4,Excellent,None,Good,None,Manhattan,-74.015628,40.707402,10006,13,2004,105786,HONEYLOCUST,GLEDITSIA TRIACANTHOS,"(40.707402, -74.015628)"
702,38 WEST ST,10009,GLTR,5,Excellent,None,Good,None,Manhattan,-74.015628,40.707402,10006,13,2004,105786,HONEYLOCUST,GLEDITSIA TRIACANTHOS,"(40.707402, -74.015628)"
703,38 WEST ST,10009,GLTR,5,Excellent,None,Good,None,Manhattan,-74.015628,40.707402,10006,13,2004,105786,HONEYLOCUST,GLEDITSIA TRIACANTHOS,"(40.707402, -74.015628)"
704,38 WEST ST,10009,GLTR,5,Excellent,None,Good,None,Manhattan,-74.015628,40.707402,10006,13,2004,105786,HONEYLOCUST,GLEDITSIA TRIACANTHOS,"(40.707402, -74.015628)"
706,38 WEST ST,10009,GLTR,5,Excellent,None,Good,None,Manhattan,-74.015628,40.707402,10006,13,2004,105786,HONEYLOCUST,GLEDITSIA TRIACANTHOS,"(40.707402, -74.015628)"
711,218 LAFAYETTE ST,10013,GIBI,8,Unknown,None,Good,None,Manhattan,-73.99746,40.721923,10012,45,1001,32365,GINKGO,GINKGO BILOBA,"(40.721923, -73.99746)"
713,216 LAFAYETTE ST,10013,PLAC,18,Unknown,None,Good,None,Manhattan,-73.997518,40.721855,10012,45,1001,32365,LONDON PLANETREE,PLATANUS ACERIFOLIA,"(40.721855, -73.997518)"
714,214 LAFAYETTE ST,10013,PLAC,11,Unknown,None,Good,None,Manhattan,-73.997576,40.721788,10012,45,1001,32365,LONDON PLANETREE,PLATANUS ACERIFOLIA,"(40.721788, -73.997576)"
715,212 LAFAYETTE ST,10013,UNKNOWN,0,Unknown,None,Good,None,Manhattan,-73.997634,40.721721,10012,45,1001,32365,UNKNOWN LIVE TREES,UNKNOWN LIVE TREES ,"(40.721721, -73.997634)"
716,690 GREENWICH ST,10013,GLTR,5,Excellent,None,Good,None,Manhattan,-74.007459,40.733294,10014,75,1005,31954,HONEYLOCUST,GLEDITSIA TRIACANTHOS,"(40.733294, -74.007459)"
717,690 GREENWICH ST,10013,GLTR,6,Excellent,None,Good,None,Manhattan,-74.007459,40.733294,10014,75,1005,31954,HONEYLOCUST,GLEDITSIA TRIACANTHOS,"(40.733294, -74.007459)"
718,690 GREENWICH ST,10013,GLTR,6,Excellent,None,Good,None,Manhattan,-74.007459,40.733294,10014,75,1005,31954,HONEYLOCUST,GLEDITSIA TRIACANTHOS,"(40.733294, -74.007459)"
719,171 ELIZABETH ST,10013,UNKNOWN,12,Good,None,Good,None,Manhattan,-73.994794,40.721078,10012,41,1001,32505,UNKNOWN LIVE TREES,UNKNOWN LIVE TREES ,"(40.721078, -73.994794)"
720,173 ELIZABETH ST,10013,UNKNOWN,16,Good,None,Good,None,Manhattan,-73.994766,40.721152,10012,41,1001,32505,UNKNOWN LIVE TREES,UNKNOWN LIVE TREES ,"(40.721152, -73.994766)"
721,390 GREENWICH ST,10013,GLTR,7,Excellent,None,Good,None,Manhattan,-74.010119,40.720648,10013,39,2002,31568,HONEYLOCUST,GLEDITSIA TRIACANTHOS,"(40.720648, -74.010119)"
722,176 ELIZABETH ST,10013,UNKNOWN,14,Good,None,Good,None,Manhattan,-73.994779,40.721118,10012,41,1000,32505,UNKNOWN LIVE TREES,UNKNOWN LIVE TREES ,"(40.721118, -73.994779)"
723,390 GREENWICH ST,10013,GLTR,7,Excellent,None,Good,None,Manhattan,-74.010119,40.720648,10013,39,2002,31568,HONEYLOCUST,GLEDITSIA TRIACANTHOS,"(40.720648, -74.010119)"
724,390 GREENWICH ST,10013,GLTR,5,Excellent,None,Good,None,Manhattan,-74.010119,40.720648,10013,39,2002,31568,HONEYLOCUST,GLEDITSIA TRIACANTHOS,"(40.720648, -74.010119)"
725,390 GREENWICH ST,10013,GLTR,5,Excellent,None,Good,None,Manhattan,-74.010119,40.720648,10013,39,2002,31568,HONEYLOCUST,GLEDITSIA TRIACANTHOS,"(40.720648, -74.010119)"
726,174 ELIZABETH ST,10013,UNKNOWN,13,Good,None,Good,None,Manhattan,-73.994802,40.721058,10012,41,1000,32505,UNKNOWN LIVE TREES,UNKNOWN LIVE TREES ,"(40.721058, -73.994802)"
727,390 GREENWICH ST,10013,GLTR,6,Good,None,Good,None,Manhattan,-74.010119,40.720648,10013,39,2002,31568,HONEYLOCUST,GLEDITSIA TRIACANTHOS,"(40.720648, -74.010119)"
728,390 GREENWICH ST,10013,GLTR,6,Excellent,None,Good,None,Manhattan,-74.010119,40.720648,10013,39,2002,31568,HONEYLOCUST,GLEDITSIA TRIACANTHOS,"(40.720648, -74.010119)"
729,390 GREENWICH ST,10013,GLTR,6,Good,None,Good,None,Manhattan,-74.010119,40.720648,10013,39,2002,31568,HONEYLOCUST,GLEDITSIA TRIACANTHOS,"(40.720648, -74.010119)"
730,390 GREENWICH ST,10013,GLTR,6,Good,None,Good,None,Manhattan,-74.010119,40.720648,10013,39,2002,31568,HONEYLOCUST,GLEDITSIA TRIACANTHOS,"(40.720648, -74.010119)"
731,390 GREENWICH ST,10013,GLTR,6,Good,None,Good,None,Manhattan,-74.010119,40.720648,10013,39,2002,31568,HONEYLOCUST,GLEDITSIA TRIACANTHOS,"(40.720648, -74.010119)"
732,390 GREENWICH ST,10013,GLTR,6,Excellent,None,Good,None,Manhattan,-74.010119,40.720648,10013,39,2002,31568,HONEYLOCUST,GLEDITSIA TRIACANTHOS,"(40.720648, -74.010119)"
733,390 GREENWICH ST,10013,GLTR,5,Excellent,None,Good,None,Manhattan,-74.010119,40.720648,10013,39,2002,31568,HONEYLOCUST,GLEDITSIA TRIACANTHOS,"(40.720648, -74.010119)"
734,390 GREENWICH ST,10013,GLTR,5,Excellent,None,Good,None,Manhattan,-74.010119,40.720648,10013,39,2002,31568,HONEYLOCUST,GLEDITSIA TRIACANTHOS,"(40.720648, -74.010119)"
735,390 GREENWICH ST,10013,GLTR,6,Excellent,None,Good,None,Manhattan,-74.010119,40.720648,10013,39,2002,31568,HONEYLOCUST,GLEDITSIA TRIACANTHOS,"(40.720648, -74.010119)"
736,390 GREENWICH ST,10013,GLTR,6,Excellent,None,Good,None,Manhattan,-74.010119,40.720648,10013,39,2002,31568,HONEYLOCUST,GLEDITSIA TRIACANTHOS,"(40.720648, -74.010119)"
737,390 GREENWICH ST,10013,GLTR,7,Excellent,None,Good,None,Manhattan,-74.010119,40.720648,10013,39,2002,31568,HONEYLOCUST,GLEDITSIA TRIACANTHOS,"(40.720648, -74.010119)"
738,12 SPRING ST,10013,UNKNOWN,9,Good,None,Good,None,Manhattan,-73.99469,40.721304,10012,41,1000,275212,UNKNOWN LIVE TREES,UNKNOWN LIVE TREES ,"(40.721304, -73.99469)"
739,390 GREENWICH ST,10013,GLTR,7,Excellent,None,Good,None,Manhattan,-74.010119,40.720648,10013,39,2002,31568,HONEYLOCUST,GLEDITSIA TRIACANTHOS,"(40.720648, -74.010119)"
740,390 GREENWICH ST,10013,GLTR,7,Excellent,None,Good,None,Manhattan,-74.010119,40.720648,10013,39,2002,31568,HONEYLOCUST,GLEDITSIA TRIACANTHOS,"(40.720648, -74.010119)"
741,390 GREENWICH ST,10013,GLTR,6,Excellent,None,Good,None,Manhattan,-74.010119,40.720648,10013,39,2002,31568,HONEYLOCUST,GLEDITSIA TRIACANTHOS,"(40.720648, -74.010119)"
742,390 GREENWICH ST,10013,GLTR,8,Excellent,None,Good,None,Manhattan,-74.010119,40.720648,10013,39,2002,31568,HONEYLOCUST,GLEDITSIA TRIACANTHOS,"(40.720648, -74.010119)"
743,390 GREENWICH ST,10013,GLTR,6,Excellent,None,Good,None,Manhattan,-74.010119,40.720648,10013,39,2002,31568,HONEYLOCUST,GLEDITSIA TRIACANTHOS,"(40.720648, -74.010119)"
744,390 GREENWICH ST,10013,GLTR,7,Excellent,None,Good,None,Manhattan,-74.010119,40.720648,10013,39,2002,31568,HONEYLOCUST,GLEDITSIA TRIACANTHOS,"(40.720648, -74.010119)"
745,390 GREENWICH ST,10013,GLTR,6,Excellent,None,Good,None,Manhattan,-74.010119,40.720648,10013,39,2002,31568,HONEYLOCUST,GLEDITSIA TRIACANTHOS,"(40.720648, -74.010119)"
746,390 GREENWICH ST,10013,GLTR,6,Excellent,None,Good,None,Manhattan,-74.010119,40.720648,10013,39,2002,31568,HONEYLOCUST,GLEDITSIA TRIACANTHOS,"(40.720648, -74.010119)"
747,390 GREENWICH ST,10013,GLTR,6,Excellent,None,Good,None,Manhattan,-74.010119,40.720648,10013,39,2002,31568,HONEYLOCUST,GLEDITSIA TRIACANTHOS,"(40.720648, -74.010119)"
748,390 GREENWICH ST,10013,GLTR,7,Excellent,None,Good,None,Manhattan,-74.010119,40.720648,10013,39,2002,31568,HONEYLOCUST,GLEDITSIA TRIACANTHOS,"(40.720648, -74.010119)"
749,390 GREENWICH ST,10013,GLTR,5,Excellent,None,Good,None,Manhattan,-74.010119,40.720648,10013,39,2002,31568,HONEYLOCUST,GLEDITSIA TRIACANTHOS,"(40.720648, -74.010119)"
750,390 GREENWICH ST,10013,GLTR,6,Excellent,None,Good,None,Manhattan,-74.010119,40.720648,10013,39,2002,31568,HONEYLOCUST,GLEDITSIA TRIACANTHOS,"(40.720648, -74.010119)"
751,390 GREENWICH ST,10013,GLTR,6,Excellent,None,Good,None,Manhattan,-74.010119,40.720648,10013,39,2002,31568,HONEYLOCUST,GLEDITSIA TRIACANTHOS,"(40.720648, -74.010119)"
752,390 GREENWICH ST,10013,GLTR,7,Excellent,None,Good,None,Manhattan,-74.010119,40.720648,10013,39,2002,31568,HONEYLOCUST,GLEDITSIA TRIACANTHOS,"(40.720648, -74.010119)"
753,50 ASTOR PL,10012,PLAC,4,Good,None,Good,None,Manhattan,-73.990676,40.7299,10003,42,2003,32774,LONDON PLANETREE,PLATANUS ACERIFOLIA,"(40.7299, -73.990676)"
754,50 ASTOR PL,10012,PYCA,3,Poor,None,Good,None,Manhattan,-73.990676,40.7299,10003,42,2003,32774,"PEAR, CALLERY",PYRUS CALLERYANA,"(40.7299, -73.990676)"
755,51 ASTOR PL,10012,PLAC,8,Poor,None,Good,None,Manhattan,-73.990676,40.7299,10003,42,2002,32773,LONDON PLANETREE,PLATANUS ACERIFOLIA,"(40.7299, -73.990676)"
756,51 ASTOR PL,10012,PLAC,10,Poor,None,Good,None,Manhattan,-73.990676,40.7299,10003,42,2002,32773,LONDON PLANETREE,PLATANUS ACERIFOLIA,"(40.7299, -73.990676)"
757,122 ELIZABETH ST,10013,GIBI,6,Good,None,Good,None,Manhattan,-73.99548,40.719322,10013,41,2000,32496,GINKGO,GINKGO BILOBA,"(40.719322, -73.99548)"
758,51 ASTOR PL,10013,PLAC,9,Good,None,Good,None,Manhattan,-73.990676,40.7299,10003,42,2002,32773,LONDON PLANETREE,PLATANUS ACERIFOLIA,"(40.7299, -73.990676)"
759,51 ASTOR PL,10013,PLAC,11,Good,None,Good,None,Manhattan,-73.990676,40.7299,10003,42,2002,32773,LONDON PLANETREE,PLATANUS ACERIFOLIA,"(40.7299, -73.990676)"
760,51 ASTOR PL,10013,PLAC,10,Good,None,Good,None,Manhattan,-73.990676,40.7299,10003,42,2002,32773,LONDON PLANETREE,PLATANUS ACERIFOLIA,"(40.7299, -73.990676)"
761,126 ELIZABETH ST,10013,GIBI,5,Good,None,Good,None,Manhattan,-73.995419,40.719474,10013,41,2000,32496,GINKGO,GINKGO BILOBA,"(40.719474, -73.995419)"
762,125 ELIZABETH ST,10013,COMA,6,Good,None,Good,None,Manhattan,-73.995431,40.719444,10013,41,3000,32496,"CHERRY, CORNELIAN",CORNUS MAS,"(40.719444, -73.995431)"
763,33 E 9 ST,10013,PYCA,5,Good,None,Good,None,Manhattan,-73.993934,40.732011,10003,59,5000,32624,"PEAR, CALLERY",PYRUS CALLERYANA,"(40.732011, -73.993934)"
764,33 E 9 ST,10013,PYCA,4,Good,None,Good,None,Manhattan,-73.993934,40.732011,10003,59,5000,32624,"PEAR, CALLERY",PYRUS CALLERYANA,"(40.732011, -73.993934)"
765,144 2 AV,10006,TICO,11,Good,None,Good,None,Manhattan,-73.987245,40.729183,10003,38,7000,32911,"LINDEN, LITTLE LEAF",TILIA CORDATA,"(40.729183, -73.987245)"
766,209 MULBERRY ST,10006,GIBI,4,Good,None,Good,None,Manhattan,-73.996311,40.721845,10012,41,6001,32517,GINKGO,GINKGO BILOBA,"(40.721845, -73.996311)"
767,306 E 9 ST,10006,TICO,11,Excellent,None,Good,None,Manhattan,-73.987063,40.729118,10003,38,7000,32914,"LINDEN, LITTLE LEAF",TILIA CORDATA,"(40.729118, -73.987063)"
768,209 MULBERRY ST,10006,GIBI,3,Good,None,Good,None,Manhattan,-73.996311,40.721845,10012,41,6001,32517,GINKGO,GINKGO BILOBA,"(40.721845, -73.996311)"
769,310 E 9 ST,10006,PYCA,10,Good,None,Good,None,Manhattan,-73.986969,40.729078,10003,38,7000,32914,"PEAR, CALLERY",PYRUS CALLERYANA,"(40.729078, -73.986969)"
770,318 E 9 ST,10006,PLAC,7,Good,None,Good,None,Manhattan,-73.986781,40.728999,10003,38,7000,32914,LONDON PLANETREE,PLATANUS ACERIFOLIA,"(40.728999, -73.986781)"
771,324 E 9 ST,10006,PLAC,8,Good,None,Good,None,Manhattan,-73.986641,40.72894,10003,38,7000,32914,LONDON PLANETREE,PLATANUS ACERIFOLIA,"(40.72894, -73.986641)"
772,334 E 9 ST,10006,PLAC,8,Good,None,Good,None,Manhattan,-73.986408,40.728841,10003,38,7000,32914,LONDON PLANETREE,PLATANUS ACERIFOLIA,"(40.728841, -73.986408)"
773,344 E 9 ST,10006,TICO,9,Good,None,Good,None,Manhattan,-73.986174,40.728743,10003,38,7000,32914,"LINDEN, LITTLE LEAF",TILIA CORDATA,"(40.728743, -73.986174)"
774,344 E 9 ST,10006,AIAL,8,Good,None,Good,None,Manhattan,-73.986174,40.728743,10003,38,7000,32914,TREE OF HEAVEN,AILANTHUS ALTISSIMA,"(40.728743, -73.986174)"
775,21 SPRING ST,10006,SOJA,9,Good,None,Good,None,Manhattan,-73.995137,40.721486,10012,43,2001,32528,JAPANESE PAGODA TREE,SOPHORA JAPONICA,"(40.721486, -73.995137)"
776,350 E 9 ST,10006,TICO,10,Good,None,Good,None,Manhattan,-73.986034,40.728684,10003,38,7000,32914,"LINDEN, LITTLE LEAF",TILIA CORDATA,"(40.728684, -73.986034)"
777,352 E 9 ST,10006,PS,0,Planting Space,None,Good,None,Manhattan,-73.985986,40.728663,10003,38,7000,32914,PLANTING SITE,PLANTING SITE,"(40.728663, -73.985986)"
778,21 SPRING ST,10006,SOJA,9,Good,None,Good,None,Manhattan,-73.995137,40.721486,10012,43,2001,32528,JAPANESE PAGODA TREE,SOPHORA JAPONICA,"(40.721486, -73.995137)"
779,21 SPRING ST,10006,SOJA,9,Good,None,Good,None,Manhattan,-73.995137,40.721486,10012,43,2001,32528,JAPANESE PAGODA TREE,SOPHORA JAPONICA,"(40.721486, -73.995137)"
780,21 SPRING ST,10006,SOJA,9,Good,None,Good,None,Manhattan,-73.995137,40.721486,10012,43,2001,32528,JAPANESE PAGODA TREE,SOPHORA JAPONICA,"(40.721486, -73.995137)"
781,341 E 9 ST,10006,TICO,6,Good,None,Good,None,Manhattan,-73.986268,40.728782,10003,40,4000,32914,"LINDEN, LITTLE LEAF",TILIA CORDATA,"(40.728782, -73.986268)"
782,337 E 9 ST,10006,PS,0,Planting Space,None,Good,None,Manhattan,-73.986362,40.728822,10003,40,4000,32914,PLANTING SITE,PLANTING SITE,"(40.728822, -73.986362)"
783,335 E 9 ST,10006,QUPA,2,Good,None,Good,None,Manhattan,-73.986408,40.728841,10003,40,4000,32914,"OAK, PIN",QUERCUS PALUSTRIS,"(40.728841, -73.986408)"
784,21 SPRING ST,10006,SOJA,10,Good,None,Good,None,Manhattan,-73.995137,40.721486,10012,43,2001,32528,JAPANESE PAGODA TREE,SOPHORA JAPONICA,"(40.721486, -73.995137)"
785,333 E 9 ST,0,COMA,4,Good,None,Good,None,Manhattan,-73.986453,40.728861,10003,40,4000,32914,"CHERRY, CORNELIAN",CORNUS MAS,"(40.728861, -73.986453)"
786,325 E 9 ST,10006,PLAC,12,Good,None,Good,None,Manhattan,-73.986641,40.72894,10003,40,4000,32914,LONDON PLANETREE,PLATANUS ACERIFOLIA,"(40.72894, -73.986641)"
787,323 E 9 ST,0,PLAC,13,Good,None,Good,None,Manhattan,-73.986689,40.72896,10003,40,4000,32914,LONDON PLANETREE,PLATANUS ACERIFOLIA,"(40.72896, -73.986689)"
788,321 E 9 ST,0,PLAC,12,Poor,None,Good,None,Manhattan,-73.986735,40.728979,10003,40,4000,32914,LONDON PLANETREE,PLATANUS ACERIFOLIA,"(40.728979, -73.986735)"
789,319 E 9 ST,0,PLAC,2,Good,None,Good,None,Manhattan,-73.986781,40.728999,10003,40,4000,32914,LONDON PLANETREE,PLATANUS ACERIFOLIA,"(40.728999, -73.986781)"
790,317 E 9 ST,0,PLAC,13,Good,None,Good,None,Manhattan,-73.986829,40.729019,10003,40,4000,32914,LONDON PLANETREE,PLATANUS ACERIFOLIA,"(40.729019, -73.986829)"
791,315 E 9 ST,10012,PLAC,15,Good,None,Good,None,Manhattan,-73.986875,40.729038,10003,40,4000,32914,LONDON PLANETREE,PLATANUS ACERIFOLIA,"(40.729038, -73.986875)"
792,311 E 9 ST,0,PLAC,12,Good,None,Good,None,Manhattan,-73.986969,40.729078,10003,40,4000,32914,LONDON PLANETREE,PLATANUS ACERIFOLIA,"(40.729078, -73.986969)"
793,305 E 9 ST,10012,TICO,8,Good,None,Good,None,Manhattan,-73.987109,40.729137,10003,40,4000,32914,"LINDEN, LITTLE LEAF",TILIA CORDATA,"(40.729137, -73.987109)"
794,105 E 9 ST,10012,GLTR,4,Good,None,Good,None,Manhattan,-73.990002,40.730406,10003,42,2001,32776,HONEYLOCUST,GLEDITSIA TRIACANTHOS,"(40.730406, -73.990002)"
795,52 SPRING ST,10012,GIBI,5,Good,None,Good,None,Manhattan,-73.996513,40.722064,10012,41,6001,32518,GINKGO,GINKGO BILOBA,"(40.722064, -73.996513)"
796,35 SPRING ST,10014,TICO,12,Good,None,Good,None,Manhattan,-73.995737,40.721732,10012,43,3006,32524,"LINDEN, LITTLE LEAF",TILIA CORDATA,"(40.721732, -73.995737)"
797,105 E 9 ST,10014,GLTR,3,Good,None,Good,None,Manhattan,-73.990002,40.730406,10003,42,2001,32776,HONEYLOCUST,GLEDITSIA TRIACANTHOS,"(40.730406, -73.990002)"
798,31 SPRING ST,10014,TICO,8,Unknown,None,Good,None,Manhattan,-73.995564,40.72166,10012,43,3006,32524,"LINDEN, LITTLE LEAF",TILIA CORDATA,"(40.72166, -73.995564)"
799,107 E 9 ST,10012,GLTR,4,Good,None,Good,None,Manhattan,-73.989987,40.730398,10003,42,2001,32776,HONEYLOCUST,GLEDITSIA TRIACANTHOS,"(40.730398, -73.989987)"
800,115 E 9 ST,10012,PLAC,7,Good,None,Good,None,Manhattan,-73.989944,40.730376,10003,42,2001,32918,LONDON PLANETREE,PLATANUS ACERIFOLIA,"(40.730376, -73.989944)"
801,115 E 9 ST,10013,GLTR,5,Good,None,Good,None,Manhattan,-73.989944,40.730376,10003,42,2001,32918,HONEYLOCUST,GLEDITSIA TRIACANTHOS,"(40.730376, -73.989944)"
802,115 E 9 ST,10012,GLTR,9,Good,None,Good,None,Manhattan,-73.989944,40.730376,10003,42,2001,32918,HONEYLOCUST,GLEDITSIA TRIACANTHOS,"(40.730376, -73.989944)"
803,115 E 9 ST,10013,GLTR,9,Good,None,Good,None,Manhattan,-73.989944,40.730376,10003,42,2001,32918,HONEYLOCUST,GLEDITSIA TRIACANTHOS,"(40.730376, -73.989944)"
804,115 E 9 ST,10013,ACPL,4,Good,None,Good,None,Manhattan,-73.989944,40.730376,10003,42,2001,32918,"MAPLE, NORWAY",ACER PLATANOIDES,"(40.730376, -73.989944)"
805,105 E 9 ST,10013,PYCA,4,Good,None,Good,None,Manhattan,-73.990002,40.730406,10003,42,2001,32776,"PEAR, CALLERY",PYRUS CALLERYANA,"(40.730406, -73.990002)"
806,105 E 9 ST,10012,PYCA,0,Good,None,Good,None,Manhattan,-73.990002,40.730406,10003,42,2001,32776,"PEAR, CALLERY",PYRUS CALLERYANA,"(40.730406, -73.990002)"
807,36 STUYVESANT ST,10013,PYCA,5,Good,None,Good,None,Manhattan,-73.988209,40.729919,10003,40,3001,164376,"PEAR, CALLERY",PYRUS CALLERYANA,"(40.729919, -73.988209)"
808,40 STUYVESANT ST,10013,PYCA,8,Good,None,Good,None,Manhattan,-73.988014,40.729923,10003,40,3001,164376,"PEAR, CALLERY",PYRUS CALLERYANA,"(40.729923, -73.988014)"
809,40 STUYVESANT ST,10013,GIBI,6,Good,None,Good,None,Manhattan,-73.988014,40.729923,10003,40,3001,164376,GINKGO,GINKGO BILOBA,"(40.729923, -73.988014)"
810,40 STUYVESANT ST,10013,GLTR,3,Good,None,Good,None,Manhattan,-73.988014,40.729923,10003,40,3001,164376,HONEYLOCUST,GLEDITSIA TRIACANTHOS,"(40.729923, -73.988014)"
811,42 STUYVESANT ST,10013,PYCA,9,Good,None,Good,None,Manhattan,-73.987917,40.729925,10003,40,3001,164376,"PEAR, CALLERY",PYRUS CALLERYANA,"(40.729925, -73.987917)"
812,46 STUYVESANT ST,10013,ACPL,10,Good,None,Good,None,Manhattan,-73.987722,40.729929,10003,40,3001,164376,"MAPLE, NORWAY",ACER PLATANOIDES,"(40.729929, -73.987722)"
813,35 STUYVESANT ST,10013,QUPA,19,Good,None,Good,None,Manhattan,-73.987868,40.729926,10003,40,3002,164376,"OAK, PIN",QUERCUS PALUSTRIS,"(40.729926, -73.987868)"
814,35 STUYVESANT ST,10013,COMA,4,Good,None,Good,None,Manhattan,-73.987868,40.729926,10003,40,3002,164376,"CHERRY, CORNELIAN",CORNUS MAS,"(40.729926, -73.987868)"
815,35 STUYVESANT ST,10013,TICO,5,Good,None,Good,None,Manhattan,-73.987868,40.729926,10003,40,3002,164376,"LINDEN, LITTLE LEAF",TILIA CORDATA,"(40.729926, -73.987868)"
816,33 STUYVESANT ST,10013,AIAL,16,Good,None,Good,None,Manhattan,-73.987952,40.729924,10003,40,3002,164376,TREE OF HEAVEN,AILANTHUS ALTISSIMA,"(40.729924, -73.987952)"
817,31 STUYVESANT ST,10013,ACPL,6,Good,None,Good,None,Manhattan,-73.988038,40.729922,10003,40,3002,164376,"MAPLE, NORWAY",ACER PLATANOIDES,"(40.729922, -73.988038)"
818,27 STUYVESANT ST,10012,ACPL,8,Good,None,Good,None,Manhattan,-73.988209,40.729919,10003,40,3002,164376,"MAPLE, NORWAY",ACER PLATANOIDES,"(40.729919, -73.988209)"
819,25 STUYVESANT ST,10013,PLAC,13,Good,None,Good,None,Manhattan,-73.988293,40.729917,10003,40,3002,164376,LONDON PLANETREE,PLATANUS ACERIFOLIA,"(40.729917, -73.988293)"
820,21 STUYVESANT ST,10013,PLAC,16,Good,None,Good,None,Manhattan,-73.988464,40.729914,10003,40,3002,164376,LONDON PLANETREE,PLATANUS ACERIFOLIA,"(40.729914, -73.988464)"
821,21 STUYVESANT ST,10013,ACPL,9,Good,None,Good,None,Manhattan,-73.988464,40.729914,10003,40,3002,164376,"MAPLE, NORWAY",ACER PLATANOIDES,"(40.729914, -73.988464)"
822,19 STUYVESANT ST,10013,COMA,3,Poor,None,Good,None,Manhattan,-73.98855,40.729912,10003,40,3002,164375,"CHERRY, CORNELIAN",CORNUS MAS,"(40.729912, -73.98855)"
823,17 STUYVESANT ST,10013,ACPL,11,Good,None,Good,None,Manhattan,-73.988635,40.729911,10003,40,3002,164375,"MAPLE, NORWAY",ACER PLATANOIDES,"(40.729911, -73.988635)"
824,354 BOWERY,10013,PLAC,18,Good,None,Good,None,Manhattan,-73.991699,40.726656,10012,5502,1000,275286,LONDON PLANETREE,PLATANUS ACERIFOLIA,"(40.726656, -73.991699)"
825,350 BOWERY,10013,SOJA,6,Excellent,None,Good,None,Manhattan,-73.991759,40.726487,10012,5502,1000,275286,JAPANESE PAGODA TREE,SOPHORA JAPONICA,"(40.726487, -73.991759)"
826,342 BOWERY,10013,PLAC,14,Good,None,Good,None,Manhattan,-73.991862,40.726199,10012,5502,1001,32728,LONDON PLANETREE,PLATANUS ACERIFOLIA,"(40.726199, -73.991862)"
827,340 BOWERY,10013,PLAC,3,Good,None,Good,None,Manhattan,-73.991895,40.726109,10012,5502,1001,32728,LONDON PLANETREE,PLATANUS ACERIFOLIA,"(40.726109, -73.991895)"
828,334 BOWERY,10013,PLAC,4,Good,None,Good,None,Manhattan,-73.991993,40.725836,10012,5502,1001,32728,LONDON PLANETREE,PLATANUS ACERIFOLIA,"(40.725836, -73.991993)"
829,322 BOWERY,10013,PLAC,14,Good,None,Good,None,Manhattan,-73.992207,40.72539,10012,5502,1002,32726,LONDON PLANETREE,PLATANUS ACERIFOLIA,"(40.72539, -73.992207)"
830,45 3 AV,10013,PYCA,6,Good,None,Good,None,Manhattan,-73.989059,40.730715,10003,40,3002,32921,"PEAR, CALLERY",PYRUS CALLERYANA,"(40.730715, -73.989059)"
831,102 E 10 ST,10013,GIBI,8,Good,None,Good,None,Manhattan,-73.988946,40.730669,10003,40,3002,32924,GINKGO,GINKGO BILOBA,"(40.730669, -73.988946)"
832,312-014 BOWERY,10013,PLAC,10,Good,None,Good,None,Manhattan,1,1,10012,5502,2010,32722,LONDON PLANETREE,PLATANUS ACERIFOLIA,"(1.0, 1.0)"
833,106 E 10 ST,10003,GIBI,10,Good,None,Good,None,Manhattan,-73.988779,40.730583,10003,40,3002,32924,GINKGO,GINKGO BILOBA,"(40.730583, -73.988779)"
834,110 E 10 ST,10003,GIBI,10,Poor,None,Good,None,Manhattan,-73.988612,40.730498,10003,40,3002,32924,GINKGO,GINKGO BILOBA,"(40.730498, -73.988612)"
835,112 E 10 ST,10003,PYCA,7,Good,None,Good,None,Manhattan,-73.98853,40.730456,10003,40,3002,32924,"PEAR, CALLERY",PYRUS CALLERYANA,"(40.730456, -73.98853)"
836,114 E 10 ST,10003,QUPA,17,Good,None,Good,None,Manhattan,-73.988446,40.730413,10003,40,3002,32924,"OAK, PIN",QUERCUS PALUSTRIS,"(40.730413, -73.988446)"
837,308 BOWERY,10013,PLAC,16,Good,None,Good,None,Manhattan,-73.992336,40.724981,10012,5502,2010,164321,LONDON PLANETREE,PLATANUS ACERIFOLIA,"(40.724981, -73.992336)"
838,118 E 10 ST,10003,PYCA,3,Good,None,Good,None,Manhattan,-73.988279,40.730328,10003,40,3002,32924,"PEAR, CALLERY",PYRUS CALLERYANA,"(40.730328, -73.988279)"
839,122 E 10 ST,10003,GIBI,11,Good,None,Good,None,Manhattan,-73.988112,40.730243,10003,40,3002,32924,GINKGO,GINKGO BILOBA,"(40.730243, -73.988112)"
840,124 E 10 ST,10003,GIBI,14,Good,None,Good,None,Manhattan,-73.988028,40.7302,10003,40,3002,32924,GINKGO,GINKGO BILOBA,"(40.7302, -73.988028)"
841,144 2 AV,10013,TICO,11,Good,None,Good,None,Manhattan,-73.987245,40.729183,10003,38,7000,32911,"LINDEN, LITTLE LEAF",TILIA CORDATA,"(40.729183, -73.987245)"
842,128 E 10 ST,10013,PLAC,10,Good,None,Good,None,Manhattan,-73.987862,40.730115,10003,40,3002,32924,LONDON PLANETREE,PLATANUS ACERIFOLIA,"(40.730115, -73.987862)"
843,128 E 10 ST,10003,QUPA,14,Good,None,Good,None,Manhattan,-73.987862,40.730115,10003,40,3002,32924,"OAK, PIN",QUERCUS PALUSTRIS,"(40.730115, -73.987862)"
844,159 2 AV,10003,ZESE,7,Good,None,Good,None,Manhattan,-73.986871,40.729699,10003,40,3001,32913,"ZELKOVA, JAPANESE",ZELKOVA SERRATA,"(40.729699, -73.986871)"
845,159 2 AV,10003,PYCA,5,Good,None,Good,None,Manhattan,-73.986871,40.729699,10003,40,3001,32913,"PEAR, CALLERY",PYRUS CALLERYANA,"(40.729699, -73.986871)"
846,159 2 AV,10012,PYCA,3,Good,None,Good,Stakes / Wires,Manhattan,-73.986871,40.729699,10003,40,3001,32913,"PEAR, CALLERY",PYRUS CALLERYANA,"(40.729699, -73.986871)"
847,159 2 AV,10003,QUPA,17,Good,None,Good,None,Manhattan,-73.986871,40.729699,10003,40,3001,32913,"OAK, PIN",QUERCUS PALUSTRIS,"(40.729699, -73.986871)"
848,159 2 AV,10012,GLTR,2,Good,None,Good,None,Manhattan,-73.986871,40.729699,10003,40,3001,32913,HONEYLOCUST,GLEDITSIA TRIACANTHOS,"(40.729699, -73.986871)"
849,159 2 AV,10003,QUPA,19,Good,None,Good,None,Manhattan,-73.986871,40.729699,10003,40,3001,32913,"OAK, PIN",QUERCUS PALUSTRIS,"(40.729699, -73.986871)"
850,159 2 AV,10003,ACPL,6,Good,None,Good,None,Manhattan,-73.986871,40.729699,10003,40,3001,32913,"MAPLE, NORWAY",ACER PLATANOIDES,"(40.729699, -73.986871)"
851,304 BOWERY,10003,PLAC,16,Good,None,Good,None,Manhattan,-73.992374,40.724859,10012,5502,2010,164321,LONDON PLANETREE,PLATANUS ACERIFOLIA,"(40.724859, -73.992374)"
852,300 BOWERY,10003,PYCA,8,Excellent,None,Good,None,Manhattan,-73.992441,40.72465,10012,5502,2010,164321,"PEAR, CALLERY",PYRUS CALLERYANA,"(40.72465, -73.992441)"
853,46 STUYVESANT ST,10003,QUPA,12,Good,None,Good,None,Manhattan,-73.987722,40.729929,10003,40,3001,164376,"OAK, PIN",QUERCUS PALUSTRIS,"(40.729929, -73.987722)"
854,294 BOWERY,10003,PLAC,15,Good,None,Good,None,Manhattan,-73.992541,40.724336,10012,5502,2010,164321,LONDON PLANETREE,PLATANUS ACERIFOLIA,"(40.724336, -73.992541)"
855,46 STUYVESANT ST,10012,QUPA,12,Good,None,Good,None,Manhattan,-73.987722,40.729929,10003,40,3001,164376,"OAK, PIN",QUERCUS PALUSTRIS,"(40.729929, -73.987722)"
856,129 E 10 ST,10003,QUPA,18,Good,None,Good,None,Manhattan,-73.9886,40.730492,10003,40,3000,32924,"OAK, PIN",QUERCUS PALUSTRIS,"(40.730492, -73.9886)"
857,129 E 10 ST,10003,GIBI,11,Good,None,Good,None,Manhattan,-73.9886,40.730492,10003,40,3000,32924,GINKGO,GINKGO BILOBA,"(40.730492, -73.9886)"
858,123 E 10 ST,10012,GIBI,11,Excellent,None,Good,None,Manhattan,-73.988693,40.73054,10003,40,3000,32924,GINKGO,GINKGO BILOBA,"(40.73054, -73.988693)"
859,121 E 10 ST,10012,GIBI,9,Good,None,Good,None,Manhattan,-73.988723,40.730555,10003,40,3000,32924,GINKGO,GINKGO BILOBA,"(40.730555, -73.988723)"
860,119 E 10 ST,10012,PYCA,15,Good,None,Good,None,Manhattan,-73.988754,40.73057,10003,40,3000,32924,"PEAR, CALLERY",PYRUS CALLERYANA,"(40.73057, -73.988754)"
861,117 E 10 ST,10003,TICO,6,Good,None,Good,None,Manhattan,-73.988785,40.730587,10003,40,3000,32924,"LINDEN, LITTLE LEAF",TILIA CORDATA,"(40.730587, -73.988785)"
862,115 E 10 ST,10003,GIBI,9,Good,None,Good,None,Manhattan,-73.988815,40.730602,10003,40,3000,32924,GINKGO,GINKGO BILOBA,"(40.730602, -73.988815)"
863,113 E 10 ST,10003,PYCA,9,Good,None,Good,None,Manhattan,-73.988847,40.730618,10003,40,3000,32924,"PEAR, CALLERY",PYRUS CALLERYANA,"(40.730618, -73.988847)"
864,111 E 10 ST,10012,PYCA,11,Good,None,Good,None,Manhattan,-73.988877,40.730633,10003,40,3000,32924,"PEAR, CALLERY",PYRUS CALLERYANA,"(40.730633, -73.988877)"
865,109 E 10 ST,10003,PLAC,10,Good,None,Good,None,Manhattan,-73.988907,40.730649,10003,40,3000,32924,LONDON PLANETREE,PLATANUS ACERIFOLIA,"(40.730649, -73.988907)"
866,103 E 10 ST,10003,PYCA,4,Good,None,Good,None,Manhattan,-73.989,40.730696,10003,40,3000,32924,"PEAR, CALLERY",PYRUS CALLERYANA,"(40.730696, -73.989)"
867,47 3 AV,10003,QUPA,8,Good,None,Good,None,Manhattan,-73.989046,40.730732,10003,40,3000,32923,"OAK, PIN",QUERCUS PALUSTRIS,"(40.730732, -73.989046)"
868,47 3 AV,10003,PYCA,14,Good,None,Good,None,Manhattan,-73.989046,40.730732,10003,40,3000,32923,"PEAR, CALLERY",PYRUS CALLERYANA,"(40.730732, -73.989046)"
869,204 E 10 ST,10003,GIBI,6,Good,None,Good,None,Manhattan,-73.986248,40.72954,10003,40,4000,32937,GINKGO,GINKGO BILOBA,"(40.72954, -73.986248)"
870,212 E 10 ST,10003,COMA,3,Good,None,Good,None,Manhattan,-73.985895,40.729391,10003,40,4000,32937,"CHERRY, CORNELIAN",CORNUS MAS,"(40.729391, -73.985895)"
871,214 E 10 ST,10003,COMA,3,Good,None,Good,None,Manhattan,-73.985807,40.729354,10003,40,4000,32937,"CHERRY, CORNELIAN",CORNUS MAS,"(40.729354, -73.985807)"
872,216 E 10 ST,10003,COMA,3,Good,None,Good,None,Manhattan,-73.985718,40.729316,10003,40,4000,32937,"CHERRY, CORNELIAN",CORNUS MAS,"(40.729316, -73.985718)"
873,220 E 10 ST,10003,GLTR,5,Good,None,Good,None,Manhattan,-73.985544,40.729242,10003,40,4000,32937,HONEYLOCUST,GLEDITSIA TRIACANTHOS,"(40.729242, -73.985544)"
874,220 E 10 ST,10003,GLTR,4,Good,None,Good,None,Manhattan,-73.985544,40.729242,10003,40,4000,32937,HONEYLOCUST,GLEDITSIA TRIACANTHOS,"(40.729242, -73.985544)"
875,222 E 10 ST,10012,GLTR,4,Good,None,Good,None,Manhattan,-73.985454,40.729205,10003,40,4000,32937,HONEYLOCUST,GLEDITSIA TRIACANTHOS,"(40.729205, -73.985454)"
876,228 E 10 ST,10012,GIBI,4,Good,None,Good,None,Manhattan,-73.985191,40.729093,10003,40,4000,32937,GINKGO,GINKGO BILOBA,"(40.729093, -73.985191)"
877,233 E 10 ST,10003,GIBI,6,Good,None,Good,Stakes / Wires,Manhattan,-73.98503,40.729025,10003,40,5001,32937,GINKGO,GINKGO BILOBA,"(40.729025, -73.98503)"
2913,13-015 CLINTON ST,0,PYCA,7,Good,None,Good,None,Manhattan,1,1,10002,3001,3000,164445,"PEAR, CALLERY",PYRUS CALLERYANA,"(1.0, 1.0)"
878,233 E 10 ST,10012,COMA,3,Good,None,Good,None,Manhattan,-73.98503,40.729025,10003,40,5001,32937,"CHERRY, CORNELIAN",CORNUS MAS,"(40.729025, -73.98503)"
879,235 E 10 ST,10003,PS,0,Planting Space,None,Good,None,Manhattan,-73.98492,40.728979,10003,40,5001,32937,PLANTING SITE,PLANTING SITE,"(40.728979, -73.98492)"
880,240 E 10 ST,10003,PS,0,Planting Space,None,Good,None,Manhattan,-73.984661,40.728869,10003,40,4000,32937,PLANTING SITE,PLANTING SITE,"(40.728869, -73.984661)"
881,235 E 10 ST,10003,PYCA,12,Good,None,Good,None,Manhattan,-73.98492,40.728979,10003,40,5001,32937,"PEAR, CALLERY",PYRUS CALLERYANA,"(40.728979, -73.98492)"
882,231 E 10 ST,10003,GLTR,4,Good,None,Good,None,Manhattan,-73.98514,40.729072,10003,40,5001,32937,HONEYLOCUST,GLEDITSIA TRIACANTHOS,"(40.729072, -73.98514)"
883,229 E 10 ST,10003,COMA,4,Good,None,Good,None,Manhattan,-73.985248,40.729117,10003,40,5001,32937,"CHERRY, CORNELIAN",CORNUS MAS,"(40.729117, -73.985248)"
884,225 E 10 ST,10003,COMA,3,Good,None,Good,None,Manhattan,-73.985468,40.72921,10003,40,5001,32937,"CHERRY, CORNELIAN",CORNUS MAS,"(40.72921, -73.985468)"
885,221 E 10 ST,10003,PLAC,3,Good,None,Good,None,Manhattan,-73.985686,40.729303,10003,40,5001,32937,LONDON PLANETREE,PLATANUS ACERIFOLIA,"(40.729303, -73.985686)"
886,221 E 10 ST,10003,GLTR,10,Good,None,Good,None,Manhattan,-73.985686,40.729303,10003,40,5001,32937,HONEYLOCUST,GLEDITSIA TRIACANTHOS,"(40.729303, -73.985686)"
887,217 E 10 ST,10003,COMA,3,Good,None,Good,None,Manhattan,-73.985904,40.729395,10003,40,5001,32937,"CHERRY, CORNELIAN",CORNUS MAS,"(40.729395, -73.985904)"
888,213 E 10 ST,10003,COMA,3,Good,None,Good,None,Manhattan,-73.986122,40.729487,10003,40,5001,32937,"CHERRY, CORNELIAN",CORNUS MAS,"(40.729487, -73.986122)"
889,211 E 10 ST,10003,AIAL,6,Good,None,Good,None,Manhattan,-73.986232,40.729533,10003,40,5001,32937,TREE OF HEAVEN,AILANTHUS ALTISSIMA,"(40.729533, -73.986232)"
890,209 E 10 ST,10003,COMA,3,Good,None,Good,None,Manhattan,-73.986342,40.72958,10003,40,5001,32937,"CHERRY, CORNELIAN",CORNUS MAS,"(40.72958, -73.986342)"
891,205 E 10 ST,10003,GLTR,10,Excellent,None,Good,None,Manhattan,-73.986559,40.729672,10003,40,5001,32937,HONEYLOCUST,GLEDITSIA TRIACANTHOS,"(40.729672, -73.986559)"
892,162 2 AV,10003,QUPA,17,Unknown,None,Good,None,Manhattan,-73.9867,40.730032,10003,40,5001,110579,"OAK, PIN",QUERCUS PALUSTRIS,"(40.730032, -73.9867)"
893,162 2 AV,10003,QUPA,13,Unknown,None,Good,None,Manhattan,-73.9867,40.730032,10003,40,5001,110579,"OAK, PIN",QUERCUS PALUSTRIS,"(40.730032, -73.9867)"
894,166 2 AV,10003,COMA,5,Unknown,None,Good,None,Manhattan,-73.986573,40.730169,10003,40,5001,110579,"CHERRY, CORNELIAN",CORNUS MAS,"(40.730169, -73.986573)"
895,170 2 AV,10003,COMA,5,Unknown,None,Good,None,Manhattan,-73.986445,40.730305,10003,40,5001,110579,"CHERRY, CORNELIAN",CORNUS MAS,"(40.730305, -73.986445)"
896,170 2 AV,10003,GLTR,5,Unknown,None,Good,None,Manhattan,-73.986445,40.730305,10003,40,5001,110579,HONEYLOCUST,GLEDITSIA TRIACANTHOS,"(40.730305, -73.986445)"
897,168 2 AV,10003,PYCA,8,Unknown,None,Good,None,Manhattan,-73.986509,40.730237,10003,40,5001,110579,"PEAR, CALLERY",PYRUS CALLERYANA,"(40.730237, -73.986509)"
898,166 2 AV,10003,COMA,10,Unknown,None,Good,None,Manhattan,-73.986573,40.730169,10003,40,5001,110579,"CHERRY, CORNELIAN",CORNUS MAS,"(40.730169, -73.986573)"
899,175 2 AV,10003,GIBI,10,Good,None,Good,None,Manhattan,-73.986369,40.73039,10003,40,2000,33113,GINKGO,GINKGO BILOBA,"(40.73039, -73.986369)"
900,175 2 AV,10003,GIBI,9,Good,None,Good,None,Manhattan,-73.986369,40.73039,10003,40,2000,33113,GINKGO,GINKGO BILOBA,"(40.73039, -73.986369)"
901,175 2 AV,10003,GIBI,7,Good,None,Good,None,Manhattan,-73.986369,40.73039,10003,40,2000,33113,GINKGO,GINKGO BILOBA,"(40.73039, -73.986369)"
902,190 2 AV,10003,GLTR,4,Good,None,Good,None,Manhattan,-73.985917,40.73101,10003,40,5000,33113,HONEYLOCUST,GLEDITSIA TRIACANTHOS,"(40.73101, -73.985917)"
903,193 2 AV,10003,GLTR,7,Good,None,Good,None,Manhattan,-73.985903,40.731029,10003,40,1001,33115,HONEYLOCUST,GLEDITSIA TRIACANTHOS,"(40.731029, -73.985903)"
904,199 2 AV,10003,GLTR,6,Good,None,Good,None,Manhattan,-73.985734,40.731262,10003,40,1001,33115,HONEYLOCUST,GLEDITSIA TRIACANTHOS,"(40.731262, -73.985734)"
905,207 2 AV,10003,GLTR,5,Good,None,Good,None,Manhattan,-73.985508,40.731572,10003,40,1001,33115,HONEYLOCUST,GLEDITSIA TRIACANTHOS,"(40.731572, -73.985508)"
906,200 2 AV,10003,COMA,6,Good,None,Good,None,Manhattan,-73.985739,40.731255,10003,40,6001,33115,"CHERRY, CORNELIAN",CORNUS MAS,"(40.731255, -73.985739)"
907,200 2 AV,10003,COMA,3,Good,None,Good,None,Manhattan,-73.985739,40.731255,10003,40,6001,33115,"CHERRY, CORNELIAN",CORNUS MAS,"(40.731255, -73.985739)"
908,219 2 AV,10003,PLAC,2,Good,None,Good,Stakes / Wires,Manhattan,-73.985192,40.732003,10003,40,1000,33118,LONDON PLANETREE,PLATANUS ACERIFOLIA,"(40.732003, -73.985192)"
909,310 E 14 ST,10003,PYCA,5,Poor,None,Good,None,Manhattan,-73.984668,40.732236,10003,40,6000,33129,"PEAR, CALLERY",PYRUS CALLERYANA,"(40.732236, -73.984668)"
910,138 2 AV,10003,GLTR,11,Unknown,None,Good,None,Manhattan,-73.987455,40.728894,10003,38,7000,32911,HONEYLOCUST,GLEDITSIA TRIACANTHOS,"(40.728894, -73.987455)"
911,132 2 AV,10003,GLTR,10,Unknown,None,Good,None,Manhattan,-73.987665,40.728605,10003,38,7000,32911,HONEYLOCUST,GLEDITSIA TRIACANTHOS,"(40.728605, -73.987665)"
912,156 2 AV,0,COMA,5,Unknown,None,Good,None,Manhattan,-73.986819,40.72977,10003,40,4000,32913,"CHERRY, CORNELIAN",CORNUS MAS,"(40.72977, -73.986819)"
913,154 2 AV,10003,COMA,13,Unknown,None,Good,None,Manhattan,-73.986902,40.729656,10003,40,4000,32913,"CHERRY, CORNELIAN",CORNUS MAS,"(40.729656, -73.986902)"
914,150 2 AV,10003,GLTR,6,Unknown,None,Good,None,Manhattan,-73.987067,40.729428,10003,40,4000,32913,HONEYLOCUST,GLEDITSIA TRIACANTHOS,"(40.729428, -73.987067)"
915,148 2 AV,10003,GIBI,7,Unknown,None,Good,None,Manhattan,-73.987149,40.729314,10003,40,4000,32913,GINKGO,GINKGO BILOBA,"(40.729314, -73.987149)"
916,197 1 AV,10003,FRPE,3,Good,None,Good,None,Manhattan,-73.983537,40.73003,10003,40,6001,33121,"ASH, GREEN",FRAXINUS PENNSYLVANICA,"(40.73003, -73.983537)"
917,207 1 AV,10003,PYCA,4,Good,None,Good,None,Manhattan,-73.983311,40.73034,10003,40,6001,33121,"PEAR, CALLERY",PYRUS CALLERYANA,"(40.73034, -73.983311)"
918,215 1 AV,10003,PYCA,5,Good,None,Good,Stakes / Wires,Manhattan,-73.98313,40.730588,10003,40,6001,33121,"PEAR, CALLERY",PYRUS CALLERYANA,"(40.730588, -73.98313)"
919,206 1 AV,10003,PYCA,4,Good,None,Good,None,Manhattan,-73.983336,40.730305,10009,34,4001,33121,"PEAR, CALLERY",PYRUS CALLERYANA,"(40.730305, -73.983336)"
920,202 1 AV,10003,PYCA,4,Good,None,Good,None,Manhattan,-73.983436,40.730167,10009,34,4001,33121,"PEAR, CALLERY",PYRUS CALLERYANA,"(40.730167, -73.983436)"
921,227 1 AV,10003,FRPE,5,Good,None,Good,None,Manhattan,-73.982848,40.730973,10003,40,6000,33123,"ASH, GREEN",FRAXINUS PENNSYLVANICA,"(40.730973, -73.982848)"
922,231 1 AV,10003,FRPE,5,Good,None,Good,None,Manhattan,-73.982736,40.731125,10003,40,6000,33123,"ASH, GREEN",FRAXINUS PENNSYLVANICA,"(40.731125, -73.982736)"
923,228 1 AV,10003,GLTR,7,Good,None,Good,None,Manhattan,-73.982757,40.731096,10009,34,4000,33123,HONEYLOCUST,GLEDITSIA TRIACANTHOS,"(40.731096, -73.982757)"
924,165 1 AV,10003,QURU,6,Good,None,Good,Stakes / Wires,Manhattan,-73.984382,40.728872,10003,40,5001,33110,"OAK, NORTHERN RED",QUERCUS RUBRA,"(40.728872, -73.984382)"
925,165 1 AV,10003,GLTR,3,Good,None,Good,Stakes / Wires,Manhattan,-73.984382,40.728872,10003,40,5001,33110,HONEYLOCUST,GLEDITSIA TRIACANTHOS,"(40.728872, -73.984382)"
926,178 1 AV,10003,GLTR,11,Good,None,Good,None,Manhattan,-73.984069,40.729299,10009,34,3001,33110,HONEYLOCUST,GLEDITSIA TRIACANTHOS,"(40.729299, -73.984069)"
927,174 1 AV,10003,GLTR,4,Good,None,Good,None,Manhattan,-73.984176,40.729153,10009,34,3001,33110,HONEYLOCUST,GLEDITSIA TRIACANTHOS,"(40.729153, -73.984176)"
928,192 1 AV,10003,PYCA,4,Good,None,Good,None,Manhattan,-73.98368,40.729833,10009,34,3000,33119,"PEAR, CALLERY",PYRUS CALLERYANA,"(40.729833, -73.98368)"
929,135 1 AV,10003,GLTR,4,Dead,None,Good,None,Manhattan,-73.985232,40.727705,10003,38,7000,33106,HONEYLOCUST,GLEDITSIA TRIACANTHOS,"(40.727705, -73.985232)"
930,137 1 AV,10003,QURU,9,Good,None,Good,None,Manhattan,-73.985162,40.727801,10003,38,7000,33106,"OAK, NORTHERN RED",QUERCUS RUBRA,"(40.727801, -73.985162)"
931,141 1 AV,10003,QURU,6,Good,None,Good,None,Manhattan,-73.985022,40.727994,10003,38,7000,33106,"OAK, NORTHERN RED",QUERCUS RUBRA,"(40.727994, -73.985022)"
932,143 1 AV,10003,GLTR,9,Good,None,Good,None,Manhattan,-73.984952,40.72809,10003,38,7000,33106,HONEYLOCUST,GLEDITSIA TRIACANTHOS,"(40.72809, -73.984952)"
933,142 1 AV,10003,GLTR,7,Good,None,Good,None,Manhattan,-73.985062,40.727938,10009,32,1000,33106,HONEYLOCUST,GLEDITSIA TRIACANTHOS,"(40.727938, -73.985062)"
934,140 1 AV,10003,ACPL,3,Poor,None,Good,None,Manhattan,-73.985122,40.727856,10009,32,1000,33106,"MAPLE, NORWAY",ACER PLATANOIDES,"(40.727856, -73.985122)"
935,151 1 AV,10003,TICO,7,Good,None,Good,None,Manhattan,-73.984751,40.728366,10003,40,4000,33108,"LINDEN, LITTLE LEAF",TILIA CORDATA,"(40.728366, -73.984751)"
936,155 1 AV,10003,TICO,7,Poor,None,Good,None,Manhattan,-73.984633,40.728528,10003,40,4000,33108,"LINDEN, LITTLE LEAF",TILIA CORDATA,"(40.728528, -73.984633)"
937,155 1 AV,10003,TICO,8,Poor,None,Good,None,Manhattan,-73.984633,40.728528,10003,40,4000,33108,"LINDEN, LITTLE LEAF",TILIA CORDATA,"(40.728528, -73.984633)"
938,159 1 AV,10003,TICO,4,Good,None,Good,None,Manhattan,-73.984515,40.72869,10003,40,4000,33108,"LINDEN, LITTLE LEAF",TILIA CORDATA,"(40.72869, -73.984515)"
939,160 1 AV,10003,TICO,7,Good,None,Good,None,Manhattan,-73.984525,40.728676,10009,34,3002,33108,"LINDEN, LITTLE LEAF",TILIA CORDATA,"(40.728676, -73.984525)"
940,158 1 AV,10003,TICO,6,Good,None,Good,None,Manhattan,-73.984593,40.728582,10009,34,3002,33108,"LINDEN, LITTLE LEAF",TILIA CORDATA,"(40.728582, -73.984593)"
941,152 1 AV,10003,TICO,11,Good,None,Good,None,Manhattan,-73.9848,40.728298,10009,34,3002,33108,"LINDEN, LITTLE LEAF",TILIA CORDATA,"(40.728298, -73.9848)"
942,106 E 14 ST,10003,PYCA,8,Good,None,Good,Stakes / Wires,Manhattan,-73.989091,40.734111,10003,42,1000,32943,"PEAR, CALLERY",PYRUS CALLERYANA,"(40.734111, -73.989091)"
943,106 E 14 ST,10003,PLAC,3,Poor,None,Good,Stakes / Wires,Manhattan,-73.989091,40.734111,10003,42,1000,32943,LONDON PLANETREE,PLATANUS ACERIFOLIA,"(40.734111, -73.989091)"
944,106 E 14 ST,10003,PLAC,3,Good,None,Good,Stakes / Wires,Manhattan,-73.989091,40.734111,10003,42,1000,32943,LONDON PLANETREE,PLATANUS ACERIFOLIA,"(40.734111, -73.989091)"
945,138 E 14 ST,10003,TICO,9,Good,None,Good,Stakes / Wires,Manhattan,-73.988339,40.73378,10003,42,1000,32947,"LINDEN, LITTLE LEAF",TILIA CORDATA,"(40.73378, -73.988339)"
946,140 E 14 ST,10003,TICO,8,Good,None,Good,Stakes / Wires,Manhattan,-73.9883,40.733764,10003,42,1000,32947,"LINDEN, LITTLE LEAF",TILIA CORDATA,"(40.733764, -73.9883)"
947,140 E 14 ST,10003,TICO,8,Good,None,Good,Stakes / Wires,Manhattan,-73.9883,40.733764,10003,42,1000,32947,"LINDEN, LITTLE LEAF",TILIA CORDATA,"(40.733764, -73.9883)"
948,145 E 14 ST,10003,QUPA,7,Good,None,Good,Stakes / Wires,Manhattan,-73.988277,40.733754,10003,50,4001,32947,"OAK, PIN",QUERCUS PALUSTRIS,"(40.733754, -73.988277)"
949,145 E 14 ST,10003,QUPA,8,Good,None,Good,Stakes / Wires,Manhattan,-73.988277,40.733754,10003,50,4001,32947,"OAK, PIN",QUERCUS PALUSTRIS,"(40.733754, -73.988277)"
950,145 E 14 ST,10003,QUPA,5,Good,None,Good,Stakes / Wires,Manhattan,-73.988277,40.733754,10003,50,4001,32947,"OAK, PIN",QUERCUS PALUSTRIS,"(40.733754, -73.988277)"
951,145 E 14 ST,10003,QUPA,7,Good,None,Good,Stakes / Wires,Manhattan,-73.988277,40.733754,10003,50,4001,32947,"OAK, PIN",QUERCUS PALUSTRIS,"(40.733754, -73.988277)"
952,206 E 14 ST,10003,GLTR,12,Good,None,Good,None,Manhattan,-73.987014,40.733222,10003,40,1000,32953,HONEYLOCUST,GLEDITSIA TRIACANTHOS,"(40.733222, -73.987014)"
953,218 E 14 ST,10003,GLTR,14,Good,None,Good,None,Manhattan,-73.986746,40.73311,10003,40,1000,32953,HONEYLOCUST,GLEDITSIA TRIACANTHOS,"(40.73311, -73.986746)"
954,222 E 14 ST,10003,GLTR,11,Good,None,Good,None,Manhattan,-73.986659,40.733073,10003,40,1000,32953,HONEYLOCUST,GLEDITSIA TRIACANTHOS,"(40.733073, -73.986659)"
955,226 E 14 ST,10003,GLTR,12,Good,None,Good,None,Manhattan,-73.98657,40.733035,10003,40,1000,32953,HONEYLOCUST,GLEDITSIA TRIACANTHOS,"(40.733035, -73.98657)"
956,228 E 14 ST,10003,GLTR,13,Good,None,Good,None,Manhattan,-73.986525,40.733016,10003,40,1000,32953,HONEYLOCUST,GLEDITSIA TRIACANTHOS,"(40.733016, -73.986525)"
957,232 E 14 ST,10003,GLTR,12,Good,None,Good,None,Manhattan,-73.986436,40.732979,10003,40,1000,32953,HONEYLOCUST,GLEDITSIA TRIACANTHOS,"(40.732979, -73.986436)"
958,240 E 14 ST,10003,GLTR,12,Good,None,Good,None,Manhattan,-73.98626,40.732904,10003,40,1000,32953,HONEYLOCUST,GLEDITSIA TRIACANTHOS,"(40.732904, -73.98626)"
959,242 E 14 ST,10003,GLTR,10,Good,None,Good,None,Manhattan,-73.986214,40.732885,10003,40,1000,32953,HONEYLOCUST,GLEDITSIA TRIACANTHOS,"(40.732885, -73.986214)"
960,246 E 14 ST,10003,GLTR,9,Good,None,Good,None,Manhattan,-73.986127,40.732848,10003,40,1000,32953,HONEYLOCUST,GLEDITSIA TRIACANTHOS,"(40.732848, -73.986127)"
961,250 E 14 ST,10003,GLTR,9,Good,None,Good,None,Manhattan,-73.986038,40.732811,10003,40,1000,32953,HONEYLOCUST,GLEDITSIA TRIACANTHOS,"(40.732811, -73.986038)"
962,239 E 14 ST,10003,GLTR,12,Good,None,Good,None,Manhattan,-73.986303,40.732923,10003,48,4000,32953,HONEYLOCUST,GLEDITSIA TRIACANTHOS,"(40.732923, -73.986303)"
963,233 E 14 ST,10003,GLTR,11,Good,None,Good,None,Manhattan,-73.986436,40.732979,10003,48,4000,32953,HONEYLOCUST,GLEDITSIA TRIACANTHOS,"(40.732979, -73.986436)"
964,231 E 14 ST,10003,GLTR,14,Good,None,Good,None,Manhattan,-73.986481,40.732998,10003,48,4000,32953,HONEYLOCUST,GLEDITSIA TRIACANTHOS,"(40.732998, -73.986481)"
965,276 BOWERY,10003,PLAC,16,Good,None,Good,None,Manhattan,-73.992771,40.723727,10012,43,1000,164302,LONDON PLANETREE,PLATANUS ACERIFOLIA,"(40.723727, -73.992771)"
966,229 E 14 ST,10003,GLTR,15,Good,None,Good,None,Manhattan,-73.986525,40.733016,10003,48,4000,32953,HONEYLOCUST,GLEDITSIA TRIACANTHOS,"(40.733016, -73.986525)"
967,227 E 14 ST,10003,PLAC,11,Good,None,Good,None,Manhattan,-73.98657,40.733035,10003,48,4000,32953,LONDON PLANETREE,PLATANUS ACERIFOLIA,"(40.733035, -73.98657)"
968,272 BOWERY,10003,PLAC,15,Good,None,Good,None,Manhattan,-73.992822,40.723604,10012,43,1000,164302,LONDON PLANETREE,PLATANUS ACERIFOLIA,"(40.723604, -73.992822)"
969,225 E 14 ST,10003,GLTR,16,Good,None,Good,None,Manhattan,-73.986614,40.733054,10003,48,4000,32953,HONEYLOCUST,GLEDITSIA TRIACANTHOS,"(40.733054, -73.986614)"
970,211 E 14 ST,10003,GLTR,12,Good,None,Good,None,Manhattan,-73.986925,40.733185,10003,48,4000,32953,HONEYLOCUST,GLEDITSIA TRIACANTHOS,"(40.733185, -73.986925)"
971,254 BOWERY,10003,PS,0,Planting Space,None,Good,None,Manhattan,-73.993051,40.723052,10012,43,1000,164302,PLANTING SITE,PLANTING SITE,"(40.723052, -73.993051)"
972,201 E 14 ST,10003,GLTR,5,Good,None,Good,None,Manhattan,-73.987146,40.733278,10003,48,4000,32953,HONEYLOCUST,GLEDITSIA TRIACANTHOS,"(40.733278, -73.987146)"
973,201 E 14 ST,10003,GLTR,9,Good,None,Good,None,Manhattan,-73.987146,40.733278,10003,48,4000,32953,HONEYLOCUST,GLEDITSIA TRIACANTHOS,"(40.733278, -73.987146)"
974,240 BOWERY,10003,PLAC,10,Good,None,Good,None,Manhattan,-73.993189,40.722635,10012,43,1000,32698,LONDON PLANETREE,PLATANUS ACERIFOLIA,"(40.722635, -73.993189)"
975,310 E 14 ST,10003,GIBI,8,Good,None,Good,Stakes / Wires,Manhattan,-73.984668,40.732236,10003,40,6000,33129,GINKGO,GINKGO BILOBA,"(40.732236, -73.984668)"
976,222 BOWERY,10003,PYCA,5,Excellent,None,Good,Guard Strangling,Manhattan,-73.993378,40.722031,10012,43,2000,32695,"PEAR, CALLERY",PYRUS CALLERYANA,"(40.722031, -73.993378)"
977,310 E 14 ST,10003,GIBI,6,Good,None,Good,Stakes / Wires,Manhattan,-73.984668,40.732236,10003,40,6000,33129,GINKGO,GINKGO BILOBA,"(40.732236, -73.984668)"
978,310 E 14 ST,10003,GIBI,7,Good,None,Good,Stakes / Wires,Manhattan,-73.984668,40.732236,10003,40,6000,33129,GINKGO,GINKGO BILOBA,"(40.732236, -73.984668)"
979,320 E 14 ST,10003,TICO,7,Good,None,Good,Stakes / Wires,Manhattan,-73.984433,40.732138,10003,40,6000,33129,"LINDEN, LITTLE LEAF",TILIA CORDATA,"(40.732138, -73.984433)"
980,340 E 14 ST,10003,PLAC,10,Good,None,Good,Stakes / Wires,Manhattan,-73.983963,40.731943,10003,40,6000,33129,LONDON PLANETREE,PLATANUS ACERIFOLIA,"(40.731943, -73.983963)"
981,344 E 14 ST,10003,PLAC,8,Good,None,Good,Stakes / Wires,Manhattan,-73.983868,40.731904,10003,40,6000,33129,LONDON PLANETREE,PLATANUS ACERIFOLIA,"(40.731904, -73.983868)"
982,344 E 14 ST,10003,GIBI,5,Good,None,Good,Stakes / Wires,Manhattan,-73.983868,40.731904,10003,40,6000,33129,GINKGO,GINKGO BILOBA,"(40.731904, -73.983868)"
983,5 SPRING ST,10003,TICO,10,Excellent,None,Good,Stakes / Wires,Manhattan,-73.994161,40.721086,10012,43,2000,275212,"LINDEN, LITTLE LEAF",TILIA CORDATA,"(40.721086, -73.994161)"
984,239 1 AV,10003,PYCA,4,Good,None,Good,Stakes / Wires,Manhattan,-73.982554,40.731372,10003,48,5002,164496,"PEAR, CALLERY",PYRUS CALLERYANA,"(40.731372, -73.982554)"
985,10 SPRING ST,10003,ACPL,3,Good,None,Good,None,Manhattan,-73.994514,40.721231,10012,41,1000,275212,"MAPLE, NORWAY",ACER PLATANOIDES,"(40.721231, -73.994514)"
986,333 E 14 ST,10003,TICO,7,Poor,None,Good,Stakes / Wires,Manhattan,-73.98415,40.73202,10003,48,5002,33129,"LINDEN, LITTLE LEAF",TILIA CORDATA,"(40.73202, -73.98415)"
987,333 E 14 ST,10003,PYCA,4,Good,None,Good,Stakes / Wires,Manhattan,-73.98415,40.73202,10003,48,5002,33129,"PEAR, CALLERY",PYRUS CALLERYANA,"(40.73202, -73.98415)"
988,333 E 14 ST,10003,TICO,7,Good,None,Good,Stakes / Wires,Manhattan,-73.98415,40.73202,10003,48,5002,33129,"LINDEN, LITTLE LEAF",TILIA CORDATA,"(40.73202, -73.98415)"
989,327 E 14 ST,10003,GIBI,9,Good,None,Good,Stakes / Wires,Manhattan,-73.984293,40.73208,10003,48,5002,33129,GINKGO,GINKGO BILOBA,"(40.73208, -73.984293)"
990,176 ELIZABETH ST,10003,GIBI,4,Unknown,None,Good,None,Manhattan,-73.994779,40.721118,10012,41,1000,32505,GINKGO,GINKGO BILOBA,"(40.721118, -73.994779)"
991,323 E 14 ST,10003,PYCA,4,Good,None,Good,Stakes / Wires,Manhattan,-73.984387,40.732119,10003,48,5002,33129,"PEAR, CALLERY",PYRUS CALLERYANA,"(40.732119, -73.984387)"
992,321 E 14 ST,10003,GIBI,6,Good,None,Good,Stakes / Wires,Manhattan,-73.984433,40.732138,10003,48,5002,33129,GINKGO,GINKGO BILOBA,"(40.732138, -73.984433)"
993,317 E 14 ST,10003,PYCA,4,Good,None,Good,Stakes / Wires,Manhattan,-73.984528,40.732177,10003,48,5002,33129,"PEAR, CALLERY",PYRUS CALLERYANA,"(40.732177, -73.984528)"
994,315 E 14 ST,10003,TICO,8,Good,None,Good,Stakes / Wires,Manhattan,-73.984574,40.732196,10003,48,5002,33129,"LINDEN, LITTLE LEAF",TILIA CORDATA,"(40.732196, -73.984574)"
995,313 E 14 ST,10003,PYCA,4,Good,None,Good,Stakes / Wires,Manhattan,-73.984622,40.732216,10003,48,5002,33129,"PEAR, CALLERY",PYRUS CALLERYANA,"(40.732216, -73.984622)"
996,311 E 14 ST,10003,PYCA,8,Good,None,Good,Stakes / Wires,Manhattan,-73.984668,40.732236,10003,48,5002,33129,"PEAR, CALLERY",PYRUS CALLERYANA,"(40.732236, -73.984668)"
997,16 SPRING ST,10003,PYCA,5,Good,None,Good,None,Manhattan,-73.994821,40.721357,10012,41,1001,32528,"PEAR, CALLERY",PYRUS CALLERYANA,"(40.721357, -73.994821)"
998,307 E 14 ST,10003,GIBI,8,Good,None,Good,Stakes / Wires,Manhattan,-73.984763,40.732275,10003,48,5002,33129,GINKGO,GINKGO BILOBA,"(40.732275, -73.984763)"
999,301 E 14 ST,10003,GIBI,8,Good,None,Good,Stakes / Wires,Manhattan,-73.984904,40.732333,10003,48,5002,33129,GINKGO,GINKGO BILOBA,"(40.732333, -73.984904)"
1000,21 SPRING ST,10003,SOJA,10,Excellent,None,Good,None,Manhattan,-73.995137,40.721486,10012,43,2001,32528,JAPANESE PAGODA TREE,SOPHORA JAPONICA,"(40.721486, -73.995137)"